{"type":"FeatureCollection","features":[{"type":"Feature","geometry":{"type":"Point","coordinates":[-9.337912400000278,38.68883929999964]},"properties":{"id":"carcavelos-portugal","name":"Carcavelos, Portugal","type":"cable_landing","is_tbd":false}},{"type":"Feature","geometry":{"type":"Point","coordinates":[-16.90890900000028,32.64688500000011]},"properties":{"id":"funchal-portugal","name":"Funchal, Portugal","type":"cable_landing","is_tbd":false}},{"type":"Feature","geometry":{"type":"Point","coordinates":[-2.463794999999635,36.84186500000027]},"properties":{"id":"almera-spain","name":"Almería, Spain","type":"cable_landing","is_tbd":false}},{"type":"Feature","geometry":{"type":"Point","coordinates":[-2.938097300000464,35.292277500000324]},"properties":{"id":"melilla-spain","name":"Melilla, Spain","type":"cable_landing","is_tbd":false}},{"type":"Feature","geometry":{"type":"Point","coordinates":[-2.612499000000355,36.76384499999958]},"properties":{"id":"roquetas-de-mar-spain","name":"Roquetas de Mar, Spain","type":"cable_landing","is_tbd":false}},{"type":"Feature","geometry":{"type":"Point","coordinates":[5.298333,59.446389]},"properties":{"id":"haugesund-norway","name":"Haugesund, Norway","type":"cable_landing","is_tbd":false}},{"type":"Feature","geometry":{"type":"Point","coordinates":[5.297954999999774,59.324351]},"properties":{"id":"hvik-norway","name":"Håvik, Norway","type":"cable_landing","is_tbd":false}},{"type":"Feature","geometry":{"type":"Point","coordinates":[5.574096,58.936182]},"properties":{"id":"tananger-norway","name":"Tananger, Norway","type":"cable_landing","is_tbd":false}},{"type":"Feature","geometry":{"type":"Point","coordinates":[5.98871459583421,58.42414318521941]},"properties":{"id":"egersund-norway","name":"Egersund, Norway","type":"cable_landing","is_tbd":false}},{"type":"Feature","geometry":{"type":"Point","coordinates":[7.994844999999685,58.143805]},"properties":{"id":"kristiansand-norway","name":"Kristiansand, Norway","type":"cable_landing","is_tbd":false}},{"type":"Feature","geometry":{"type":"Point","coordinates":[8.758665999999636,58.470047]},"properties":{"id":"arendal-norway","name":"Arendal, Norway","type":"cable_landing","is_tbd":false}},{"type":"Feature","geometry":{"type":"Point","coordinates":[10.016389,59.081111]},"properties":{"id":"larvik-norway","name":"Larvik, Norway","type":"cable_landing","is_tbd":false}},{"type":"Feature","geometry":{"type":"Point","coordinates":[10.749980000000193,59.91228]},"properties":{"id":"oslo-norway","name":"Oslo, Norway","type":"cable_landing","is_tbd":false}},{"type":"Feature","geometry":{"type":"Point","coordinates":[11.206671000000142,58.914588]},"properties":{"id":"lagunen-norway","name":"Lagunen, Norway","type":"cable_landing","is_tbd":false}},{"type":"Feature","geometry":{"type":"Point","coordinates":[10.713431,59.716322]},"properties":{"id":"bunnefjorden-norway","name":"Bunnefjorden, Norway","type":"cable_landing","is_tbd":false}},{"type":"Feature","geometry":{"type":"Point","coordinates":[10.432778000000212,59.420833]},"properties":{"id":"horten-norway","name":"Horten, Norway","type":"cable_landing","is_tbd":false}},{"type":"Feature","geometry":{"type":"Point","coordinates":[6.786928999999816,58.06443999999988]},"properties":{"id":"lista-norway","name":"Lista, Norway","type":"cable_landing","is_tbd":false}},{"type":"Feature","geometry":{"type":"Point","coordinates":[5.730793999999747,58.97083300000011]},"properties":{"id":"stavanger-norway","name":"Stavanger, Norway","type":"cable_landing","is_tbd":false}},{"type":"Feature","geometry":{"type":"Point","coordinates":[-3.482272326026703,47.650237709593256]},"properties":{"id":"port-nl-france","name":"Port Nâl, France","type":"cable_landing","is_tbd":false}},{"type":"Feature","geometry":{"type":"Point","coordinates":[-3.445566038986811,47.69743263943647]},"properties":{"id":"petit-perello-france","name":"Petit Perello, France","type":"cable_landing","is_tbd":false}},{"type":"Feature","geometry":{"type":"Point","coordinates":[-0.210385999999716,39.66255600000014]},"properties":{"id":"sagunto-spain","name":"Sagunto, Spain","type":"cable_landing","is_tbd":false}},{"type":"Feature","geometry":{"type":"Point","coordinates":[2.462767999999841,39.49995399999969]},"properties":{"id":"santa-ponsa-spain","name":"Santa Ponsa, Spain","type":"cable_landing","is_tbd":false}},{"type":"Feature","geometry":{"type":"Point","coordinates":[-0.376943000000153,39.4687430000001]},"properties":{"id":"valencia-spain","name":"Valencia, Spain","type":"cable_landing","is_tbd":false}},{"type":"Feature","geometry":{"type":"Point","coordinates":[2.911560000000463,39.61353499999987]},"properties":{"id":"mallorca-spain","name":"Mallorca, Spain","type":"cable_landing","is_tbd":false}},{"type":"Feature","geometry":{"type":"Point","coordinates":[1.418889999999891,38.906115]},"properties":{"id":"ibiza-spain","name":"Ibiza, Spain","type":"cable_landing","is_tbd":false}},{"type":"Feature","geometry":{"type":"Point","coordinates":[18.405157000000173,40.30200700000023]},"properties":{"id":"san-foca-italy","name":"San Foca, Italy","type":"cable_landing","is_tbd":false}},{"type":"Feature","geometry":{"type":"Point","coordinates":[19.376194000000368,40.786713]},"properties":{"id":"seman-albania","name":"Seman, Albania","type":"cable_landing","is_tbd":false}},{"type":"Feature","geometry":{"type":"Point","coordinates":[-8.869599,37.95719000000028]},"properties":{"id":"sines-portugal","name":"Sines, Portugal","type":"cable_landing","is_tbd":false}},{"type":"Feature","geometry":{"type":"Point","coordinates":[8.406946000000488,55.44848]},"properties":{"id":"fano-denmark","name":"Fano, Denmark","type":"cable_landing","is_tbd":false}},{"type":"Feature","geometry":{"type":"Point","coordinates":[5.1805,55.32214999999985]},"properties":{"id":"totalenergies-halfdan-denmark","name":"TotalEnergies Halfdan, Denmark","type":"cable_landing","is_tbd":false}},{"type":"Feature","geometry":{"type":"Point","coordinates":[4.513130000000331,55.41867]},"properties":{"id":"totalenergies-tyra-denmark","name":"TotalEnergies Tyra, Denmark","type":"cable_landing","is_tbd":false}},{"type":"Feature","geometry":{"type":"Point","coordinates":[23.72250000000031,35.51233333000022]},"properties":{"id":"nopigeia-greece","name":"Nopigeia, Greece","type":"cable_landing","is_tbd":false}},{"type":"Feature","geometry":{"type":"Point","coordinates":[23.035747220000616,36.52322222000015]},"properties":{"id":"neapoli-greece","name":"Neapoli, Greece","type":"cable_landing","is_tbd":false}},{"type":"Feature","geometry":{"type":"Point","coordinates":[24.931604989680153,35.40468699999957]},"properties":{"id":"korakia-greece","name":"Korakia, Greece","type":"cable_landing","is_tbd":false}},{"type":"Feature","geometry":{"type":"Point","coordinates":[23.363239415358947,37.97395211499247]},"properties":{"id":"pachi-greece","name":"Pachi, Greece","type":"cable_landing","is_tbd":false}},{"type":"Feature","geometry":{"type":"Point","coordinates":[5.37250699999953,43.29357899999988]},"properties":{"id":"marseille-france","name":"Marseille, France","type":"cable_landing","is_tbd":false}},{"type":"Feature","geometry":{"type":"Point","coordinates":[32.28445799999977,31.25927899999988]},"properties":{"id":"port-said-egypt","name":"Port Said, Egypt","type":"cable_landing","is_tbd":false}},{"type":"Feature","geometry":{"type":"Point","coordinates":[-6.0854700000001,53.54969]},"properties":{"id":"loughshinny-ireland","name":"LoughShinny, Ireland","type":"cable_landing","is_tbd":false}},{"type":"Feature","geometry":{"type":"Point","coordinates":[12.591318000000172,37.650538999999725]},"properties":{"id":"mazara-del-vallo-italy","name":"Mazara del Vallo, Italy","type":"cable_landing","is_tbd":false}},{"type":"Feature","geometry":{"type":"Point","coordinates":[2.168764,41.385628]},"properties":{"id":"barcelona-spain","name":"Barcelona, Spain","type":"cable_landing","is_tbd":false}},{"type":"Feature","geometry":{"type":"Point","coordinates":[-5.843848196000124,36.13475690999988]},"properties":{"id":"zahara-de-los-atunes-spain","name":"Zahara de los Atunes, Spain","type":"cable_landing","is_tbd":false}},{"type":"Feature","geometry":{"type":"Point","coordinates":[-5.27519569,36.294004639999685]},"properties":{"id":"torreguadiaro-spain","name":"Torreguadiaro, Spain","type":"cable_landing","is_tbd":false}},{"type":"Feature","geometry":{"type":"Point","coordinates":[-5.391813000000155,35.56590799999984]},"properties":{"id":"ttouan-morocco","name":"Tétouan, Morocco","type":"cable_landing","is_tbd":false}},{"type":"Feature","geometry":{"type":"Point","coordinates":[-2.93303499999962,35.170020000000136]},"properties":{"id":"nador-morocco","name":"Nador, Morocco","type":"cable_landing","is_tbd":false}},{"type":"Feature","geometry":{"type":"Point","coordinates":[3.031889999999493,36.76572999999971]},"properties":{"id":"algiers-algeria","name":"Algiers, Algeria","type":"cable_landing","is_tbd":false}},{"type":"Feature","geometry":{"type":"Point","coordinates":[6.557241714000355,37.00296280000029]},"properties":{"id":"collo-algeria","name":"Collo, Algeria","type":"cable_landing","is_tbd":false}},{"type":"Feature","geometry":{"type":"Point","coordinates":[24.768278120000275,35.071407569999735]},"properties":{"id":"tympaki-greece","name":"Tympaki, Greece","type":"cable_landing","is_tbd":false}},{"type":"Feature","geometry":{"type":"Point","coordinates":[-5.115560000000471,54.84371899999962]},"properties":{"id":"portpatrick-united-kingdom","name":"Portpatrick, United Kingdom","type":"cable_landing","is_tbd":false}},{"type":"Feature","geometry":{"type":"Point","coordinates":[-5.538752000000216,54.64275400000028]},"properties":{"id":"donaghadee-united-kingdom","name":"Donaghadee, United Kingdom","type":"cable_landing","is_tbd":false}},{"type":"Feature","geometry":{"type":"Point","coordinates":[-4.854218000000571,55.240164]},"properties":{"id":"girvan-united-kingdom","name":"Girvan, United Kingdom","type":"cable_landing","is_tbd":false}},{"type":"Feature","geometry":{"type":"Point","coordinates":[-5.809859999999787,54.85750000000036]},"properties":{"id":"larne-united-kingdom","name":"Larne, United Kingdom","type":"cable_landing","is_tbd":false}},{"type":"Feature","geometry":{"type":"Point","coordinates":[8.938900000000245,44.41033899999988]},"properties":{"id":"genoa-italy","name":"Genoa, Italy","type":"cable_landing","is_tbd":false}},{"type":"Feature","geometry":{"type":"Point","coordinates":[34.76966099999987,32.04504300000022]},"properties":{"id":"tel-aviv-israel","name":"Tel Aviv, Israel","type":"cable_landing","is_tbd":false}},{"type":"Feature","geometry":{"type":"Point","coordinates":[24.01221700000019,35.511999999999716]},"properties":{"id":"chania-greece","name":"Chania, Greece","type":"cable_landing","is_tbd":false}},{"type":"Feature","geometry":{"type":"Point","coordinates":[13.358373000000142,38.1214530000002]},"properties":{"id":"palermo-italy","name":"Palermo, Italy","type":"cable_landing","is_tbd":false}},{"type":"Feature","geometry":{"type":"Point","coordinates":[12.495760000000303,41.90311000000014]},"properties":{"id":"rome-italy","name":"Rome, Italy","type":"cable_landing","is_tbd":false}},{"type":"Feature","geometry":{"type":"Point","coordinates":[9.45088100000109,42.69728299999966]},"properties":{"id":"bastia-france","name":"Bastia, France","type":"cable_landing","is_tbd":false}},{"type":"Feature","geometry":{"type":"Point","coordinates":[32.46668800000049,34.76662799999977]},"properties":{"id":"yeroskipos-cyprus","name":"Yeroskipos, Cyprus","type":"cable_landing","is_tbd":false}},{"type":"Feature","geometry":{"type":"Point","coordinates":[9.613161999999733,41.00477599999982]},"properties":{"id":"golfo-aranci-italy","name":"Golfo Aranci, Italy","type":"cable_landing","is_tbd":false}},{"type":"Feature","geometry":{"type":"Point","coordinates":[28.669815,59.445880999999844]},"properties":{"id":"kingisepp-russia","name":"Kingisepp, Russia","type":"cable_landing","is_tbd":false}},{"type":"Feature","geometry":{"type":"Point","coordinates":[20.50804500000038,54.7089349999998]},"properties":{"id":"kaliningrad-russia","name":"Kaliningrad, Russia","type":"cable_landing","is_tbd":false}},{"type":"Feature","geometry":{"type":"Point","coordinates":[24.7684,35.071629999999004]},"properties":{"id":"timpaki-greece","name":"Timpaki, Greece","type":"cable_landing","is_tbd":false}},{"type":"Feature","geometry":{"type":"Point","coordinates":[-21.378120000000365,63.856258000000224]},"properties":{"id":"thorlakshofn-iceland","name":"Thorlakshofn, Iceland","type":"cable_landing","is_tbd":false}},{"type":"Feature","geometry":{"type":"Point","coordinates":[33.08685,68.97278999999958]},"properties":{"id":"murmansk-russia","name":"Murmansk, Russia","type":"cable_landing","is_tbd":false}},{"type":"Feature","geometry":{"type":"Point","coordinates":[14.350100000001419,35.95239999999956]},"properties":{"id":"mellieha-malta","name":"Mellieha, Malta","type":"cable_landing","is_tbd":false}},{"type":"Feature","geometry":{"type":"Point","coordinates":[29.672355999999496,31.047639999999035]},"properties":{"id":"sidi-kerir-egypt","name":"Sidi Kerir, Egypt","type":"cable_landing","is_tbd":false}},{"type":"Feature","geometry":{"type":"Point","coordinates":[8.483793000000247,44.30577799999929]},"properties":{"id":"savona-italy","name":"Savona, Italy","type":"cable_landing","is_tbd":false}},{"type":"Feature","geometry":{"type":"Point","coordinates":[35.56304299999965,33.89190000000016]},"properties":{"id":"jdaide-lebanon","name":"Jdaide, Lebanon","type":"cable_landing","is_tbd":false}},{"type":"Feature","geometry":{"type":"Point","coordinates":[26.107170134812577,35.20695416056722]},"properties":{"id":"sitia-greece","name":"Sitia, Greece","type":"cable_landing","is_tbd":false}},{"type":"Feature","geometry":{"type":"Point","coordinates":[27.851088976705284,35.927851575374916]},"properties":{"id":"plimmiri-greece","name":"Plimmiri, Greece","type":"cable_landing","is_tbd":false}},{"type":"Feature","geometry":{"type":"Point","coordinates":[28.120055780442613,36.41157986414535]},"properties":{"id":"kremasti-greece","name":"Kremasti, Greece","type":"cable_landing","is_tbd":false}},{"type":"Feature","geometry":{"type":"Point","coordinates":[27.14344509395181,36.78290060770803]},"properties":{"id":"kardamena-greece","name":"Kardamena, Greece","type":"cable_landing","is_tbd":false}},{"type":"Feature","geometry":{"type":"Point","coordinates":[26.99507401460926,36.77157655569002]},"properties":{"id":"kochilari-greece","name":"Kochilari, Greece","type":"cable_landing","is_tbd":false}},{"type":"Feature","geometry":{"type":"Point","coordinates":[25.464805590265655,36.34542571389255]},"properties":{"id":"perivolos-greece","name":"Perivolos, Greece","type":"cable_landing","is_tbd":false}},{"type":"Feature","geometry":{"type":"Point","coordinates":[25.402342075882416,36.47742641187406]},"properties":{"id":"baxedes-greece","name":"Baxedes, Greece","type":"cable_landing","is_tbd":false}},{"type":"Feature","geometry":{"type":"Point","coordinates":[25.403637339896846,36.97726017314534]},"properties":{"id":"pirgaki-greece","name":"Pirgaki, Greece","type":"cable_landing","is_tbd":false}},{"type":"Feature","geometry":{"type":"Point","coordinates":[25.375974548484407,37.101840262262925]},"properties":{"id":"naxos-greece","name":"Naxos, Greece","type":"cable_landing","is_tbd":false}},{"type":"Feature","geometry":{"type":"Point","coordinates":[25.23814603454855,37.12223341451548]},"properties":{"id":"naousa-greece","name":"Naousa, Greece","type":"cable_landing","is_tbd":false}},{"type":"Feature","geometry":{"type":"Point","coordinates":[25.419567987656336,37.439068852078265]},"properties":{"id":"kalafati-greece","name":"Kalafati, Greece","type":"cable_landing","is_tbd":false}},{"type":"Feature","geometry":{"type":"Point","coordinates":[25.32858123375334,37.44688214068401]},"properties":{"id":"mykonos-greece","name":"Mykonos, Greece","type":"cable_landing","is_tbd":false}},{"type":"Feature","geometry":{"type":"Point","coordinates":[25.207101363906816,37.53133917516834]},"properties":{"id":"agios-sostis-greece","name":"Agios Sostis, Greece","type":"cable_landing","is_tbd":false}},{"type":"Feature","geometry":{"type":"Point","coordinates":[25.160525741214457,37.53871578201091]},"properties":{"id":"tinos-greece","name":"Tinos, Greece","type":"cable_landing","is_tbd":false}},{"type":"Feature","geometry":{"type":"Point","coordinates":[24.93928876221375,37.43946272240976]},"properties":{"id":"ermoupoli-greece","name":"Ermoupoli, Greece","type":"cable_landing","is_tbd":false}},{"type":"Feature","geometry":{"type":"Point","coordinates":[20.11287183870283,39.385367990966586]},"properties":{"id":"kavos-greece","name":"Kavos, Greece","type":"cable_landing","is_tbd":false}},{"type":"Feature","geometry":{"type":"Point","coordinates":[19.858511225015405,39.641538962639686]},"properties":{"id":"kontokali-greece","name":"Kontokali, Greece","type":"cable_landing","is_tbd":false}},{"type":"Feature","geometry":{"type":"Point","coordinates":[20.2774113097486,39.449988876096256]},"properties":{"id":"plataria-greece","name":"Plataria, Greece","type":"cable_landing","is_tbd":false}},{"type":"Feature","geometry":{"type":"Point","coordinates":[25.289696105851903,37.12525060559679]},"properties":{"id":"filizi-greece","name":"Filizi, Greece","type":"cable_landing","is_tbd":false}},{"type":"Feature","geometry":{"type":"Point","coordinates":[20.02099736408536,39.683031225295395]},"properties":{"id":"aetos-greece","name":"Aetos, Greece","type":"cable_landing","is_tbd":false}},{"type":"Feature","geometry":{"type":"Point","coordinates":[20.75171500000016,38.9592669999997]},"properties":{"id":"preveza-greece","name":"Preveza, Greece","type":"cable_landing","is_tbd":false}},{"type":"Feature","geometry":{"type":"Point","coordinates":[17.127150000000228,39.080669]},"properties":{"id":"crotone-italy","name":"Crotone, Italy","type":"cable_landing","is_tbd":false}},{"type":"Feature","geometry":{"type":"Point","coordinates":[27.985308316539033,41.88417700854285]},"properties":{"id":"igneada-turkey","name":"Igneada, Turkey","type":"cable_landing","is_tbd":false}},{"type":"Feature","geometry":{"type":"Point","coordinates":[28.582768830792418,43.817203429779795]},"properties":{"id":"mangalia-romania","name":"Mangalia, Romania","type":"cable_landing","is_tbd":false}},{"type":"Feature","geometry":{"type":"Point","coordinates":[27.912847430370874,43.208378859398294]},"properties":{"id":"varna-bulgaria","name":"Varna, Bulgaria","type":"cable_landing","is_tbd":false}},{"type":"Feature","geometry":{"type":"Point","coordinates":[28.98608885757659,41.040611420515205]},"properties":{"id":"istanbul-turkey","name":"Istanbul, Turkey","type":"cable_landing","is_tbd":false}},{"type":"Feature","geometry":{"type":"Point","coordinates":[-7.631939228454826,33.605388222844965]},"properties":{"id":"casablanca-morocco","name":"Casablanca, Morocco","type":"cable_landing","is_tbd":false}},{"type":"Feature","geometry":{"type":"Point","coordinates":[3.207005557221095,51.330720666926]},"properties":{"id":"zeebrugge-belgium","name":"Zeebrugge, Belgium","type":"cable_landing","is_tbd":false}},{"type":"Feature","geometry":{"type":"Point","coordinates":[4.527219465719213,52.3704061705302]},"properties":{"id":"zandvoort-netherlands","name":"Zandvoort, Netherlands","type":"cable_landing","is_tbd":false}},{"type":"Feature","geometry":{"type":"Point","coordinates":[1.620287931266688,52.207129508183556]},"properties":{"id":"sizewell-united-kingdom","name":"Sizewell, United Kingdom","type":"cable_landing","is_tbd":false}},{"type":"Feature","geometry":{"type":"Point","coordinates":[1.613061373886069,52.180842493763066]},"properties":{"id":"thorpeness-united-kingdom","name":"Thorpeness, United Kingdom","type":"cable_landing","is_tbd":false}},{"type":"Feature","geometry":{"type":"Point","coordinates":[4.700758740675326,52.83692630065093]},"properties":{"id":"callantsoog-netherlands","name":"Callantsoog, Netherlands","type":"cable_landing","is_tbd":false}},{"type":"Feature","geometry":{"type":"Point","coordinates":[1.693546515543716,52.71520907724329]},"properties":{"id":"winterton-on-sea-united-kingdom","name":"Winterton-on-Sea, United Kingdom","type":"cable_landing","is_tbd":false}},{"type":"Feature","geometry":{"type":"Point","coordinates":[-9.048344475059992,53.273886331643325]},"properties":{"id":"galway-ireland","name":"Galway, Ireland","type":"cable_landing","is_tbd":false}},{"type":"Feature","geometry":{"type":"Point","coordinates":[-1.211874000599181,44.893828011372506]},"properties":{"id":"le-porge-france","name":"Le Porge, France","type":"cable_landing","is_tbd":false}},{"type":"Feature","geometry":{"type":"Point","coordinates":[8.193131486241754,55.76459980196046]},"properties":{"id":"houstrup-denmark","name":"Houstrup, Denmark","type":"cable_landing","is_tbd":false}},{"type":"Feature","geometry":{"type":"Point","coordinates":[-4.544404967232026,50.828206861825805]},"properties":{"id":"bude-united-kingdom","name":"Bude, United Kingdom","type":"cable_landing","is_tbd":false}},{"type":"Feature","geometry":{"type":"Point","coordinates":[8.616176544405619,57.1116419890287]},"properties":{"id":"hanstholm-denmark","name":"Hanstholm, Denmark","type":"cable_landing","is_tbd":false}},{"type":"Feature","geometry":{"type":"Point","coordinates":[6.174386267600624,62.47148731681639]},"properties":{"id":"lesund-norway","name":"Ålesund, Norway","type":"cable_landing","is_tbd":false}},{"type":"Feature","geometry":{"type":"Point","coordinates":[7.160738107922867,62.737235056023906]},"properties":{"id":"molde-norway","name":"Molde, Norway","type":"cable_landing","is_tbd":false}},{"type":"Feature","geometry":{"type":"Point","coordinates":[10.392083475057461,63.43101023727209]},"properties":{"id":"trondheim-norway","name":"Trondheim, Norway","type":"cable_landing","is_tbd":false}},{"type":"Feature","geometry":{"type":"Point","coordinates":[4.855490717543631,60.621978481842774]},"properties":{"id":"sture-norway","name":"Sture, Norway","type":"cable_landing","is_tbd":false}},{"type":"Feature","geometry":{"type":"Point","coordinates":[5.293393239360569,61.17224731124921]},"properties":{"id":"hyllestad-norway","name":"Hyllestad, Norway","type":"cable_landing","is_tbd":false}},{"type":"Feature","geometry":{"type":"Point","coordinates":[6.465755690097893,62.614444121130134]},"properties":{"id":"herlandsvika-norway","name":"Herlandsvika, Norway","type":"cable_landing","is_tbd":false}},{"type":"Feature","geometry":{"type":"Point","coordinates":[7.681587348323319,62.56582391439912]},"properties":{"id":"andalsnes-norway","name":"Andalsnes, Norway","type":"cable_landing","is_tbd":false}},{"type":"Feature","geometry":{"type":"Point","coordinates":[9.663116706307335,63.68840785895233]},"properties":{"id":"brekstad-norway","name":"Brekstad, Norway","type":"cable_landing","is_tbd":false}},{"type":"Feature","geometry":{"type":"Point","coordinates":[7.729683017377027,63.11078168812796]},"properties":{"id":"kristiansund-norway","name":"Kristiansund, Norway","type":"cable_landing","is_tbd":false}},{"type":"Feature","geometry":{"type":"Point","coordinates":[5.332760887254182,60.390702572204816]},"properties":{"id":"bergen-norway","name":"Bergen, Norway","type":"cable_landing","is_tbd":false}},{"type":"Feature","geometry":{"type":"Point","coordinates":[7.906062286958331,63.38756569751715]},"properties":{"id":"equinor-tjeldbergodden-norway","name":"Equinor Tjeldbergodden, Norway","type":"cable_landing","is_tbd":false}},{"type":"Feature","geometry":{"type":"Point","coordinates":[5.522348155291638,62.03599154304587]},"properties":{"id":"heim-norway","name":"Åheim, Norway","type":"cable_landing","is_tbd":false}},{"type":"Feature","geometry":{"type":"Point","coordinates":[5.498520047171866,61.93554024603776]},"properties":{"id":"lefdal-norway","name":"Lefdal, Norway","type":"cable_landing","is_tbd":false}},{"type":"Feature","geometry":{"type":"Point","coordinates":[4.97585196040373,61.596307262996675]},"properties":{"id":"flor-norway","name":"Florø, Norway","type":"cable_landing","is_tbd":false}},{"type":"Feature","geometry":{"type":"Point","coordinates":[-5.325190374296312,36.210321613687086]},"properties":{"id":"la-lnea-spain","name":"La Línea, Spain","type":"cable_landing","is_tbd":false}},{"type":"Feature","geometry":{"type":"Point","coordinates":[-5.31366694495955,35.88680676460581]},"properties":{"id":"playa-de-la-ribera-spain","name":"Playa de la Ribera, Spain","type":"cable_landing","is_tbd":false}},{"type":"Feature","geometry":{"type":"Point","coordinates":[-5.604450430371827,36.014312562262546]},"properties":{"id":"tarifa-spain","name":"Tarifa, Spain","type":"cable_landing","is_tbd":false}},{"type":"Feature","geometry":{"type":"Point","coordinates":[-5.334747036874234,35.89387536092829]},"properties":{"id":"playa-de-benitez-spain","name":"Playa de Benitez, Spain","type":"cable_landing","is_tbd":false}},{"type":"Feature","geometry":{"type":"Point","coordinates":[0.797804107936884,49.877294755008506]},"properties":{"id":"veules-les-roses-france","name":"Veules-les-Roses, France","type":"cable_landing","is_tbd":false}},{"type":"Feature","geometry":{"type":"Point","coordinates":[-0.134434774132274,50.82847768289463]},"properties":{"id":"brighton-united-kingdom","name":"Brighton, United Kingdom","type":"cable_landing","is_tbd":false}},{"type":"Feature","geometry":{"type":"Point","coordinates":[-6.114621764040578,53.49320125868067]},"properties":{"id":"portrane-ireland","name":"Portrane, Ireland","type":"cable_landing","is_tbd":false}},{"type":"Feature","geometry":{"type":"Point","coordinates":[-9.10275134743162,38.442693498718455]},"properties":{"id":"sesimbra-portugal","name":"Sesimbra, Portugal","type":"cable_landing","is_tbd":false}},{"type":"Feature","geometry":{"type":"Point","coordinates":[-1.617778331330783,54.978249214505695]},"properties":{"id":"newcastle-united-kingdom","name":"Newcastle, United Kingdom","type":"cable_landing","is_tbd":false}},{"type":"Feature","geometry":{"type":"Point","coordinates":[10.216424592439722,63.33349269467911]},"properties":{"id":"ysanden-norway","name":"Øysanden, Norway","type":"cable_landing","is_tbd":false}},{"type":"Feature","geometry":{"type":"Point","coordinates":[33.919474747486674,35.28438782609294]},"properties":{"id":"iskele-cyprus","name":"Iskele, Cyprus","type":"cable_landing","is_tbd":false}},{"type":"Feature","geometry":{"type":"Point","coordinates":[22.968222026939827,59.82321000411133]},"properties":{"id":"hanko-finland","name":"Hanko, Finland","type":"cable_landing","is_tbd":false}},{"type":"Feature","geometry":{"type":"Point","coordinates":[24.932478447942344,60.171075418252144]},"properties":{"id":"helsinki-finland","name":"Helsinki, Finland","type":"cable_landing","is_tbd":false}},{"type":"Feature","geometry":{"type":"Point","coordinates":[18.062854408198262,59.33220864029596]},"properties":{"id":"stockholm-sweden","name":"Stockholm, Sweden","type":"cable_landing","is_tbd":false}},{"type":"Feature","geometry":{"type":"Point","coordinates":[26.883551284533894,60.50104138217219]},"properties":{"id":"kotka-finland","name":"Kotka, Finland","type":"cable_landing","is_tbd":false}},{"type":"Feature","geometry":{"type":"Point","coordinates":[14.550291964996632,36.784806017807284]},"properties":{"id":"marina-di-ragusa-italy","name":"Marina di Ragusa, Italy","type":"cable_landing","is_tbd":false}},{"type":"Feature","geometry":{"type":"Point","coordinates":[12.25127695683338,57.10530906897654]},"properties":{"id":"varberg-sweden","name":"Varberg, Sweden","type":"cable_landing","is_tbd":false}},{"type":"Feature","geometry":{"type":"Point","coordinates":[10.887135086818205,57.256995553834514]},"properties":{"id":"laeso-denmark","name":"Laeso, Denmark","type":"cable_landing","is_tbd":false}},{"type":"Feature","geometry":{"type":"Point","coordinates":[-1.968311908440512,46.693996052542616]},"properties":{"id":"saint-hilaire-de-riez-france","name":"Saint-Hilaire-de-Riez, France","type":"cable_landing","is_tbd":false}},{"type":"Feature","geometry":{"type":"Point","coordinates":[9.959261211922808,57.58819362027518]},"properties":{"id":"hirtshals-denmark","name":"Hirtshals, Denmark","type":"cable_landing","is_tbd":false}},{"type":"Feature","geometry":{"type":"Point","coordinates":[-4.760450951013013,54.087201561009294]},"properties":{"id":"port-erin-isle-of-man","name":"Port Erin, Isle of Man","type":"cable_landing","is_tbd":false}},{"type":"Feature","geometry":{"type":"Point","coordinates":[14.400076241225918,67.2860008218803]},"properties":{"id":"bod-norway","name":"Bodø, Norway","type":"cable_landing","is_tbd":false}},{"type":"Feature","geometry":{"type":"Point","coordinates":[17.5599983191143,68.42055748484364]},"properties":{"id":"narvik-norway","name":"Narvik, Norway","type":"cable_landing","is_tbd":false}},{"type":"Feature","geometry":{"type":"Point","coordinates":[13.018192454540326,66.19807367745253]},"properties":{"id":"nesna-norway","name":"Nesna, Norway","type":"cable_landing","is_tbd":false}},{"type":"Feature","geometry":{"type":"Point","coordinates":[12.631461771472942,66.02154867057013]},"properties":{"id":"sandnessjen-norway","name":"Sandnessjøen, Norway","type":"cable_landing","is_tbd":false}},{"type":"Feature","geometry":{"type":"Point","coordinates":[12.207743809919691,65.47356212044554]},"properties":{"id":"brnnysund-norway","name":"Brønnøysund, Norway","type":"cable_landing","is_tbd":false}},{"type":"Feature","geometry":{"type":"Point","coordinates":[11.23734654814018,64.86207691166626]},"properties":{"id":"rrvik-norway","name":"Rørvik, Norway","type":"cable_landing","is_tbd":false}},{"type":"Feature","geometry":{"type":"Point","coordinates":[13.563626638462381,66.29295854243085]},"properties":{"id":"utskarpen-norway","name":"Utskarpen, Norway","type":"cable_landing","is_tbd":false}},{"type":"Feature","geometry":{"type":"Point","coordinates":[13.624454232090756,66.2241605995992]},"properties":{"id":"hemnesberget-norway","name":"Hemnesberget, Norway","type":"cable_landing","is_tbd":false}},{"type":"Feature","geometry":{"type":"Point","coordinates":[14.141983162344246,66.31371064643949]},"properties":{"id":"mo-i-rana-norway","name":"Mo I Rana, Norway","type":"cable_landing","is_tbd":false}},{"type":"Feature","geometry":{"type":"Point","coordinates":[12.371850755501782,55.2561408184566]},"properties":{"id":"rdvig-denmark","name":"Rødvig, Denmark","type":"cable_landing","is_tbd":false}},{"type":"Feature","geometry":{"type":"Point","coordinates":[14.708323709697254,55.10101672136463]},"properties":{"id":"rnne-denmark","name":"Rønne, Denmark","type":"cable_landing","is_tbd":false}},{"type":"Feature","geometry":{"type":"Point","coordinates":[15.9086849897881,56.7438002945014]},"properties":{"id":"nybro-sweden","name":"Nybro, Sweden","type":"cable_landing","is_tbd":false}},{"type":"Feature","geometry":{"type":"Point","coordinates":[21.149989870548666,55.695723984038096]},"properties":{"id":"klaipeda-lithuania","name":"Klaipeda, Lithuania","type":"cable_landing","is_tbd":false}},{"type":"Feature","geometry":{"type":"Point","coordinates":[8.329194484059428,55.75167411423385]},"properties":{"id":"blaabjerg-denmark","name":"Blaabjerg, Denmark","type":"cable_landing","is_tbd":false}},{"type":"Feature","geometry":{"type":"Point","coordinates":[-9.696504823189116,53.77082456067055]},"properties":{"id":"lecanvey-ireland","name":"Lecanvey, Ireland","type":"cable_landing","is_tbd":false}},{"type":"Feature","geometry":{"type":"Point","coordinates":[12.070117249965676,67.50256025183077]},"properties":{"id":"rst-norway","name":"Røst, Norway","type":"cable_landing","is_tbd":false}},{"type":"Feature","geometry":{"type":"Point","coordinates":[14.344455230051267,35.938693357433294]},"properties":{"id":"golden-bay-malta","name":"Golden Bay, Malta","type":"cable_landing","is_tbd":false}},{"type":"Feature","geometry":{"type":"Point","coordinates":[14.271322957639853,36.020445712050986]},"properties":{"id":"mgarr-ix-xini-malta","name":"Mgarr ix-Xini, Malta","type":"cable_landing","is_tbd":false}},{"type":"Feature","geometry":{"type":"Point","coordinates":[4.613685008225076,52.458518261509965]},"properties":{"id":"ijmuiden-netherlands","name":"Ijmuiden, Netherlands","type":"cable_landing","is_tbd":false}},{"type":"Feature","geometry":{"type":"Point","coordinates":[8.718388990908409,55.523118197393956]},"properties":{"id":"endrup-denmark","name":"Endrup, Denmark","type":"cable_landing","is_tbd":false}},{"type":"Feature","geometry":{"type":"Point","coordinates":[6.816022174500858,53.44280469148259]},"properties":{"id":"eemshaven-netherlands","name":"Eemshaven, Netherlands","type":"cable_landing","is_tbd":false}},{"type":"Feature","geometry":{"type":"Point","coordinates":[-2.294930049347158,60.44104932347162]},"properties":{"id":"bp-clair-ridge-united-kingdom","name":"BP Clair Ridge, United Kingdom","type":"cable_landing","is_tbd":false}},{"type":"Feature","geometry":{"type":"Point","coordinates":[4.830246594801849,60.58734699304449]},"properties":{"id":"ygarden-norway","name":"Øygarden, Norway","type":"cable_landing","is_tbd":false}},{"type":"Feature","geometry":{"type":"Point","coordinates":[6.752803826594345,58.082772534114525]},"properties":{"id":"farsund-norway","name":"Farsund, Norway","type":"cable_landing","is_tbd":false}},{"type":"Feature","geometry":{"type":"Point","coordinates":[9.611688520083618,56.51080050758236]},"properties":{"id":"tjele-denmark","name":"Tjele, Denmark","type":"cable_landing","is_tbd":false}},{"type":"Feature","geometry":{"type":"Point","coordinates":[-8.77454,37.073391]},"properties":{"id":"burgau-portugal","name":"Burgau, Portugal","type":"cable_landing","is_tbd":false}},{"type":"Feature","geometry":{"type":"Point","coordinates":[-6.428876288504881,36.73130715040634]},"properties":{"id":"chipiona-spain","name":"Chipiona, Spain","type":"cable_landing","is_tbd":false}},{"type":"Feature","geometry":{"type":"Point","coordinates":[-3.354952684851185,59.05145759025859]},"properties":{"id":"skaill-united-kingdom","name":"Skaill, United Kingdom","type":"cable_landing","is_tbd":false}},{"type":"Feature","geometry":{"type":"Point","coordinates":[-3.376583528902671,58.670331191552805]},"properties":{"id":"dunnet-head-united-kingdom","name":"Dunnet Head, United Kingdom","type":"cable_landing","is_tbd":false}},{"type":"Feature","geometry":{"type":"Point","coordinates":[-5.71872054158581,54.753703383542444]},"properties":{"id":"whitehead-united-kingdom","name":"Whitehead, United Kingdom","type":"cable_landing","is_tbd":false}},{"type":"Feature","geometry":{"type":"Point","coordinates":[-4.65993222914139,55.5413266177564]},"properties":{"id":"troon-united-kingdom","name":"Troon, United Kingdom","type":"cable_landing","is_tbd":false}},{"type":"Feature","geometry":{"type":"Point","coordinates":[-2.106809037797774,57.15379366080023]},"properties":{"id":"aberdeen-united-kingdom","name":"Aberdeen, United Kingdom","type":"cable_landing","is_tbd":false}},{"type":"Feature","geometry":{"type":"Point","coordinates":[-6.363007194542121,36.62627034141008]},"properties":{"id":"rota-spain","name":"Rota, Spain","type":"cable_landing","is_tbd":false}},{"type":"Feature","geometry":{"type":"Point","coordinates":[-4.867305129111486,55.79334084522668]},"properties":{"id":"largs-united-kingdom","name":"Largs, United Kingdom","type":"cable_landing","is_tbd":false}},{"type":"Feature","geometry":{"type":"Point","coordinates":[-5.02809603083071,55.75184157675716]},"properties":{"id":"kilchatten-bay-united-kingdom","name":"Kilchatten Bay, United Kingdom","type":"cable_landing","is_tbd":false}},{"type":"Feature","geometry":{"type":"Point","coordinates":[-5.321211057560248,56.00828363082897]},"properties":{"id":"otter-ferry-united-kingdom","name":"Otter Ferry, United Kingdom","type":"cable_landing","is_tbd":false}},{"type":"Feature","geometry":{"type":"Point","coordinates":[-5.365791104104346,56.0194198007718]},"properties":{"id":"achnaba-united-kingdom","name":"Achnaba, United Kingdom","type":"cable_landing","is_tbd":false}},{"type":"Feature","geometry":{"type":"Point","coordinates":[-5.332099721721647,55.50195153980704]},"properties":{"id":"blackwaterfoot-united-kingdom","name":"Blackwaterfoot, United Kingdom","type":"cable_landing","is_tbd":false}},{"type":"Feature","geometry":{"type":"Point","coordinates":[-5.533417938480937,55.47654899547592]},"properties":{"id":"ardnacross-united-kingdom","name":"Ardnacross, United Kingdom","type":"cable_landing","is_tbd":false}},{"type":"Feature","geometry":{"type":"Point","coordinates":[-4.900459402499706,55.78015567878282]},"properties":{"id":"down-craig-united-kingdom","name":"Down Craig, United Kingdom","type":"cable_landing","is_tbd":false}},{"type":"Feature","geometry":{"type":"Point","coordinates":[-5.141426028670651,55.643649778815956]},"properties":{"id":"corrie-united-kingdom","name":"Corrie, United Kingdom","type":"cable_landing","is_tbd":false}},{"type":"Feature","geometry":{"type":"Point","coordinates":[-4.889375425976652,55.693046380984896]},"properties":{"id":"ardneil-bay-united-kingdom","name":"Ardneil Bay, United Kingdom","type":"cable_landing","is_tbd":false}},{"type":"Feature","geometry":{"type":"Point","coordinates":[-6.106317923258217,55.84773646690266]},"properties":{"id":"port-askaig-united-kingdom","name":"Port Askaig, United Kingdom","type":"cable_landing","is_tbd":false}},{"type":"Feature","geometry":{"type":"Point","coordinates":[-6.089911684880576,55.846749629519394]},"properties":{"id":"feolin-ferry-united-kingdom","name":"Feolin Ferry, United Kingdom","type":"cable_landing","is_tbd":false}},{"type":"Feature","geometry":{"type":"Point","coordinates":[-6.125409706608423,55.63611260842305]},"properties":{"id":"lagavulin-united-kingdom","name":"Lagavulin, United Kingdom","type":"cable_landing","is_tbd":false}},{"type":"Feature","geometry":{"type":"Point","coordinates":[-5.697577978438375,55.5655001545677]},"properties":{"id":"glenbarr-united-kingdom","name":"Glenbarr, United Kingdom","type":"cable_landing","is_tbd":false}},{"type":"Feature","geometry":{"type":"Point","coordinates":[-5.953827796908598,55.83367166873742]},"properties":{"id":"craighouse-united-kingdom","name":"Craighouse, United Kingdom","type":"cable_landing","is_tbd":false}},{"type":"Feature","geometry":{"type":"Point","coordinates":[-5.614570224740902,55.89168013274781]},"properties":{"id":"ormsary-united-kingdom","name":"Ormsary, United Kingdom","type":"cable_landing","is_tbd":false}},{"type":"Feature","geometry":{"type":"Point","coordinates":[-6.093964416384551,56.68857206371413]},"properties":{"id":"kilchoan-ferry-united-kingdom","name":"Kilchoan Ferry, United Kingdom","type":"cable_landing","is_tbd":false}},{"type":"Feature","geometry":{"type":"Point","coordinates":[-6.070282792535835,56.621848763444376]},"properties":{"id":"tobermory-united-kingdom","name":"Tobermory, United Kingdom","type":"cable_landing","is_tbd":false}},{"type":"Feature","geometry":{"type":"Point","coordinates":[-5.669355342181603,56.45583872337909]},"properties":{"id":"duart-bay-united-kingdom","name":"Duart Bay, United Kingdom","type":"cable_landing","is_tbd":false}},{"type":"Feature","geometry":{"type":"Point","coordinates":[-5.475800791797411,56.43776362936592]},"properties":{"id":"ganavan-bay-united-kingdom","name":"Ganavan Bay, United Kingdom","type":"cable_landing","is_tbd":false}},{"type":"Feature","geometry":{"type":"Point","coordinates":[-5.24538103315399,56.72252575336978]},"properties":{"id":"corran-united-kingdom","name":"Corran, United Kingdom","type":"cable_landing","is_tbd":false}},{"type":"Feature","geometry":{"type":"Point","coordinates":[-5.196211146111352,57.93407860444336]},"properties":{"id":"ardmair-united-kingdom","name":"Ardmair, United Kingdom","type":"cable_landing","is_tbd":false}},{"type":"Feature","geometry":{"type":"Point","coordinates":[-6.310761137803723,58.20906178912617]},"properties":{"id":"branahuie-bay-united-kingdom","name":"Branahuie Bay, United Kingdom","type":"cable_landing","is_tbd":false}},{"type":"Feature","geometry":{"type":"Point","coordinates":[-7.008368065487474,57.76940498421595]},"properties":{"id":"leverburgh-united-kingdom","name":"Leverburgh, United Kingdom","type":"cable_landing","is_tbd":false}},{"type":"Feature","geometry":{"type":"Point","coordinates":[-7.163348424447861,57.60369602072103]},"properties":{"id":"lochmaddy-united-kingdom","name":"Lochmaddy, United Kingdom","type":"cable_landing","is_tbd":false}},{"type":"Feature","geometry":{"type":"Point","coordinates":[-6.581659383398886,57.43632161635949]},"properties":{"id":"dunvegan-united-kingdom","name":"Dunvegan, United Kingdom","type":"cable_landing","is_tbd":false}},{"type":"Feature","geometry":{"type":"Point","coordinates":[-7.274139361587601,57.36669606319839]},"properties":{"id":"sandwick-village-united-kingdom","name":"Sandwick Village, United Kingdom","type":"cable_landing","is_tbd":false}},{"type":"Feature","geometry":{"type":"Point","coordinates":[-5.906464549211194,57.05937167381907]},"properties":{"id":"ardvasar-united-kingdom","name":"Ardvasar, United Kingdom","type":"cable_landing","is_tbd":false}},{"type":"Feature","geometry":{"type":"Point","coordinates":[-5.820429453909242,57.00847793549107]},"properties":{"id":"mallaigvaig-united-kingdom","name":"Mallaigvaig, United Kingdom","type":"cable_landing","is_tbd":false}},{"type":"Feature","geometry":{"type":"Point","coordinates":[-6.808514691440422,56.50378811166303]},"properties":{"id":"scarinish-united-kingdom","name":"Scarinish, United Kingdom","type":"cable_landing","is_tbd":false}},{"type":"Feature","geometry":{"type":"Point","coordinates":[-6.272382258741686,56.58212380789257]},"properties":{"id":"calgary-united-kingdom","name":"Calgary, United Kingdom","type":"cable_landing","is_tbd":false}},{"type":"Feature","geometry":{"type":"Point","coordinates":[-7.328143229579723,57.10553545436949]},"properties":{"id":"ludag-united-kingdom","name":"Ludag, United Kingdom","type":"cable_landing","is_tbd":false}},{"type":"Feature","geometry":{"type":"Point","coordinates":[-7.312176444016728,57.081522068446986]},"properties":{"id":"balla-united-kingdom","name":"Balla, United Kingdom","type":"cable_landing","is_tbd":false}},{"type":"Feature","geometry":{"type":"Point","coordinates":[-7.449481034248862,57.02529080676922]},"properties":{"id":"north-bay-united-kingdom","name":"North Bay, United Kingdom","type":"cable_landing","is_tbd":false}},{"type":"Feature","geometry":{"type":"Point","coordinates":[-2.939523291645173,59.27976761462983]},"properties":{"id":"bay-of-tuquoy-united-kingdom","name":"Bay of Tuquoy, United Kingdom","type":"cable_landing","is_tbd":false}},{"type":"Feature","geometry":{"type":"Point","coordinates":[-3.095076000000176,59.1180402]},"properties":{"id":"aikerness-bay-united-kingdom","name":"Aikerness Bay, United Kingdom","type":"cable_landing","is_tbd":false}},{"type":"Feature","geometry":{"type":"Point","coordinates":[-4.943867574873906,55.74276545167692]},"properties":{"id":"portachur-point-united-kingdom","name":"Portachur Point, United Kingdom","type":"cable_landing","is_tbd":false}},{"type":"Feature","geometry":{"type":"Point","coordinates":[-7.302215513573145,57.073613678907975]},"properties":{"id":"coilleag-united-kingdom","name":"Coilleag, United Kingdom","type":"cable_landing","is_tbd":false}},{"type":"Feature","geometry":{"type":"Point","coordinates":[-5.063594052558557,55.85859002460748]},"properties":{"id":"ardbeg-point-united-kingdom","name":"Ardbeg Point, United Kingdom","type":"cable_landing","is_tbd":false}},{"type":"Feature","geometry":{"type":"Point","coordinates":[-5.019990567822617,55.86941315469065]},"properties":{"id":"ardyne-point-united-kingdom","name":"Ardyne Point, United Kingdom","type":"cable_landing","is_tbd":false}},{"type":"Feature","geometry":{"type":"Point","coordinates":[-5.233662291455659,56.721567938290576]},"properties":{"id":"ardgour-united-kingdom","name":"Ardgour, United Kingdom","type":"cable_landing","is_tbd":false}},{"type":"Feature","geometry":{"type":"Point","coordinates":[-6.308173249011986,49.91990507743219]},"properties":{"id":"porthcressa-beach-united-kingdom","name":"Porthcressa Beach, United Kingdom","type":"cable_landing","is_tbd":false}},{"type":"Feature","geometry":{"type":"Point","coordinates":[36.77084896777953,45.423608504090225]},"properties":{"id":"ilyich-russia","name":"Ilyich, Russia","type":"cable_landing","is_tbd":false}},{"type":"Feature","geometry":{"type":"Point","coordinates":[36.477392144416996,45.35698172208123]},"properties":{"id":"kerch-ukraine","name":"Kerch, Ukraine","type":"cable_landing","is_tbd":false}},{"type":"Feature","geometry":{"type":"Point","coordinates":[3.496165508627513,51.56395317878594]},"properties":{"id":"domburg-netherlands","name":"Domburg, Netherlands","type":"cable_landing","is_tbd":false}},{"type":"Feature","geometry":{"type":"Point","coordinates":[1.59060045229765,52.1578426448516]},"properties":{"id":"aldeburgh-united-kingdom","name":"Aldeburgh, United Kingdom","type":"cable_landing","is_tbd":false}},{"type":"Feature","geometry":{"type":"Point","coordinates":[5.930343471732925,43.12529261338062]},"properties":{"id":"toulon-france","name":"Toulon, France","type":"cable_landing","is_tbd":false}},{"type":"Feature","geometry":{"type":"Point","coordinates":[2.001342348824238,41.30400294182016]},"properties":{"id":"gav-spain","name":"Gavá, Spain","type":"cable_landing","is_tbd":false}},{"type":"Feature","geometry":{"type":"Point","coordinates":[-16.347668090064616,33.04731630163687]},"properties":{"id":"porto-santo-portugal","name":"Porto Santo, Portugal","type":"cable_landing","is_tbd":false}},{"type":"Feature","geometry":{"type":"Point","coordinates":[-9.232194615107773,54.20682940735105]},"properties":{"id":"killala-ireland","name":"Killala, Ireland","type":"cable_landing","is_tbd":false}},{"type":"Feature","geometry":{"type":"Point","coordinates":[-8.472771324965379,51.89833468681314]},"properties":{"id":"cork-ireland","name":"Cork, Ireland","type":"cable_landing","is_tbd":false}},{"type":"Feature","geometry":{"type":"Point","coordinates":[-3.610909534778955,50.318829731011164]},"properties":{"id":"blackpool-sands-united-kingdom","name":"Blackpool Sands, United Kingdom","type":"cable_landing","is_tbd":false}},{"type":"Feature","geometry":{"type":"Point","coordinates":[25.087361150721847,31.760813307797036]},"properties":{"id":"el-quawef-libya","name":"El-Quawef, Libya","type":"cable_landing","is_tbd":false}},{"type":"Feature","geometry":{"type":"Point","coordinates":[12.916666647555985,55.5332931007172]},"properties":{"id":"klagshamn-sweden","name":"Klagshamn, Sweden","type":"cable_landing","is_tbd":false}},{"type":"Feature","geometry":{"type":"Point","coordinates":[12.414909190505824,55.647245614148375]},"properties":{"id":"brondby-denmark","name":"Brondby, Denmark","type":"cable_landing","is_tbd":false}},{"type":"Feature","geometry":{"type":"Point","coordinates":[10.799480647390425,55.32410201518621]},"properties":{"id":"nybor-denmark","name":"Nybor, Denmark","type":"cable_landing","is_tbd":false}},{"type":"Feature","geometry":{"type":"Point","coordinates":[11.1493827432665,55.325754887316066]},"properties":{"id":"korsor-denmark","name":"Korsor, Denmark","type":"cable_landing","is_tbd":false}},{"type":"Feature","geometry":{"type":"Point","coordinates":[12.132389859396199,54.07889347828092]},"properties":{"id":"rostock-germany","name":"Rostock, Germany","type":"cable_landing","is_tbd":false}},{"type":"Feature","geometry":{"type":"Point","coordinates":[12.149479691038465,54.191405400383076]},"properties":{"id":"markgrafenheide-germany","name":"Markgrafenheide, Germany","type":"cable_landing","is_tbd":false}},{"type":"Feature","geometry":{"type":"Point","coordinates":[11.199285051665356,57.313455583034425]},"properties":{"id":"osterby-denmark","name":"Osterby, Denmark","type":"cable_landing","is_tbd":false}},{"type":"Feature","geometry":{"type":"Point","coordinates":[12.588639536183592,56.134734209506604]},"properties":{"id":"kristinelund-sweden","name":"Kristinelund, Sweden","type":"cable_landing","is_tbd":false}},{"type":"Feature","geometry":{"type":"Point","coordinates":[12.963834582891906,55.471062440799926]},"properties":{"id":"velling-sweden","name":"Velling, Sweden","type":"cable_landing","is_tbd":false}},{"type":"Feature","geometry":{"type":"Point","coordinates":[12.273014759775123,55.57585273290914]},"properties":{"id":"mosede-denmark","name":"Mosede, Denmark","type":"cable_landing","is_tbd":false}},{"type":"Feature","geometry":{"type":"Point","coordinates":[-5.808173603216432,54.71367039332276]},"properties":{"id":"carrickfergus-united-kingdom","name":"Carrickfergus, United Kingdom","type":"cable_landing","is_tbd":false}},{"type":"Feature","geometry":{"type":"Point","coordinates":[-4.783516125969356,55.63758019678917]},"properties":{"id":"saltcoats-united-kingdom","name":"Saltcoats, United Kingdom","type":"cable_landing","is_tbd":false}},{"type":"Feature","geometry":{"type":"Point","coordinates":[-4.480879621609006,54.15027516173649]},"properties":{"id":"douglas-isle-of-man","name":"Douglas, Isle of Man","type":"cable_landing","is_tbd":false}},{"type":"Feature","geometry":{"type":"Point","coordinates":[-5.559394482578881,54.30204489127203]},"properties":{"id":"ballyhornan-united-kingdom","name":"Ballyhornan, United Kingdom","type":"cable_landing","is_tbd":false}},{"type":"Feature","geometry":{"type":"Point","coordinates":[-3.357149948919584,54.210627399618204]},"properties":{"id":"silecroft-beach-united-kingdom","name":"Silecroft Beach, United Kingdom","type":"cable_landing","is_tbd":false}},{"type":"Feature","geometry":{"type":"Point","coordinates":[-4.423897240100814,54.166979427201255]},"properties":{"id":"groudle-bay-isle-of-man","name":"Groudle Bay, Isle of Man","type":"cable_landing","is_tbd":false}},{"type":"Feature","geometry":{"type":"Point","coordinates":[-4.691426347455661,54.22244748636305]},"properties":{"id":"peel-isle-of-man","name":"Peel, Isle of Man","type":"cable_landing","is_tbd":false}},{"type":"Feature","geometry":{"type":"Point","coordinates":[-5.484394535707537,54.54274158020195]},"properties":{"id":"ballywater-united-kingdom","name":"Ballywater, United Kingdom","type":"cable_landing","is_tbd":false}},{"type":"Feature","geometry":{"type":"Point","coordinates":[-4.566670576458847,54.099993061704765]},"properties":{"id":"port-grenaugh-isle-of-man","name":"Port Grenaugh, Isle of Man","type":"cable_landing","is_tbd":false}},{"type":"Feature","geometry":{"type":"Point","coordinates":[-6.165888193558061,53.5262544597457]},"properties":{"id":"lusk-ireland","name":"Lusk, Ireland","type":"cable_landing","is_tbd":false}},{"type":"Feature","geometry":{"type":"Point","coordinates":[23.96031116788359,32.079604155442524]},"properties":{"id":"tubruq-libya","name":"Tubruq, Libya","type":"cable_landing","is_tbd":false}},{"type":"Feature","geometry":{"type":"Point","coordinates":[21.74166039584773,32.88172722141812]},"properties":{"id":"al-bayda-libya","name":"Al Bayda, Libya","type":"cable_landing","is_tbd":false}},{"type":"Feature","geometry":{"type":"Point","coordinates":[20.949961737944477,32.7167319823823]},"properties":{"id":"tolmeta-libya","name":"Tolmeta, Libya","type":"cable_landing","is_tbd":false}},{"type":"Feature","geometry":{"type":"Point","coordinates":[20.0667592386134,32.11658375707046]},"properties":{"id":"benghazi-libya","name":"Benghazi, Libya","type":"cable_landing","is_tbd":false}},{"type":"Feature","geometry":{"type":"Point","coordinates":[19.576525210899774,30.37810849301232]},"properties":{"id":"brega-libya","name":"Brega, Libya","type":"cable_landing","is_tbd":false}},{"type":"Feature","geometry":{"type":"Point","coordinates":[18.41187759844715,30.58673750269537]},"properties":{"id":"ras-lanuf-libya","name":"Ras Lanuf, Libya","type":"cable_landing","is_tbd":false}},{"type":"Feature","geometry":{"type":"Point","coordinates":[16.58834373400552,31.205251640496385]},"properties":{"id":"sirte-libya","name":"Sirte, Libya","type":"cable_landing","is_tbd":false}},{"type":"Feature","geometry":{"type":"Point","coordinates":[15.094790104552942,32.374278843691116]},"properties":{"id":"misrata-libya","name":"Misrata, Libya","type":"cable_landing","is_tbd":false}},{"type":"Feature","geometry":{"type":"Point","coordinates":[14.264419599045283,32.64966152384906]},"properties":{"id":"al-khums-libya","name":"Al Khums, Libya","type":"cable_landing","is_tbd":false}},{"type":"Feature","geometry":{"type":"Point","coordinates":[12.529752859149369,32.774720416295395]},"properties":{"id":"zawia-libya","name":"Zawia, Libya","type":"cable_landing","is_tbd":false}},{"type":"Feature","geometry":{"type":"Point","coordinates":[12.083366456623793,32.93337907602344]},"properties":{"id":"zuwara-libya","name":"Zuwara, Libya","type":"cable_landing","is_tbd":false}},{"type":"Feature","geometry":{"type":"Point","coordinates":[4.748508371456069,55.7156069211332]},"properties":{"id":"tyra-denmark","name":"Tyra, Denmark","type":"cable_landing","is_tbd":false}},{"type":"Feature","geometry":{"type":"Point","coordinates":[4.564328814430468,55.80407237566757]},"properties":{"id":"valdemar-denmark","name":"Valdemar, Denmark","type":"cable_landing","is_tbd":false}},{"type":"Feature","geometry":{"type":"Point","coordinates":[4.228391552411665,56.078288457914056]},"properties":{"id":"south-arne-denmark","name":"South Arne, Denmark","type":"cable_landing","is_tbd":false}},{"type":"Feature","geometry":{"type":"Point","coordinates":[-7.147235154612645,62.28992112511688]},"properties":{"id":"tjornuvik-faroe-islands","name":"Tjornuvik, Faroe Islands","type":"cable_landing","is_tbd":false}},{"type":"Feature","geometry":{"type":"Point","coordinates":[-20.267294219614712,63.43768691325937]},"properties":{"id":"vestmannaeyjar-iceland","name":"Vestmannaeyjar, Iceland","type":"cable_landing","is_tbd":false}},{"type":"Feature","geometry":{"type":"Point","coordinates":[8.738642263557722,41.91932911005827]},"properties":{"id":"ajaccio-france","name":"Ajaccio, France","type":"cable_landing","is_tbd":false}},{"type":"Feature","geometry":{"type":"Point","coordinates":[5.878097414994613,43.10290804483739]},"properties":{"id":"la-seyne-france","name":"La Seyne, France","type":"cable_landing","is_tbd":false}},{"type":"Feature","geometry":{"type":"Point","coordinates":[8.937079622982822,42.636509507125425]},"properties":{"id":"lle-rousse-france","name":"L’Île-Rousse, France","type":"cable_landing","is_tbd":false}},{"type":"Feature","geometry":{"type":"Point","coordinates":[7.017354420434145,43.552927166028866]},"properties":{"id":"cannes-france","name":"Cannes, France","type":"cable_landing","is_tbd":false}},{"type":"Feature","geometry":{"type":"Point","coordinates":[12.536881760350411,56.07488218434139]},"properties":{"id":"alsgarde-denmark","name":"Alsgarde, Denmark","type":"cable_landing","is_tbd":false}},{"type":"Feature","geometry":{"type":"Point","coordinates":[7.427217411333373,43.73973086446898]},"properties":{"id":"monte-carlo-monaco","name":"Monte Carlo, Monaco","type":"cable_landing","is_tbd":false}},{"type":"Feature","geometry":{"type":"Point","coordinates":[18.48570567114649,40.14805341338399]},"properties":{"id":"otranto-italy","name":"Otranto, Italy","type":"cable_landing","is_tbd":false}},{"type":"Feature","geometry":{"type":"Point","coordinates":[13.520181845020204,45.43310919075185]},"properties":{"id":"umag-croatia","name":"Umag, Croatia","type":"cable_landing","is_tbd":false}},{"type":"Feature","geometry":{"type":"Point","coordinates":[12.24410853025256,45.49587287439124]},"properties":{"id":"mestre-italy","name":"Mestre, Italy","type":"cable_landing","is_tbd":false}},{"type":"Feature","geometry":{"type":"Point","coordinates":[21.616367515856382,63.09519496029324]},"properties":{"id":"vaasa-finland","name":"Vaasa, Finland","type":"cable_landing","is_tbd":false}},{"type":"Feature","geometry":{"type":"Point","coordinates":[20.262950505879587,63.825869861088364]},"properties":{"id":"ume-sweden","name":"Umeå, Sweden","type":"cable_landing","is_tbd":false}},{"type":"Feature","geometry":{"type":"Point","coordinates":[17.94654589684353,58.902924681852596]},"properties":{"id":"nynashamn-sweden","name":"Nynashamn, Sweden","type":"cable_landing","is_tbd":false}},{"type":"Feature","geometry":{"type":"Point","coordinates":[24.27661953755893,59.40084650364702]},"properties":{"id":"meremisa-estonia","name":"Meremöisa, Estonia","type":"cable_landing","is_tbd":false}},{"type":"Feature","geometry":{"type":"Point","coordinates":[16.062269887931166,54.25994813889136]},"properties":{"id":"mielno-poland","name":"Mielno, Poland","type":"cable_landing","is_tbd":false}},{"type":"Feature","geometry":{"type":"Point","coordinates":[14.966665195317916,55.01259082191632]},"properties":{"id":"gedebak-odde-denmark","name":"Gedebak Odde, Denmark","type":"cable_landing","is_tbd":false}},{"type":"Feature","geometry":{"type":"Point","coordinates":[18.816564811762902,59.98338076725207]},"properties":{"id":"vdd-sweden","name":"Väddö, Sweden","type":"cable_landing","is_tbd":false}},{"type":"Feature","geometry":{"type":"Point","coordinates":[18.70133051839585,59.759662312957175]},"properties":{"id":"norrtalge-sweden","name":"Norrtalge, Sweden","type":"cable_landing","is_tbd":false}},{"type":"Feature","geometry":{"type":"Point","coordinates":[22.25923815419077,60.449310000380706]},"properties":{"id":"turku-finland","name":"Turku, Finland","type":"cable_landing","is_tbd":false}},{"type":"Feature","geometry":{"type":"Point","coordinates":[18.10640906484386,42.641861527951335]},"properties":{"id":"dubrovnik-croatia","name":"Dubrovnik, Croatia","type":"cable_landing","is_tbd":false}},{"type":"Feature","geometry":{"type":"Point","coordinates":[20.015449242293954,39.68361519899665]},"properties":{"id":"aethos-greece","name":"Aethos, Greece","type":"cable_landing","is_tbd":false}},{"type":"Feature","geometry":{"type":"Point","coordinates":[19.919493717937684,39.619298271804126]},"properties":{"id":"corfu-greece","name":"Corfu, Greece","type":"cable_landing","is_tbd":false}},{"type":"Feature","geometry":{"type":"Point","coordinates":[19.450060456738612,41.3166931740858]},"properties":{"id":"durres-albania","name":"Durres, Albania","type":"cable_landing","is_tbd":false}},{"type":"Feature","geometry":{"type":"Point","coordinates":[9.109345125948352,39.21530980337931]},"properties":{"id":"cagliari-italy","name":"Cagliari, Italy","type":"cable_landing","is_tbd":false}},{"type":"Feature","geometry":{"type":"Point","coordinates":[11.796843222099454,42.09113065224952]},"properties":{"id":"civitavecchia-italy","name":"Civitavecchia, Italy","type":"cable_landing","is_tbd":false}},{"type":"Feature","geometry":{"type":"Point","coordinates":[9.486883920996263,40.92250775322418]},"properties":{"id":"olbia-italy","name":"Olbia, Italy","type":"cable_landing","is_tbd":false}},{"type":"Feature","geometry":{"type":"Point","coordinates":[35.99926748312504,36.0823377830327]},"properties":{"id":"samandag-turkey","name":"Samandag, Turkey","type":"cable_landing","is_tbd":false}},{"type":"Feature","geometry":{"type":"Point","coordinates":[33.23628115920056,35.299122503690995]},"properties":{"id":"girne-cyprus","name":"Girne, Cyprus","type":"cable_landing","is_tbd":false}},{"type":"Feature","geometry":{"type":"Point","coordinates":[32.96670199999983,36.09999800000014]},"properties":{"id":"bozyazi-turkey","name":"Bozyazi, Turkey","type":"cable_landing","is_tbd":false}},{"type":"Feature","geometry":{"type":"Point","coordinates":[-3.578390026566098,50.3517417330836]},"properties":{"id":"dartmouth-united-kingdom","name":"Dartmouth, United Kingdom","type":"cable_landing","is_tbd":false}},{"type":"Feature","geometry":{"type":"Point","coordinates":[-2.22590075030709,49.21571123396649]},"properties":{"id":"st-ouens-bay-jersey","name":"St. Ouens Bay, Jersey","type":"cable_landing","is_tbd":false}},{"type":"Feature","geometry":{"type":"Point","coordinates":[-2.021311051490386,49.22527885088681]},"properties":{"id":"archirondel-jersey","name":"Archirondel, Jersey","type":"cable_landing","is_tbd":false}},{"type":"Feature","geometry":{"type":"Point","coordinates":[-1.65002225201485,49.283290656759505]},"properties":{"id":"surville-france","name":"Surville, France","type":"cable_landing","is_tbd":false}},{"type":"Feature","geometry":{"type":"Point","coordinates":[-2.20143787701187,49.24794670647606]},"properties":{"id":"greve-de-lecq-jersey","name":"Greve de Lecq, Jersey","type":"cable_landing","is_tbd":false}},{"type":"Feature","geometry":{"type":"Point","coordinates":[-2.529513816474804,49.450989496876616]},"properties":{"id":"havelet-bay-guernsey","name":"Havelet Bay, Guernsey","type":"cable_landing","is_tbd":false}},{"type":"Feature","geometry":{"type":"Point","coordinates":[-2.533468891798009,49.50339305286627]},"properties":{"id":"lancresse-bay-guernsey","name":"L'Ancresse Bay, Guernsey","type":"cable_landing","is_tbd":false}},{"type":"Feature","geometry":{"type":"Point","coordinates":[-2.558029421274028,49.423325556977545]},"properties":{"id":"saints-bay-guernsey","name":"Saints Bay, Guernsey","type":"cable_landing","is_tbd":false}},{"type":"Feature","geometry":{"type":"Point","coordinates":[-2.537619279482811,49.50954423335219]},"properties":{"id":"pembroke-guernsey","name":"Pembroke, Guernsey","type":"cable_landing","is_tbd":false}},{"type":"Feature","geometry":{"type":"Point","coordinates":[2.605248171011596,39.55232558289569]},"properties":{"id":"palma-spain","name":"Palma, Spain","type":"cable_landing","is_tbd":false}},{"type":"Feature","geometry":{"type":"Point","coordinates":[4.65690687384739,52.48631265079456]},"properties":{"id":"beverwijk-netherlands","name":"Beverwijk, Netherlands","type":"cable_landing","is_tbd":false}},{"type":"Feature","geometry":{"type":"Point","coordinates":[-5.69845688406582,50.07851709909508]},"properties":{"id":"whitesands-bay-united-kingdom","name":"Whitesands Bay, United Kingdom","type":"cable_landing","is_tbd":false}},{"type":"Feature","geometry":{"type":"Point","coordinates":[-5.654511602696999,50.04304865772133]},"properties":{"id":"porthcurno-united-kingdom","name":"Porthcurno, United Kingdom","type":"cable_landing","is_tbd":false}},{"type":"Feature","geometry":{"type":"Point","coordinates":[-5.145869384899981,36.42710220192447]},"properties":{"id":"estepona-spain","name":"Estepona, Spain","type":"cable_landing","is_tbd":false}},{"type":"Feature","geometry":{"type":"Point","coordinates":[29.889799154879768,31.191886381300293]},"properties":{"id":"alexandria-egypt","name":"Alexandria, Egypt","type":"cable_landing","is_tbd":false}},{"type":"Feature","geometry":{"type":"Point","coordinates":[28.253667501430726,36.855249443027645]},"properties":{"id":"marmaris-turkey","name":"Marmaris, Turkey","type":"cable_landing","is_tbd":false}},{"type":"Feature","geometry":{"type":"Point","coordinates":[-4.338692222335851,47.81131501545926]},"properties":{"id":"penmarch-france","name":"Penmarch, France","type":"cable_landing","is_tbd":false}},{"type":"Feature","geometry":{"type":"Point","coordinates":[-5.174531473969438,50.02480268692679]},"properties":{"id":"goonhilly-downs-united-kingdom","name":"Goonhilly Downs, United Kingdom","type":"cable_landing","is_tbd":false}},{"type":"Feature","geometry":{"type":"Point","coordinates":[8.383369077736603,54.89850565849039]},"properties":{"id":"sylt-germany","name":"Sylt, Germany","type":"cable_landing","is_tbd":false}},{"type":"Feature","geometry":{"type":"Point","coordinates":[-6.087226139907955,36.27656323583929]},"properties":{"id":"conil-spain","name":"Conil, Spain","type":"cable_landing","is_tbd":false}},{"type":"Feature","geometry":{"type":"Point","coordinates":[-6.248261182079261,53.34804540825246]},"properties":{"id":"dublin-ireland","name":"Dublin, Ireland","type":"cable_landing","is_tbd":false}},{"type":"Feature","geometry":{"type":"Point","coordinates":[-3.006368947416178,53.64793071295804]},"properties":{"id":"southport-united-kingdom","name":"Southport, United Kingdom","type":"cable_landing","is_tbd":false}},{"type":"Feature","geometry":{"type":"Point","coordinates":[15.06744637392353,37.51158912057892]},"properties":{"id":"catania-italy","name":"Catania, Italy","type":"cable_landing","is_tbd":false}},{"type":"Feature","geometry":{"type":"Point","coordinates":[34.99877991062991,32.81141595206901]},"properties":{"id":"haifa-israel","name":"Haifa, Israel","type":"cable_landing","is_tbd":false}},{"type":"Feature","geometry":{"type":"Point","coordinates":[39.725827343195135,43.61550412193395]},"properties":{"id":"sochi-russia","name":"Sochi, Russia","type":"cable_landing","is_tbd":false}},{"type":"Feature","geometry":{"type":"Point","coordinates":[41.66762284260889,42.15077146868242]},"properties":{"id":"poti-georgia","name":"Poti, Georgia","type":"cable_landing","is_tbd":false}},{"type":"Feature","geometry":{"type":"Point","coordinates":[-3.45993307923203,48.73025676356556]},"properties":{"id":"lannion-france","name":"Lannion, France","type":"cable_landing","is_tbd":false}},{"type":"Feature","geometry":{"type":"Point","coordinates":[-5.675068228759528,50.06356023166626]},"properties":{"id":"skewjack-united-kingdom","name":"Skewjack, United Kingdom","type":"cable_landing","is_tbd":false}},{"type":"Feature","geometry":{"type":"Point","coordinates":[5.524386728065394,59.27926561977114]},"properties":{"id":"krst-norway","name":"Kårstø, Norway","type":"cable_landing","is_tbd":false}},{"type":"Feature","geometry":{"type":"Point","coordinates":[1.729174572880481,52.47136138660403]},"properties":{"id":"lowestoft-united-kingdom","name":"Lowestoft, United Kingdom","type":"cable_landing","is_tbd":false}},{"type":"Feature","geometry":{"type":"Point","coordinates":[37.77280138298693,44.723631290166]},"properties":{"id":"novorossiysk-russia","name":"Novorossiysk, Russia","type":"cable_landing","is_tbd":false}},{"type":"Feature","geometry":{"type":"Point","coordinates":[11.928972034748114,54.57634945132537]},"properties":{"id":"gedser-denmark","name":"Gedser, Denmark","type":"cable_landing","is_tbd":false}},{"type":"Feature","geometry":{"type":"Point","coordinates":[22.738046408748517,59.00085992778841]},"properties":{"id":"krdla-estonia","name":"Kärdla, Estonia","type":"cable_landing","is_tbd":false}},{"type":"Feature","geometry":{"type":"Point","coordinates":[18.68833503869206,59.29277953886526]},"properties":{"id":"stavsnas-sweden","name":"Stavsnas, Sweden","type":"cable_landing","is_tbd":false}},{"type":"Feature","geometry":{"type":"Point","coordinates":[15.574867889461387,54.17234594764537]},"properties":{"id":"kolobrzeg-poland","name":"Kolobrzeg, Poland","type":"cable_landing","is_tbd":false}},{"type":"Feature","geometry":{"type":"Point","coordinates":[13.828287095505573,55.43133306942647]},"properties":{"id":"ystad-sweden","name":"Ystad, Sweden","type":"cable_landing","is_tbd":false}},{"type":"Feature","geometry":{"type":"Point","coordinates":[-6.584100787917293,52.17458459780522]},"properties":{"id":"kilmore-quay-ireland","name":"Kilmore Quay, Ireland","type":"cable_landing","is_tbd":false}},{"type":"Feature","geometry":{"type":"Point","coordinates":[-5.698749852608188,50.076057253909084]},"properties":{"id":"sennen-cove-united-kingdom","name":"Sennen Cove, United Kingdom","type":"cable_landing","is_tbd":false}},{"type":"Feature","geometry":{"type":"Point","coordinates":[-6.215448705323951,53.331420488921765]},"properties":{"id":"sandymount-ireland","name":"Sandymount, Ireland","type":"cable_landing","is_tbd":false}},{"type":"Feature","geometry":{"type":"Point","coordinates":[14.992153458511723,55.03092522192887]},"properties":{"id":"pedersker-denmark","name":"Pedersker, Denmark","type":"cable_landing","is_tbd":false}},{"type":"Feature","geometry":{"type":"Point","coordinates":[24.75240045051129,59.43619967386823]},"properties":{"id":"tallinn-estonia","name":"Tallinn, Estonia","type":"cable_landing","is_tbd":false}},{"type":"Feature","geometry":{"type":"Point","coordinates":[-4.169600545246965,51.5577834055629]},"properties":{"id":"oxwich-bay-united-kingdom","name":"Oxwich Bay, United Kingdom","type":"cable_landing","is_tbd":false}},{"type":"Feature","geometry":{"type":"Point","coordinates":[18.845275728923724,57.43103874071352]},"properties":{"id":"katthammarsvik-sweden","name":"Katthammarsvik, Sweden","type":"cable_landing","is_tbd":false}},{"type":"Feature","geometry":{"type":"Point","coordinates":[-2.975021313373105,51.222224715299575]},"properties":{"id":"highbridge-united-kingdom","name":"Highbridge, United Kingdom","type":"cable_landing","is_tbd":false}},{"type":"Feature","geometry":{"type":"Point","coordinates":[-2.946163911940886,43.268343944304746]},"properties":{"id":"bilbao-spain","name":"Bilbao, Spain","type":"cable_landing","is_tbd":false}},{"type":"Feature","geometry":{"type":"Point","coordinates":[28.499858733276625,59.79988465730378]},"properties":{"id":"logi-russia","name":"Logi, Russia","type":"cable_landing","is_tbd":false}},{"type":"Feature","geometry":{"type":"Point","coordinates":[2.901439367437092,36.80021914596014]},"properties":{"id":"el-djamila-algeria","name":"El Djamila, Algeria","type":"cable_landing","is_tbd":false}},{"type":"Feature","geometry":{"type":"Point","coordinates":[2.912669828231202,51.23112295648559]},"properties":{"id":"ostend-belgium","name":"Ostend, Belgium","type":"cable_landing","is_tbd":false}},{"type":"Feature","geometry":{"type":"Point","coordinates":[-6.928143512944303,62.24410742927253]},"properties":{"id":"funningsfjordur-faroe-islands","name":"Funningsfjordur, Faroe Islands","type":"cable_landing","is_tbd":false}},{"type":"Feature","geometry":{"type":"Point","coordinates":[-14.01803106852637,65.25134493671587]},"properties":{"id":"seydisfjordur-iceland","name":"Seydisfjordur, Iceland","type":"cable_landing","is_tbd":false}},{"type":"Feature","geometry":{"type":"Point","coordinates":[-2.768087866216746,48.5347423619462]},"properties":{"id":"plerin-france","name":"Plerin, France","type":"cable_landing","is_tbd":false}},{"type":"Feature","geometry":{"type":"Point","coordinates":[24.011428,37.88817800000015]},"properties":{"id":"porto-rafti-greece","name":"Porto Rafti, Greece","type":"cable_landing","is_tbd":false}},{"type":"Feature","geometry":{"type":"Point","coordinates":[24.936036453932786,37.44158260544046]},"properties":{"id":"syros-greece","name":"Syros, Greece","type":"cable_landing","is_tbd":false}},{"type":"Feature","geometry":{"type":"Point","coordinates":[23.736287889084878,37.976077606231485]},"properties":{"id":"athens-greece","name":"Athens, Greece","type":"cable_landing","is_tbd":false}},{"type":"Feature","geometry":{"type":"Point","coordinates":[2.970970568180519,39.35454015029765]},"properties":{"id":"ses-covetes-spain","name":"Ses Covetes, Spain","type":"cable_landing","is_tbd":false}},{"type":"Feature","geometry":{"type":"Point","coordinates":[-3.346212456667843,58.61531173357207]},"properties":{"id":"dunnet-bay-united-kingdom","name":"Dunnet Bay, United Kingdom","type":"cable_landing","is_tbd":false}},{"type":"Feature","geometry":{"type":"Point","coordinates":[13.18727192460679,32.87729851774509]},"properties":{"id":"tripoli-libya","name":"Tripoli, Libya","type":"cable_landing","is_tbd":false}},{"type":"Feature","geometry":{"type":"Point","coordinates":[14.48814990930262,35.89870707579968]},"properties":{"id":"msida-malta","name":"Msida, Malta","type":"cable_landing","is_tbd":false}},{"type":"Feature","geometry":{"type":"Point","coordinates":[33.60356605526354,34.828480585406425]},"properties":{"id":"pentaskhinos-cyprus","name":"Pentaskhinos, Cyprus","type":"cable_landing","is_tbd":false}},{"type":"Feature","geometry":{"type":"Point","coordinates":[35.48520534729164,33.892474483755706]},"properties":{"id":"beirut-lebanon","name":"Beirut, Lebanon","type":"cable_landing","is_tbd":false}},{"type":"Feature","geometry":{"type":"Point","coordinates":[35.89780271125363,34.89170456715425]},"properties":{"id":"tartous-syria","name":"Tartous, Syria","type":"cable_landing","is_tbd":false}},{"type":"Feature","geometry":{"type":"Point","coordinates":[35.859130863649256,34.43942017407255]},"properties":{"id":"trablous-lebanon","name":"Trablous, Lebanon","type":"cable_landing","is_tbd":false}},{"type":"Feature","geometry":{"type":"Point","coordinates":[35.38627963612143,33.45019127312952]},"properties":{"id":"saida-lebanon","name":"Saida, Lebanon","type":"cable_landing","is_tbd":false}},{"type":"Feature","geometry":{"type":"Point","coordinates":[0.366675538087463,50.81901885178749]},"properties":{"id":"pevensey-bay-united-kingdom","name":"Pevensey Bay, United Kingdom","type":"cable_landing","is_tbd":false}},{"type":"Feature","geometry":{"type":"Point","coordinates":[1.493432552382359,50.17880871289964]},"properties":{"id":"cayeux-sur-mer-france","name":"Cayeux-sur-Mer, France","type":"cable_landing","is_tbd":false}},{"type":"Feature","geometry":{"type":"Point","coordinates":[1.439428684389156,51.35888704355227]},"properties":{"id":"broadstairs-united-kingdom","name":"Broadstairs, United Kingdom","type":"cable_landing","is_tbd":false}},{"type":"Feature","geometry":{"type":"Point","coordinates":[11.212468636075954,54.49606370712465]},"properties":{"id":"puttgarden-germany","name":"Puttgarden, Germany","type":"cable_landing","is_tbd":false}},{"type":"Feature","geometry":{"type":"Point","coordinates":[11.358659938762571,54.663072234722705]},"properties":{"id":"rodbyhavn-denmark","name":"Rodbyhavn, Denmark","type":"cable_landing","is_tbd":false}},{"type":"Feature","geometry":{"type":"Point","coordinates":[14.380044517135502,35.934059945070516]},"properties":{"id":"balluta-bay-malta","name":"Balluta Bay, Malta","type":"cable_landing","is_tbd":false}},{"type":"Feature","geometry":{"type":"Point","coordinates":[9.867352401468935,37.27634951365664]},"properties":{"id":"bizerte-tunisia","name":"Bizerte, Tunisia","type":"cable_landing","is_tbd":false}},{"type":"Feature","geometry":{"type":"Point","coordinates":[7.755439835067534,36.90234352923105]},"properties":{"id":"annaba-algeria","name":"Annaba, Algeria","type":"cable_landing","is_tbd":false}},{"type":"Feature","geometry":{"type":"Point","coordinates":[21.569980829967136,57.38953114332284]},"properties":{"id":"ventspils-latvia","name":"Ventspils, Latvia","type":"cable_landing","is_tbd":false}},{"type":"Feature","geometry":{"type":"Point","coordinates":[19.05533417386644,57.86298045610272]},"properties":{"id":"farosund-sweden","name":"Farosund, Sweden","type":"cable_landing","is_tbd":false}},{"type":"Feature","geometry":{"type":"Point","coordinates":[19.92398590225534,39.75382832785027]},"properties":{"id":"kokkini-greece","name":"Kokkini, Greece","type":"cable_landing","is_tbd":false}},{"type":"Feature","geometry":{"type":"Point","coordinates":[16.866663849340995,41.12549190517652]},"properties":{"id":"bari-italy","name":"Bari, Italy","type":"cable_landing","is_tbd":false}},{"type":"Feature","geometry":{"type":"Point","coordinates":[-6.035761332616119,35.470776894974364]},"properties":{"id":"asilah-morocco","name":"Asilah, Morocco","type":"cable_landing","is_tbd":false}},{"type":"Feature","geometry":{"type":"Point","coordinates":[-0.641966325506104,35.701644687598105]},"properties":{"id":"oran-algeria","name":"Oran, Algeria","type":"cable_landing","is_tbd":false}},{"type":"Feature","geometry":{"type":"Point","coordinates":[1.439331028208272,51.358582140301166]},"properties":{"id":"dumpton-gap-united-kingdom","name":"Dumpton Gap, United Kingdom","type":"cable_landing","is_tbd":false}},{"type":"Feature","geometry":{"type":"Point","coordinates":[2.961888543364296,51.24638508954533]},"properties":{"id":"bredene-belgium","name":"Bredene, Belgium","type":"cable_landing","is_tbd":false}},{"type":"Feature","geometry":{"type":"Point","coordinates":[12.076237555423859,57.48748132890364]},"properties":{"id":"kungsbacka-sweden","name":"Kungsbacka, Sweden","type":"cable_landing","is_tbd":false}},{"type":"Feature","geometry":{"type":"Point","coordinates":[12.69586602272335,56.04384398259444]},"properties":{"id":"helsingborg-sweden","name":"Helsingborg, Sweden","type":"cable_landing","is_tbd":false}},{"type":"Feature","geometry":{"type":"Point","coordinates":[10.51657069155658,57.330828814195314]},"properties":{"id":"saeby-denmark","name":"Saeby, Denmark","type":"cable_landing","is_tbd":false}},{"type":"Feature","geometry":{"type":"Point","coordinates":[12.592155158693032,56.03043680856862]},"properties":{"id":"helsingr-denmark","name":"Helsingør, Denmark","type":"cable_landing","is_tbd":false}},{"type":"Feature","geometry":{"type":"Point","coordinates":[12.670182447167804,55.5935355241173]},"properties":{"id":"dragor-denmark","name":"Dragor, Denmark","type":"cable_landing","is_tbd":false}},{"type":"Feature","geometry":{"type":"Point","coordinates":[12.918717427353357,55.556808783888016]},"properties":{"id":"bunkeflostand-sweden","name":"Bunkeflostand, Sweden","type":"cable_landing","is_tbd":false}},{"type":"Feature","geometry":{"type":"Point","coordinates":[12.545573160442217,55.72195316407604]},"properties":{"id":"tuborg-denmark","name":"Tuborg, Denmark","type":"cable_landing","is_tbd":false}},{"type":"Feature","geometry":{"type":"Point","coordinates":[12.955436151341445,55.7703788906409]},"properties":{"id":"barsebck-sweden","name":"Barsebäck, Sweden","type":"cable_landing","is_tbd":false}},{"type":"Feature","geometry":{"type":"Point","coordinates":[-6.558807837085055,52.1840758940144]},"properties":{"id":"ballygrangans-ireland","name":"Ballygrangans, Ireland","type":"cable_landing","is_tbd":false}},{"type":"Feature","geometry":{"type":"Point","coordinates":[-6.364862661977725,52.401459561554674]},"properties":{"id":"ballinesker-ireland","name":"Ballinesker, Ireland","type":"cable_landing","is_tbd":false}},{"type":"Feature","geometry":{"type":"Point","coordinates":[-3.050753681598593,53.80866015617724]},"properties":{"id":"blackpool-united-kingdom","name":"Blackpool, United Kingdom","type":"cable_landing","is_tbd":false}},{"type":"Feature","geometry":{"type":"Point","coordinates":[12.513639589314238,38.01795196948339]},"properties":{"id":"trapani-italy","name":"Trapani, Italy","type":"cable_landing","is_tbd":false}},{"type":"Feature","geometry":{"type":"Point","coordinates":[11.08991012914754,36.849310578247895]},"properties":{"id":"kelibia-tunisia","name":"Kelibia, Tunisia","type":"cable_landing","is_tbd":false}},{"type":"Feature","geometry":{"type":"Point","coordinates":[35.859130863649256,34.43942017407255]},"properties":{"id":"tripoli-lebanon","name":"Tripoli, Lebanon","type":"cable_landing","is_tbd":false}},{"type":"Feature","geometry":{"type":"Point","coordinates":[-6.676190566430108,55.130735276807656]},"properties":{"id":"coleraine-united-kingdom","name":"Coleraine, United Kingdom","type":"cable_landing","is_tbd":false}},{"type":"Feature","geometry":{"type":"Point","coordinates":[21.08238351913667,56.02828822719502]},"properties":{"id":"sventoji-lithuania","name":"Sventoji, Lithuania","type":"cable_landing","is_tbd":false}},{"type":"Feature","geometry":{"type":"Point","coordinates":[12.683268375397688,56.683188391927416]},"properties":{"id":"skalvik-sweden","name":"Skalvik, Sweden","type":"cable_landing","is_tbd":false}},{"type":"Feature","geometry":{"type":"Point","coordinates":[10.96696099749471,57.27225033176555]},"properties":{"id":"vestero-denmark","name":"Vestero, Denmark","type":"cable_landing","is_tbd":false}},{"type":"Feature","geometry":{"type":"Point","coordinates":[10.514617567940121,57.24480515635264]},"properties":{"id":"lyngsa-denmark","name":"Lyngsa, Denmark","type":"cable_landing","is_tbd":false}},{"type":"Feature","geometry":{"type":"Point","coordinates":[-3.027560338653956,53.20172685400547]},"properties":{"id":"deeside-clwyd-united-kingdom","name":"Deeside Clwyd, United Kingdom","type":"cable_landing","is_tbd":false}},{"type":"Feature","geometry":{"type":"Point","coordinates":[-6.19791942086681,53.41005646403025]},"properties":{"id":"clonshaugh-ireland","name":"Clonshaugh, Ireland","type":"cable_landing","is_tbd":false}},{"type":"Feature","geometry":{"type":"Point","coordinates":[-4.333418788572601,60.333074012819225]},"properties":{"id":"glen-lyon-united-kingdom","name":"Glen Lyon, United Kingdom","type":"cable_landing","is_tbd":false}},{"type":"Feature","geometry":{"type":"Point","coordinates":[29.702494600068064,31.07184873173793]},"properties":{"id":"abu-talat-egypt","name":"Abu Talat, Egypt","type":"cable_landing","is_tbd":false}},{"type":"Feature","geometry":{"type":"Point","coordinates":[28.167437093767063,43.41434082476201]},"properties":{"id":"balchik-bulgaria","name":"Balchik, Bulgaria","type":"cable_landing","is_tbd":false}},{"type":"Feature","geometry":{"type":"Point","coordinates":[-20.142294308165788,63.64216740018546]},"properties":{"id":"landeyjar-iceland","name":"Landeyjar, Iceland","type":"cable_landing","is_tbd":false}},{"type":"Feature","geometry":{"type":"Point","coordinates":[14.415591366954885,35.95050510992482]},"properties":{"id":"st-pauls-bay-malta","name":"St. Paul's Bay, Malta","type":"cable_landing","is_tbd":false}},{"type":"Feature","geometry":{"type":"Point","coordinates":[-2.523654445625652,57.66686503311678]},"properties":{"id":"banff-united-kingdom","name":"Banff, United Kingdom","type":"cable_landing","is_tbd":false}},{"type":"Feature","geometry":{"type":"Point","coordinates":[-6.771844795542762,62.01745992125038]},"properties":{"id":"torshavn-faroe-islands","name":"Torshavn, Faroe Islands","type":"cable_landing","is_tbd":false}},{"type":"Feature","geometry":{"type":"Point","coordinates":[-2.900119022684549,58.833271670742704]},"properties":{"id":"ayre-of-cara-united-kingdom","name":"Ayre of Cara, United Kingdom","type":"cable_landing","is_tbd":false}},{"type":"Feature","geometry":{"type":"Point","coordinates":[-1.238694418403355,59.9959762394829]},"properties":{"id":"sandwick-united-kingdom","name":"Sandwick, United Kingdom","type":"cable_landing","is_tbd":false}},{"type":"Feature","geometry":{"type":"Point","coordinates":[-1.323801779987519,60.00398405107052]},"properties":{"id":"maywick-united-kingdom","name":"Maywick, United Kingdom","type":"cable_landing","is_tbd":false}},{"type":"Feature","geometry":{"type":"Point","coordinates":[7.417647105613099,43.7326219851318]},"properties":{"id":"monaco-monaco","name":"Monaco, Monaco","type":"cable_landing","is_tbd":false}},{"type":"Feature","geometry":{"type":"Point","coordinates":[-5.347675882562299,36.15593839433333]},"properties":{"id":"gibraltar-gibraltar","name":"Gibraltar, Gibraltar","type":"cable_landing","is_tbd":false}},{"type":"Feature","geometry":{"type":"Point","coordinates":[14.458755398875866,35.934059945070516]},"properties":{"id":"bahar-ic-caghaq-malta","name":"Bahar ic-Caghaq, Malta","type":"cable_landing","is_tbd":false}},{"type":"Feature","geometry":{"type":"Point","coordinates":[14.853872306471374,36.73372358889935]},"properties":{"id":"pozzallo-italy","name":"Pozzallo, Italy","type":"cable_landing","is_tbd":false}},{"type":"Feature","geometry":{"type":"Point","coordinates":[-9.107390016020531,38.64227793104314]},"properties":{"id":"seixal-portugal","name":"Seixal, Portugal","type":"cable_landing","is_tbd":false}},{"type":"Feature","geometry":{"type":"Point","coordinates":[21.011289819499012,56.508187009234575]},"properties":{"id":"liepaja-latvia","name":"Liepaja, Latvia","type":"cable_landing","is_tbd":false}},{"type":"Feature","geometry":{"type":"Point","coordinates":[19.937853079931728,60.11383725176344]},"properties":{"id":"mariehamn-finland","name":"Mariehamn, Finland","type":"cable_landing","is_tbd":false}},{"type":"Feature","geometry":{"type":"Point","coordinates":[22.302109217570575,60.30096942029195]},"properties":{"id":"haradsholm-finland","name":"Haradsholm, Finland","type":"cable_landing","is_tbd":false}},{"type":"Feature","geometry":{"type":"Point","coordinates":[-4.630391234443465,53.30603695420265]},"properties":{"id":"holyhead-united-kingdom","name":"Holyhead, United Kingdom","type":"cable_landing","is_tbd":false}},{"type":"Feature","geometry":{"type":"Point","coordinates":[16.553187508910554,68.7350474125281]},"properties":{"id":"breivika-norway","name":"Breivika, Norway","type":"cable_landing","is_tbd":false}},{"type":"Feature","geometry":{"type":"Point","coordinates":[22.63921835375919,32.7635527751755]},"properties":{"id":"derna-libya","name":"Derna, Libya","type":"cable_landing","is_tbd":false}},{"type":"Feature","geometry":{"type":"Point","coordinates":[-3.010909959824204,51.293736519285375]},"properties":{"id":"brean-united-kingdom","name":"Brean, United Kingdom","type":"cable_landing","is_tbd":false}}]}