{
  "type": "FeatureCollection",
  "features": [
    {
      "type": "Feature",
      "geometry": {
        "type": "LineString",
        "coordinates": [
          [
            19.8147,
            66.9541
          ],
          [
            22.1547,
            65.5848
          ]
        ]
      },
      "properties": {
        "id": "conn_001",
        "source_id": "ep_007",
        "target_id": "dc_013",
        "source_name": "Harsprånget - Centrale Idroelettrica",
        "target_name": "Meta Data Center - Luleå, Svezia",
        "relationship_type": "powers",
        "description_it": "Accordo di fornitura Vattenfall–Facebook (Meta) per elettricità idroelettrica al 100% dal bacino del Lule Älv verso il campus di Luleå.",
        "certainty": "confirmed",
        "evidence_note_it": "Comunicato Vattenfall (2013): contratto pluriennale di fornitura rinnovabile dal Lule Älv. Harsprånget è una delle principali centrali del bacino.",
        "as_of": "2013-06-12",
        "updated_at": "2026-09-27",
        "sources": [
          {
            "title": "Vattenfall — fornitura idroelettrica a Facebook Luleå",
            "url": "https://news.cision.com/se/vattenfall/r/vattenfall-levererar-fornybar-el-fran-lule-alv-till-facebook,c9427579",
            "accessed_at": "2026-09-27"
          }
        ]
      }
    },
    {
      "type": "Feature",
      "geometry": {
        "type": "LineString",
        "coordinates": [
          [
            19.8008,
            66.9587
          ],
          [
            22.1547,
            65.5848
          ]
        ]
      },
      "properties": {
        "id": "conn_002",
        "source_id": "ep_008",
        "target_id": "dc_013",
        "source_name": "Porjus - Centrale Idroelettrica",
        "target_name": "Meta Data Center - Luleå, Svezia",
        "relationship_type": "powers",
        "description_it": "Porjus fa parte dello stesso sistema idroelettrico Vattenfall sul Lule Älv citato nell'accordo di fornitura al campus Meta di Luleå.",
        "certainty": "likely",
        "evidence_note_it": "Stesso operatore e stesso bacino dell'accordo Vattenfall–Facebook; non è nominata la singola centrale nel comunicato, quindi certainty likely e non confirmed.",
        "as_of": "2013-06-12",
        "updated_at": "2026-09-27",
        "sources": [
          {
            "title": "Vattenfall — fornitura idroelettrica a Facebook Luleå",
            "url": "https://news.cision.com/se/vattenfall/r/vattenfall-levererar-fornybar-el-fran-lule-alv-till-facebook,c9427579",
            "accessed_at": "2026-09-27"
          }
        ]
      }
    },
    {
      "type": "Feature",
      "geometry": {
        "type": "LineString",
        "coordinates": [
          [
            21.6991,
            62.1927
          ],
          [
            27.2,
            60.57
          ]
        ]
      },
      "properties": {
        "id": "conn_003",
        "source_id": "ep_013",
        "target_id": "dc_012",
        "source_name": "Lakiakangas 1+2 - Parco Eolico",
        "target_name": "Google Data Center - Hamina, Finlandia",
        "relationship_type": "powers",
        "description_it": "PPA Google–CPC Finland: l'elettricità di Lakiakangas 2 alimenta la stessa rete da cui Google preleva per Hamina.",
        "certainty": "confirmed",
        "evidence_note_it": "Primo PPA eolico finlandese di Google (2018), esplicitamente collegato al data center di Hamina.",
        "as_of": "2018-09-18",
        "updated_at": "2026-09-27",
        "sources": [
          {
            "title": "CPC Finland — Lakiakangas 1+2 (PPA Google)",
            "url": "https://cpc-finland.com/projekt/lakiakangas-1-2/",
            "accessed_at": "2026-09-27"
          },
          {
            "title": "Google signs agreements for 190MW of wind projects in Finland",
            "url": "https://energydigital.com/sustainability/google-signs-agreements-190mw-wind-projects-finland",
            "accessed_at": "2026-09-27"
          }
        ]
      }
    },
    {
      "type": "Feature",
      "geometry": {
        "type": "LineString",
        "coordinates": [
          [
            26.7515,
            64.1452
          ],
          [
            27.2,
            60.57
          ]
        ]
      },
      "properties": {
        "id": "conn_004",
        "source_id": "ep_014",
        "target_id": "dc_012",
        "source_name": "Piiparinmäki - Parco Eolico",
        "target_name": "Google Data Center - Hamina, Finlandia",
        "relationship_type": "powers",
        "description_it": "PPA Google–Ilmatar: Google acquista 125 MW da Piiparinmäki (211 MW) per il fabbisogno del campus di Hamina.",
        "certainty": "confirmed",
        "evidence_note_it": "Accordo pubblico Ilmatar–Google (2019); Ilmatar conferma che gran parte della produzione serve Hamina.",
        "as_of": "2019-09-20",
        "updated_at": "2026-09-27",
        "sources": [
          {
            "title": "Ilmatar — Piiparinmäki e accordo Google",
            "url": "https://ilmatar.com/news/ilmatar-energy-announces-new-wind-farm-adding-new-clean-energy-to-the-grid/",
            "accessed_at": "2026-09-27"
          }
        ]
      }
    },
    {
      "type": "Feature",
      "geometry": {
        "type": "LineString",
        "coordinates": [
          [
            8.7424,
            45.5202
          ],
          [
            9.09,
            45.52
          ]
        ]
      },
      "properties": {
        "id": "conn_005",
        "source_id": "ep_001",
        "target_id": "dc_005",
        "source_name": "Turbigo - Centrale a Ciclo Combinato",
        "target_name": "AWS Europe (Milano) - Rho/Pero",
        "relationship_type": "powers",
        "description_it": "Turbigo (gas CCGT) è un nodo rilevante della rete lombarda che serve il cluster data center di Milano, inclusa la regione AWS Rho/Pero.",
        "certainty": "inferred",
        "evidence_note_it": "Prossimità di rete / stesso cluster energetico. Nessun PPA pubblico esclusivo Turbigo→AWS: non elevare a confirmed.",
        "as_of": "2026-09-27",
        "updated_at": "2026-09-27",
        "sources": [
          {
            "title": "Nota metodologica Substrato — legami energetici inferred",
            "accessed_at": "2026-09-27",
            "note": "Inferenza geografica di rete, non contratto dimostrato"
          }
        ]
      }
    },
    {
      "type": "Feature",
      "geometry": {
        "type": "LineString",
        "coordinates": [
          [
            8.7424,
            45.5202
          ],
          [
            9.38,
            45.45
          ]
        ]
      },
      "properties": {
        "id": "conn_006",
        "source_id": "ep_001",
        "target_id": "dc_004",
        "source_name": "Turbigo - Centrale a Ciclo Combinato",
        "target_name": "Microsoft Azure Italy North - Settala",
        "relationship_type": "powers",
        "description_it": "La centrale di Turbigo contribuisce alla rete lombarda che serve il campus Microsoft Azure Italy North a Settala.",
        "certainty": "inferred",
        "evidence_note_it": "Stesso criterio di prossimità di rete del legame Turbigo→AWS: inferred, non PPA.",
        "as_of": "2026-09-27",
        "updated_at": "2026-09-27",
        "sources": [
          {
            "title": "Nota metodologica Substrato — legami energetici inferred",
            "accessed_at": "2026-09-27"
          }
        ]
      }
    },
    {
      "type": "Feature",
      "geometry": {
        "type": "LineString",
        "coordinates": [
          [
            8.7424,
            45.5202
          ],
          [
            9.0387,
            45.4755
          ]
        ]
      },
      "properties": {
        "id": "conn_007",
        "source_id": "ep_001",
        "target_id": "dc_006",
        "source_name": "Turbigo - Centrale a Ciclo Combinato",
        "target_name": "Equinix ML5 - Settimo Milanese",
        "relationship_type": "powers",
        "description_it": "Turbigo alimenta la rete che serve Equinix ML5 a Settimo Milanese, nello stesso cluster milanese.",
        "certainty": "inferred",
        "evidence_note_it": "Inferenza di rete locale; nessun offtake nominato.",
        "as_of": "2026-09-27",
        "updated_at": "2026-09-27",
        "sources": [
          {
            "title": "Nota metodologica Substrato — legami energetici inferred",
            "accessed_at": "2026-09-27"
          }
        ]
      }
    },
    {
      "type": "Feature",
      "geometry": {
        "type": "LineString",
        "coordinates": [
          [
            8.29,
            45.19
          ],
          [
            9.5878,
            45.6955
          ]
        ]
      },
      "properties": {
        "id": "conn_008",
        "source_id": "ep_002",
        "target_id": "dc_002",
        "source_name": "Enel Trino Solar Park",
        "target_name": "Aruba Global Cloud Data Center IT3 - Ponte San Pietro",
        "relationship_type": "powers",
        "description_it": "Il parco solare Enel di Trino (87 MW) è un contributo rinnovabile regionale coerente con la dichiarazione di Aruba IT3 di operare al 100% con energia rinnovabile.",
        "certainty": "likely",
        "evidence_note_it": "Aruba dichiara campus 100% rinnovabile; Trino è il maggiore FV del Nord Italia. Non risulta un PPA esclusivo Trino→IT3, quindi likely e non confirmed.",
        "as_of": "2026-09-27",
        "updated_at": "2026-09-27",
        "sources": [
          {
            "title": "Aruba — Global Cloud Data Center IT3",
            "url": "https://www.aruba.it/",
            "accessed_at": "2026-09-27",
            "note": "Dichiarazione operatore su mix rinnovabile del campus"
          }
        ]
      }
    },
    {
      "type": "Feature",
      "geometry": {
        "type": "LineString",
        "coordinates": [
          [
            5.46,
            51.41
          ],
          [
            121.014,
            24.773
          ]
        ]
      },
      "properties": {
        "id": "conn_009",
        "source_id": "rm_005",
        "target_id": "rm_007",
        "source_name": "ASML - Veldhoven (Sede centrale)",
        "target_name": "TSMC - Hsinchu Science Park (Sede centrale e Fab 12A)",
        "relationship_type": "supplies",
        "description_it": "ASML fornisce a TSMC le macchine litografiche EUV indispensabili per i nodi avanzati usati nei chip AI.",
        "certainty": "confirmed",
        "evidence_note_it": "Dipendenza di mercato documentata: ASML è il fornitore monopolista di scanner EUV; TSMC è il principale cliente per volume di nodi avanzati.",
        "as_of": "2026-09-27",
        "updated_at": "2026-09-27",
        "sources": [
          {
            "title": "ASML — sede Veldhoven / ruolo EUV",
            "url": "https://www.asml.com/",
            "accessed_at": "2026-09-27"
          }
        ]
      }
    },
    {
      "type": "Feature",
      "geometry": {
        "type": "LineString",
        "coordinates": [
          [
            5.46,
            51.41
          ],
          [
            13.73,
            51.05
          ]
        ]
      },
      "properties": {
        "id": "conn_010",
        "source_id": "rm_005",
        "target_id": "rm_003",
        "source_name": "ASML - Veldhoven (Sede centrale)",
        "target_name": "ESMC/TSMC Fab - Dresda",
        "relationship_type": "supplies",
        "description_it": "ASML fornisce le attrezzature litografiche necessarie al fab ESMC/TSMC di Dresda (EU Chips Act).",
        "certainty": "confirmed",
        "evidence_note_it": "Il fab ESMC è un nodo TSMC in Europa: le tool ASML sono prerequisito della roadmap produttiva dichiarata.",
        "as_of": "2026-09-27",
        "updated_at": "2026-09-27",
        "sources": [
          {
            "title": "ESMC / TSMC Dresda — EU Chips Act",
            "accessed_at": "2026-09-27",
            "note": "Joint venture TSMC in Saxony; tool litografiche ASML standard di settore"
          }
        ]
      }
    },
    {
      "type": "Feature",
      "geometry": {
        "type": "LineString",
        "coordinates": [
          [
            121.014,
            24.773
          ],
          [
            -121.9689,
            37.3707
          ]
        ]
      },
      "properties": {
        "id": "conn_011",
        "source_id": "rm_007",
        "target_id": "rm_018",
        "source_name": "TSMC - Hsinchu Science Park (Sede centrale e Fab 12A)",
        "target_name": "NVIDIA - Santa Clara (HQ / chip design)",
        "relationship_type": "manufactures_for",
        "description_it": "TSMC è la fonderia primaria di NVIDIA: produce i GPU/accelerator AI progettati da NVIDIA.",
        "certainty": "confirmed",
        "evidence_note_it": "Partnership foundry storica e pubblica (comunicati TSMC–NVIDIA); Jensen Huang ha ribadito la dipendenza («No TSMC, no Nvidia»).",
        "as_of": "2026-09-27",
        "updated_at": "2026-09-27",
        "sources": [
          {
            "title": "TSMC and NVIDIA Reaffirm Partnership",
            "url": "https://pr.tsmc.com/english/news/1236",
            "accessed_at": "2026-09-27"
          }
        ]
      }
    },
    {
      "type": "Feature",
      "geometry": {
        "type": "LineString",
        "coordinates": [
          [
            -121.9689,
            37.3707
          ],
          [
            121.375222,
            25.049944
          ]
        ]
      },
      "properties": {
        "id": "conn_012",
        "source_id": "rm_018",
        "target_id": "rm_020",
        "source_name": "NVIDIA - Santa Clara (HQ / chip design)",
        "target_name": "Quanta Computer - Taoyuan (ODM server AI)",
        "relationship_type": "supplies",
        "description_it": "NVIDIA fornisce GPU/accelerator e reference design AI che Quanta (QCT) integra in server e rack per gli hyperscaler.",
        "certainty": "confirmed",
        "evidence_note_it": "Quanta è tra i principali ODM NVIDIA per server AI (NVL36 e sistemi correlati); la filiera GPU→rack passa tipicamente da ODM taiwanesi, non dal design HQ al campus.",
        "as_of": "2026-09-27",
        "updated_at": "2026-09-27",
        "sources": [
          {
            "title": "TrendForce — Quanta e partner ODM NVIDIA AI",
            "url": "https://www.trendforce.com/news/2025/05/05/news-microsoft-meta-ramp-up-ai-spend-lifting-nvidias-taiwanese-odm-partners-foxonn-quanta-and-wiwynn/",
            "accessed_at": "2026-09-27"
          }
        ]
      }
    },
    {
      "type": "Feature",
      "geometry": {
        "type": "LineString",
        "coordinates": [
          [
            121.375222,
            25.049944
          ],
          [
            22.1547,
            65.5848
          ]
        ]
      },
      "properties": {
        "id": "conn_013",
        "source_id": "rm_020",
        "target_id": "dc_013",
        "source_name": "Quanta Computer - Taoyuan (ODM server AI)",
        "target_name": "Meta Data Center - Luleå, Svezia",
        "relationship_type": "manufactures_for",
        "description_it": "Quanta è un fornitore ODM primario di Meta per server (circa metà degli ordini secondo stime di settore); i rack AI finiscono anche nei campus europei come Luleå.",
        "certainty": "likely",
        "evidence_note_it": "Nessun packing list pubblico Luleå. Certainty likely: Quanta è ODM chiave Meta; non confirmed sul singolo edificio svedese.",
        "as_of": "2026-09-27",
        "updated_at": "2026-09-27",
        "sources": [
          {
            "title": "TrendForce — Quanta quota ordini Meta",
            "url": "https://www.trendforce.com/news/2025/05/05/news-microsoft-meta-ramp-up-ai-spend-lifting-nvidias-taiwanese-odm-partners-foxonn-quanta-and-wiwynn/",
            "accessed_at": "2026-09-27"
          }
        ]
      }
    },
    {
      "type": "Feature",
      "geometry": {
        "type": "LineString",
        "coordinates": [
          [
            15.05,
            37.45
          ],
          [
            9.5878,
            45.6955
          ]
        ]
      },
      "properties": {
        "id": "conn_014",
        "source_id": "rm_002",
        "target_id": "dc_002",
        "source_name": "STMicroelectronics - Catania (Silicon Carbide Campus)",
        "target_name": "Aruba Global Cloud Data Center IT3 - Ponte San Pietro",
        "relationship_type": "manufactures_for",
        "description_it": "ST Catania produce SiC e dispositivi di potenza usati nei sistemi di alimentazione dei data center; Aruba IT3 è un campus italiano plausibile come utilizzatore di questa classe di componenti.",
        "certainty": "inferred",
        "evidence_note_it": "Filiera elettronica di potenza (non silicio logico AI). Nessuna distinta base pubblica ST→Aruba: inferred.",
        "as_of": "2026-09-27",
        "updated_at": "2026-09-27",
        "sources": [
          {
            "title": "Nota metodologica Substrato — elettronica di potenza EU",
            "accessed_at": "2026-09-27"
          }
        ]
      }
    },
    {
      "type": "Feature",
      "geometry": {
        "type": "LineString",
        "coordinates": [
          [
            13.78,
            46.61
          ],
          [
            9.5878,
            45.6955
          ]
        ]
      },
      "properties": {
        "id": "conn_015",
        "source_id": "rm_006",
        "target_id": "dc_002",
        "source_name": "Infineon - Villach",
        "target_name": "Aruba Global Cloud Data Center IT3 - Ponte San Pietro",
        "relationship_type": "manufactures_for",
        "description_it": "Infineon Villach è specializzata in semiconduttori di potenza per gestione energetica; stessa filiera di alimentazione dei campus, non dei GPU AI.",
        "certainty": "inferred",
        "evidence_note_it": "Legame di classe prodotto (power semiconductors), non contratto sito-sito.",
        "as_of": "2026-09-27",
        "updated_at": "2026-09-27",
        "sources": [
          {
            "title": "Nota metodologica Substrato — elettronica di potenza EU",
            "accessed_at": "2026-09-27"
          }
        ]
      }
    },
    {
      "type": "Feature",
      "geometry": {
        "type": "LineString",
        "coordinates": [
          [
            25.8082,
            -10.7858
          ],
          [
            23.1308,
            63.8381
          ]
        ]
      },
      "properties": {
        "id": "conn_016",
        "source_id": "rm_013",
        "target_id": "rm_019",
        "source_name": "Mutanda - Miniera di Cobalto",
        "target_name": "Umicore - Raffineria cobalto Kokkola",
        "relationship_type": "supplies",
        "description_it": "Accordo Glencore–Umicore: idrossido di cobalto da Mutanda (RDC) verso la catena battery materials di Umicore, inclusa la raffineria di Kokkola.",
        "certainty": "confirmed",
        "evidence_note_it": "Comunicato congiunto 2019: Mutanda e KCC nominati come fonti; destinazione raffinerie Umicore inclusa Kokkola (FI).",
        "as_of": "2019-05-29",
        "updated_at": "2026-09-27",
        "sources": [
          {
            "title": "Umicore × Glencore — cobalt supply partnership",
            "url": "https://www.umicore.com/en/media/newsroom/umicore-and-glencore-develop-partnership-for-sustainable-cobalt-supply-in-battery-materials/",
            "accessed_at": "2026-09-27"
          }
        ]
      }
    },
    {
      "type": "Feature",
      "geometry": {
        "type": "LineString",
        "coordinates": [
          [
            25.3855,
            -10.7148
          ],
          [
            23.1308,
            63.8381
          ]
        ]
      },
      "properties": {
        "id": "conn_017",
        "source_id": "rm_014",
        "target_id": "rm_019",
        "source_name": "Kamoto - Miniera Rame-Cobalto",
        "target_name": "Umicore - Raffineria cobalto Kokkola",
        "relationship_type": "supplies",
        "description_it": "Stesso accordo Glencore–Umicore: cobalto da Kamoto Copper Company (KCC) verso Umicore Kokkola / battery materials.",
        "certainty": "confirmed",
        "evidence_note_it": "KCC è nominata esplicitamente nel comunicato insieme a Mutanda. Non è un legame miniera↔miniera.",
        "as_of": "2019-05-29",
        "updated_at": "2026-09-27",
        "sources": [
          {
            "title": "Umicore × Glencore — cobalt supply partnership",
            "url": "https://www.umicore.com/en/media/newsroom/umicore-and-glencore-develop-partnership-for-sustainable-cobalt-supply-in-battery-materials/",
            "accessed_at": "2026-09-27"
          }
        ]
      }
    },
    {
      "type": "Feature",
      "geometry": {
        "type": "LineString",
        "coordinates": [
          [
            121.375222,
            25.049944
          ],
          [
            27.2,
            60.57
          ]
        ]
      },
      "properties": {
        "id": "conn_018",
        "source_id": "rm_020",
        "target_id": "dc_012",
        "source_name": "Quanta Computer - Taoyuan (ODM server AI)",
        "target_name": "Google Data Center - Hamina, Finlandia",
        "relationship_type": "manufactures_for",
        "description_it": "Quanta figura tra i principali assembler di server AI per Google; Hamina è un nodo hyperscale europeo dove questa classe di rack è tipica.",
        "certainty": "likely",
        "evidence_note_it": "Legame di mercato ODM↔CSP, non BOM del sito Hamina: likely.",
        "as_of": "2026-09-27",
        "updated_at": "2026-09-27",
        "sources": [
          {
            "title": "Nota metodologica Substrato — ODM→hyperscale",
            "accessed_at": "2026-09-27",
            "note": "Quanta citata come ODM rilevante per Google/Meta/AWS nelle analisi di settore"
          }
        ]
      }
    },
    {
      "type": "Feature",
      "geometry": {
        "type": "LineString",
        "coordinates": [
          [
            -7.8529,
            54.8845
          ],
          [
            -6.425,
            53.2867
          ]
        ]
      },
      "properties": {
        "id": "conn_019",
        "source_id": "ep_015",
        "target_id": "dc_016",
        "source_name": "Lenalea Wind Farm",
        "target_name": "Microsoft Azure North Europe - Dublino",
        "relationship_type": "powers",
        "description_it": "CPPA Microsoft–SSE/FuturEnergy su Lenalea Wind Farm: l'elettricità del parco contribuisce all'alimentazione rinnovabile dei data center Microsoft in Irlanda (Azure North Europe, Dublino).",
        "certainty": "confirmed",
        "evidence_note_it": "Accordo pubblico sul sito Lenalea e comunicati Microsoft Ireland: CPPA esplicitamente legato alle operazioni data center irlandesi.",
        "as_of": "2024-05-10",
        "updated_at": "2026-09-27",
        "sources": [
          {
            "title": "Lenalea Wind Farm — CPPA Microsoft",
            "url": "https://lenaleawindfarm.com/",
            "accessed_at": "2026-09-27"
          }
        ]
      }
    },
    {
      "type": "Feature",
      "geometry": {
        "type": "LineString",
        "coordinates": [
          [
            14.13459,
            58.227572
          ],
          [
            16.5099,
            59.3716
          ]
        ]
      },
      "properties": {
        "id": "conn_020",
        "source_id": "ep_016",
        "target_id": "dc_019",
        "source_name": "Fågelås - Parco Eolico",
        "target_name": "AWS Europe (Stoccolma) - Eskilstuna",
        "relationship_type": "powers",
        "description_it": "PPA Amazon su Fågelås (portafoglio Saena): elettricità eolica contrattata per le operazioni svedesi, inclusa la regione AWS Europe (Stoccolma) con AZ a Eskilstuna.",
        "certainty": "confirmed",
        "evidence_note_it": "Comunicato Amazon Sverige: Fågelås nominato tra i PPA eolici; AWS Stockholm opera tramite AZ in Svezia (Eskilstuna/Katrineholm/Västerås). Il PPA è di rete (non cavo dedicato al singolo edificio).",
        "as_of": "2026-08-28",
        "updated_at": "2026-09-27",
        "sources": [
          {
            "title": "Amazon Sverige — PPA eolici in Svezia",
            "url": "https://www.mynewsdesk.com/se/amazonsverige/pressreleases/amazon-investerar-i-fyra-nya-vindkraftsprojekt-i-sverige-totala-portfoeljen-av-koldioxidfri-energi-kan-foersoerja-motsvarande-350-000-hushaall-3462370",
            "accessed_at": "2026-09-27"
          },
          {
            "title": "Eolus — Fågelås",
            "url": "https://www.eolus.com/en/projects/fagelas/",
            "accessed_at": "2026-09-27"
          }
        ]
      }
    },
    {
      "type": "Feature",
      "geometry": {
        "type": "LineString",
        "coordinates": [
          [
            8.29,
            45.19
          ],
          [
            8.295,
            45.188
          ]
        ]
      },
      "properties": {
        "id": "conn_021",
        "source_id": "ep_002",
        "target_id": "dc_028",
        "source_name": "Enel Trino Solar Park",
        "target_name": "Cavour Hyperscale Campus — Trino (ex Galileo Ferraris)",
        "relationship_type": "powers",
        "description_it": "Il FV Enel di Trino è il maggiore apportatore rinnovabile locale citato a supporto energetico del territorio dove sorge il Cavour Hyperscale Campus (ex Galileo Ferraris).",
        "certainty": "likely",
        "evidence_note_it": "Comunicazione istituzionale/Regionale e cronaca sul progetto Cavour citano il vicino parco Enel come asset energetico del sito. Non risulta un PPA esclusivo nominato Enel Trino→Cavour: quindi likely, non confirmed.",
        "as_of": "2026-09-27",
        "updated_at": "2026-09-27",
        "sources": [
          {
            "title": "MIMIT — Cavour Hyperscale Campus",
            "url": "https://www.mimit.gov.it/it/notizie-stampa/data-center-ok-cdm-a-strategicita-per-due-investimenti-in-lombardia-e-piemonte-per-8-mld",
            "accessed_at": "2026-09-27"
          },
          {
            "title": "Cronaca — Cavour e FV Enel a Trino",
            "url": "https://torinonews24.it/news/il-piemonte-sara-centro-europeo-dellintelligenza-artificiale-al-via-un-maxi-piano-da-4-miliardi-per-lex-centrale-nucleare-ecco-il-progetto/",
            "accessed_at": "2026-09-27",
            "note": "Cita il FV Enel come supporto ai consumi del campus"
          }
        ]
      }
    },
    {
      "type": "Feature",
      "geometry": {
        "type": "LineString",
        "coordinates": [
          [
            8.7424,
            45.5202
          ],
          [
            9.03706,
            45.47154
          ]
        ]
      },
      "properties": {
        "id": "conn_022",
        "source_id": "ep_001",
        "target_id": "dc_021",
        "source_name": "Turbigo - Centrale a Ciclo Combinato",
        "target_name": "Data4 Campus MIL01 — Cornaredo",
        "relationship_type": "powers",
        "description_it": "Turbigo (CCGT) è un nodo della rete lombarda che serve il cluster ovest milanese, incluso il campus Data4 di Cornaredo.",
        "certainty": "inferred",
        "evidence_note_it": "Prossimità di rete / stesso cluster. Nessun PPA pubblico Turbigo→Data4.",
        "as_of": "2026-09-27",
        "updated_at": "2026-09-27",
        "sources": [
          {
            "title": "Nota metodologica Substrato — legami energetici inferred",
            "accessed_at": "2026-09-27"
          }
        ]
      }
    },
    {
      "type": "Feature",
      "geometry": {
        "type": "LineString",
        "coordinates": [
          [
            8.7424,
            45.5202
          ],
          [
            9.31835,
            45.35517
          ]
        ]
      },
      "properties": {
        "id": "conn_023",
        "source_id": "ep_001",
        "target_id": "dc_022",
        "source_name": "Turbigo - Centrale a Ciclo Combinato",
        "target_name": "Vantage MXP1 — Melegnano",
        "relationship_type": "powers",
        "description_it": "La rete lombarda alimentata anche da Turbigo serve l’area sud/ovest di Milano dove sorge Vantage MXP1 a Melegnano.",
        "certainty": "inferred",
        "evidence_note_it": "Inferenza di cluster energetico regionale, non offtake nominato.",
        "as_of": "2026-09-27",
        "updated_at": "2026-09-27",
        "sources": [
          {
            "title": "Nota metodologica Substrato — legami energetici inferred",
            "accessed_at": "2026-09-27"
          }
        ]
      }
    },
    {
      "type": "Feature",
      "geometry": {
        "type": "LineString",
        "coordinates": [
          [
            8.7424,
            45.5202
          ],
          [
            9.09359,
            45.33921
          ]
        ]
      },
      "properties": {
        "id": "conn_024",
        "source_id": "ep_001",
        "target_id": "dc_024",
        "source_name": "Turbigo - Centrale a Ciclo Combinato",
        "target_name": "Microsoft Azure — Noviglio (Santa Corinna)",
        "relationship_type": "powers",
        "description_it": "Il campus Microsoft di Noviglio preleva dalla rete lombarda a cui contribuisce Turbigo, nello stesso corridoio sud-ovest milanese.",
        "certainty": "inferred",
        "evidence_note_it": "Nessun PPA Turbigo→Microsoft Noviglio; inferred di rete.",
        "as_of": "2026-09-27",
        "updated_at": "2026-09-27",
        "sources": [
          {
            "title": "Nota metodologica Substrato — legami energetici inferred",
            "accessed_at": "2026-09-27"
          }
        ]
      }
    },
    {
      "type": "Feature",
      "geometry": {
        "type": "LineString",
        "coordinates": [
          [
            8.7424,
            45.5202
          ],
          [
            9.11167,
            45.37337
          ]
        ]
      },
      "properties": {
        "id": "conn_025",
        "source_id": "ep_001",
        "target_id": "dc_025",
        "source_name": "Turbigo - Centrale a Ciclo Combinato",
        "target_name": "AWS Europe (Milano) — Zibido San Giacomo",
        "relationship_type": "powers",
        "description_it": "L’espansione AWS a Zibido San Giacomo rientra nel cluster milanese servito dalla rete a cui contribuisce Turbigo, con nuove opere Terna a Lacchiarella.",
        "certainty": "inferred",
        "evidence_note_it": "Inferenza di rete; la VIA cita SE Lacchiarella Ovest, non un offtake da Turbigo.",
        "as_of": "2026-09-27",
        "updated_at": "2026-09-27",
        "sources": [
          {
            "title": "MASE VIA — AWS Zibido",
            "url": "https://va.mite.gov.it/it-IT/Oggetti/Info/11970",
            "accessed_at": "2026-09-27"
          }
        ]
      }
    },
    {
      "type": "Feature",
      "geometry": {
        "type": "LineString",
        "coordinates": [
          [
            8.7424,
            45.5202
          ],
          [
            9.13732,
            45.32157
          ]
        ]
      },
      "properties": {
        "id": "conn_026",
        "source_id": "ep_001",
        "target_id": "dc_031",
        "source_name": "Turbigo - Centrale a Ciclo Combinato",
        "target_name": "K2 Strategic Infrastructure — Zibido / Lacchiarella",
        "relationship_type": "powers",
        "description_it": "Il campus K2 Zibido/Lacchiarella (~400 MW) graverà sulla stessa rete sud-milanese a cui contribuisce Turbigo.",
        "certainty": "inferred",
        "evidence_note_it": "Prossimità e scala di rete; nessun contratto nominato.",
        "as_of": "2026-09-27",
        "updated_at": "2026-09-27",
        "sources": [
          {
            "title": "Nota metodologica Substrato — legami energetici inferred",
            "accessed_at": "2026-09-27"
          }
        ]
      }
    }
  ]
}
