{"type":"FeatureCollection","features":[{"type":"Feature","geometry":{"type":"LineString","coordinates":[[21.6991,62.1927],[27.2,60.57]]},"properties":{"id":"conn_003","layer":"connections"}},{"type":"Feature","geometry":{"type":"LineString","coordinates":[[26.7515,64.1452],[27.2,60.57]]},"properties":{"id":"conn_004","layer":"connections"}},{"type":"Feature","geometry":{"type":"LineString","coordinates":[[5.46,51.41],[13.73,51.05]]},"properties":{"id":"conn_010","layer":"connections"}},{"type":"Feature","geometry":{"type":"LineString","coordinates":[[121.375222,25.049944],[27.2,60.57]]},"properties":{"id":"conn_018","layer":"connections"}},{"type":"Feature","geometry":{"type":"LineString","coordinates":[[-7.8529,54.8845],[-6.425,53.2867]]},"properties":{"id":"conn_019","layer":"connections"}},{"type":"Feature","geometry":{"type":"LineString","coordinates":[[14.13459,58.227572],[16.5099,59.3716]]},"properties":{"id":"conn_020","layer":"connections"}},{"type":"Feature","geometry":{"type":"LineString","coordinates":[[9.379813,45.434851],[9.38,45.45]]},"properties":{"id":"conn_027","layer":"connections"}},{"type":"Feature","geometry":{"type":"LineString","coordinates":[[9.13181,45.3446],[9.09359,45.33921]]},"properties":{"id":"conn_028","layer":"connections"}},{"type":"Feature","geometry":{"type":"LineString","coordinates":[[8.7424,45.5202],[8.74652,45.51862]]},"properties":{"id":"conn_029","layer":"connections"}},{"type":"Feature","geometry":{"type":"LineString","coordinates":[[8.74652,45.51862],[9.09,45.52]]},"properties":{"id":"conn_030","layer":"connections"}},{"type":"Feature","geometry":{"type":"LineString","coordinates":[[8.74652,45.51862],[9.38,45.45]]},"properties":{"id":"conn_031","layer":"connections"}},{"type":"Feature","geometry":{"type":"LineString","coordinates":[[8.74652,45.51862],[9.0387,45.4755]]},"properties":{"id":"conn_032","layer":"connections"}},{"type":"Feature","geometry":{"type":"LineString","coordinates":[[8.74652,45.51862],[9.03706,45.47154]]},"properties":{"id":"conn_033","layer":"connections"}},{"type":"Feature","geometry":{"type":"LineString","coordinates":[[8.74652,45.51862],[9.31835,45.35517]]},"properties":{"id":"conn_034","layer":"connections"}},{"type":"Feature","geometry":{"type":"LineString","coordinates":[[8.74652,45.51862],[9.09359,45.33921]]},"properties":{"id":"conn_035","layer":"connections"}},{"type":"Feature","geometry":{"type":"LineString","coordinates":[[8.74652,45.51862],[9.11167,45.37337]]},"properties":{"id":"conn_036","layer":"connections"}},{"type":"Feature","geometry":{"type":"LineString","coordinates":[[8.74652,45.51862],[9.13732,45.32157]]},"properties":{"id":"conn_037","layer":"connections"}},{"type":"Feature","geometry":{"type":"LineString","coordinates":[[9.0585,45.4688],[9.0425,45.4762]]},"properties":{"id":"conn_038","layer":"connections"}},{"type":"Feature","geometry":{"type":"LineString","coordinates":[[9.13181,45.3446],[9.1355,45.3248]]},"properties":{"id":"conn_039","layer":"connections"}},{"type":"Feature","geometry":{"type":"LineString","coordinates":[[9.3208,45.3532],[9.31835,45.35517]]},"properties":{"id":"conn_040","layer":"connections"}},{"type":"Feature","geometry":{"type":"LineString","coordinates":[[9.355,45.094],[9.0387,45.4755]]},"properties":{"id":"conn_041","layer":"connections"}},{"type":"Feature","geometry":{"type":"LineString","coordinates":[[9.355,45.094],[9.1473,45.4486]]},"properties":{"id":"conn_042","layer":"connections"}},{"type":"Feature","geometry":{"type":"LineString","coordinates":[[9.0585,45.4688],[9.03842,45.47339]]},"properties":{"id":"conn_043","layer":"connections"}},{"type":"Feature","geometry":{"type":"LineString","coordinates":[[9.0585,45.4688],[9.03768,45.47684]]},"properties":{"id":"conn_044","layer":"connections"}},{"type":"Feature","geometry":{"type":"LineString","coordinates":[[9.4364,45.3325],[9.4364,45.3325]]},"properties":{"id":"conn_045","layer":"connections"}},{"type":"Feature","geometry":{"type":"LineString","coordinates":[[8.2985,45.1905],[8.295,45.188]]},"properties":{"id":"conn_046","layer":"connections"}},{"type":"Feature","geometry":{"type":"LineString","coordinates":[[8.29,45.19],[8.295,45.188]]},"properties":{"id":"conn_086","layer":"connections"}},{"type":"Feature","geometry":{"type":"LineString","coordinates":[[11.9488,42.4168],[9.03706,45.47154]]},"properties":{"id":"conn_047","layer":"connections"}},{"type":"Feature","geometry":{"type":"LineString","coordinates":[[9.13181,45.3446],[9.2,45.33]]},"properties":{"id":"conn_048","layer":"connections"}},{"type":"Feature","geometry":{"type":"LineString","coordinates":[[9.1185,45.3515],[9.11167,45.37337]]},"properties":{"id":"conn_049","layer":"connections"}},{"type":"Feature","geometry":{"type":"LineString","coordinates":[[9.1185,45.3515],[9.13732,45.32157]]},"properties":{"id":"conn_050","layer":"connections"}},{"type":"Feature","geometry":{"type":"LineString","coordinates":[[9.215,45.242],[9.20714,45.25325]]},"properties":{"id":"conn_051","layer":"connections"}},{"type":"Feature","geometry":{"type":"LineString","coordinates":[[9.5885,45.692],[9.5878,45.6955]]},"properties":{"id":"conn_052","layer":"connections"}},{"type":"Feature","geometry":{"type":"LineString","coordinates":[[8.865,45.102],[8.86145,45.09933]]},"properties":{"id":"conn_053","layer":"connections"}},{"type":"Feature","geometry":{"type":"LineString","coordinates":[[9.355,45.094],[8.95043,44.4272]]},"properties":{"id":"conn_058","layer":"connections"}},{"type":"Feature","geometry":{"type":"LineString","coordinates":[[9.10313,45.47615],[9.12,45.48]]},"properties":{"id":"conn_059","layer":"connections"}},{"type":"Feature","geometry":{"type":"LineString","coordinates":[[23.1308,63.8381],[17.27474,50.49838]]},"properties":{"id":"conn_069","layer":"connections"}},{"type":"Feature","geometry":{"type":"LineString","coordinates":[[17.27474,50.49838],[16.88595,51.02055]]},"properties":{"id":"conn_070","layer":"connections"}},{"type":"Feature","geometry":{"type":"LineString","coordinates":[[28.00345,63.97809],[17.27474,50.49838]]},"properties":{"id":"conn_072","layer":"connections"}},{"type":"Feature","geometry":{"type":"LineString","coordinates":[[17.27474,50.49838],[19.16246,47.67462]]},"properties":{"id":"conn_073","layer":"connections"}},{"type":"Feature","geometry":{"type":"LineString","coordinates":[[-91.42595,31.56544],[19.16246,47.67462]]},"properties":{"id":"conn_075","layer":"connections"}},{"type":"Feature","geometry":{"type":"LineString","coordinates":[[4.33657,51.16466],[17.27474,50.49838]]},"properties":{"id":"conn_076","layer":"connections"}},{"type":"Feature","geometry":{"type":"LineString","coordinates":[[7.735,45.212],[7.665,45.178]]},"properties":{"id":"conn_087","layer":"connections"}},{"type":"Feature","geometry":{"type":"LineString","coordinates":[[7.445,45.037],[7.6224,45.0536]]},"properties":{"id":"conn_088","layer":"connections"}},{"type":"Feature","geometry":{"type":"LineString","coordinates":[[7.6540804,45.0838664],[7.6346192,45.0972986]]},"properties":{"id":"conn_089","layer":"connections"}},{"type":"Feature","geometry":{"type":"Point","coordinates":[11.88,43.46]},"properties":{"id":"dc_001","subtype":"colocation","layer":"data_centers"}},{"type":"Feature","geometry":{"type":"Point","coordinates":[9.09,45.52]},"properties":{"id":"dc_005","subtype":"hyperscale","layer":"data_centers"}},{"type":"Feature","geometry":{"type":"Point","coordinates":[9.1639,45.3813]},"properties":{"id":"dc_010","subtype":"enterprise","layer":"data_centers"}},{"type":"Feature","geometry":{"type":"Point","coordinates":[-6.425,53.2867]},"properties":{"id":"dc_016","subtype":"hyperscale","layer":"data_centers"}},{"type":"Feature","geometry":{"type":"Point","coordinates":[9.03706,45.47154]},"properties":{"id":"dc_021","subtype":"colocation","layer":"data_centers"}},{"type":"Feature","geometry":{"type":"Point","coordinates":[9.02217,45.44807]},"properties":{"id":"dc_026","subtype":"colocation","layer":"data_centers"}},{"type":"Feature","geometry":{"type":"Point","coordinates":[12.48705,41.7744]},"properties":{"id":"dc_030","subtype":"colocation","layer":"data_centers"}},{"type":"Feature","geometry":{"type":"Point","coordinates":[9.37402,45.49875]},"properties":{"id":"dc_035","subtype":"hyperscale","layer":"data_centers"}},{"type":"Feature","geometry":{"type":"Point","coordinates":[9.0425,45.4762]},"properties":{"id":"dc_040","subtype":"hyperscale","layer":"data_centers"}},{"type":"Feature","geometry":{"type":"Point","coordinates":[9.05468,45.47947]},"properties":{"id":"dc_045","subtype":"hyperscale","layer":"data_centers"}},{"type":"Feature","geometry":{"type":"Point","coordinates":[8.95929,45.48085]},"properties":{"id":"dc_050","subtype":"hyperscale","layer":"data_centers"}},{"type":"Feature","geometry":{"type":"Point","coordinates":[12.53202,41.92247]},"properties":{"id":"dc_054","subtype":"colocation","layer":"data_centers"}},{"type":"Feature","geometry":{"type":"Point","coordinates":[9.73842,45.05013]},"properties":{"id":"dc_059","subtype":"colocation","layer":"data_centers"}},{"type":"Feature","geometry":{"type":"Point","coordinates":[8.92085,44.42918]},"properties":{"id":"dc_064","subtype":"colocation","layer":"data_centers"}},{"type":"Feature","geometry":{"type":"Point","coordinates":[7.66162,45.09132]},"properties":{"id":"dc_069","subtype":"colocation","layer":"data_centers"}},{"type":"Feature","geometry":{"type":"Point","coordinates":[7.55102,45.06255]},"properties":{"id":"dc_074","subtype":"colocation","layer":"data_centers"}},{"type":"Feature","geometry":{"type":"Point","coordinates":[7.7526454,45.1341432]},"properties":{"id":"dc_078","subtype":"enterprise","layer":"data_centers"}},{"type":"Feature","geometry":{"type":"Point","coordinates":[7.6395028,45.0604899]},"properties":{"id":"dc_083","subtype":"enterprise","layer":"data_centers"}},{"type":"Feature","geometry":{"type":"Point","coordinates":[10.798655,45.14667]},"properties":{"id":"dc_088","subtype":"colocation","layer":"data_centers"}},{"type":"Feature","geometry":{"type":"Point","coordinates":[8.2775224,47.0643751]},"properties":{"id":"dc_093","subtype":"colocation","layer":"data_centers"}},{"type":"Feature","geometry":{"type":"Point","coordinates":[8.4953537,47.3832522]},"properties":{"id":"dc_098","subtype":"colocation","layer":"data_centers"}},{"type":"Feature","geometry":{"type":"Point","coordinates":[8.5586765,47.4327074]},"properties":{"id":"dc_102","subtype":"colocation","layer":"data_centers"}},{"type":"Feature","geometry":{"type":"Point","coordinates":[7.0388718,43.6233474]},"properties":{"id":"dc_107","subtype":"colocation","layer":"data_centers"}},{"type":"Feature","geometry":{"type":"Point","coordinates":[7.2791319,47.1557696]},"properties":{"id":"dc_112","subtype":"colocation","layer":"data_centers"}},{"type":"Feature","geometry":{"type":"Point","coordinates":[11.4064771,44.4997626]},"properties":{"id":"dc_117","subtype":"colocation","layer":"data_centers"}},{"type":"Feature","geometry":{"type":"Point","coordinates":[11.5749385,45.6423587]},"properties":{"id":"dc_122","subtype":"colocation","layer":"data_centers"}},{"type":"Feature","geometry":{"type":"Point","coordinates":[14.7715649,41.1219805]},"properties":{"id":"dc_126","subtype":"colocation","layer":"data_centers"}},{"type":"Feature","geometry":{"type":"Point","coordinates":[14.3214597,41.0665144]},"properties":{"id":"dc_131","subtype":"colocation","layer":"data_centers"}},{"type":"Feature","geometry":{"type":"Point","coordinates":[4.6647354,52.391724]},"properties":{"id":"dc_136","subtype":"colocation","layer":"data_centers"}},{"type":"Feature","geometry":{"type":"Point","coordinates":[4.7709138,52.2841493]},"properties":{"id":"dc_141","subtype":"colocation","layer":"data_centers"}},{"type":"Feature","geometry":{"type":"Point","coordinates":[6.864589,53.1668487]},"properties":{"id":"dc_146","subtype":"colocation","layer":"data_centers"}},{"type":"Feature","geometry":{"type":"Point","coordinates":[5.7050729,52.5437235]},"properties":{"id":"dc_150","subtype":"colocation","layer":"data_centers"}},{"type":"Feature","geometry":{"type":"Point","coordinates":[4.7427993,52.6319674]},"properties":{"id":"dc_155","subtype":"colocation","layer":"data_centers"}},{"type":"Feature","geometry":{"type":"Point","coordinates":[4.3782416,51.9876517]},"properties":{"id":"dc_160","subtype":"colocation","layer":"data_centers"}},{"type":"Feature","geometry":{"type":"Point","coordinates":[3.0399115,50.6485978]},"properties":{"id":"dc_165","subtype":"colocation","layer":"data_centers"}},{"type":"Feature","geometry":{"type":"Point","coordinates":[3.6102522,50.5281516]},"properties":{"id":"dc_170","subtype":"hyperscale","layer":"data_centers"}},{"type":"Feature","geometry":{"type":"Point","coordinates":[4.2504118,50.7068026]},"properties":{"id":"dc_175","subtype":"colocation","layer":"data_centers"}},{"type":"Feature","geometry":{"type":"Point","coordinates":[3.7678917,50.986992]},"properties":{"id":"dc_179","subtype":"colocation","layer":"data_centers"}},{"type":"Feature","geometry":{"type":"Point","coordinates":[6.2001568,52.717803]},"properties":{"id":"dc_184","subtype":"colocation","layer":"data_centers"}},{"type":"Feature","geometry":{"type":"Point","coordinates":[5.971892,50.8917748]},"properties":{"id":"dc_189","subtype":"colocation","layer":"data_centers"}},{"type":"Feature","geometry":{"type":"Point","coordinates":[3.1036122,50.6147187]},"properties":{"id":"dc_194","subtype":"colocation","layer":"data_centers"}},{"type":"Feature","geometry":{"type":"Point","coordinates":[3.8644622,50.4676714]},"properties":{"id":"dc_199","subtype":"hyperscale","layer":"data_centers"}},{"type":"Feature","geometry":{"type":"Point","coordinates":[3.017136,50.6776255]},"properties":{"id":"dc_203","subtype":"colocation","layer":"data_centers"}},{"type":"Feature","geometry":{"type":"Point","coordinates":[6.8069689,51.2198442]},"properties":{"id":"dc_208","subtype":"colocation","layer":"data_centers"}},{"type":"Feature","geometry":{"type":"Point","coordinates":[5.0380432,52.7659608]},"properties":{"id":"dc_213","subtype":"hyperscale","layer":"data_centers"}},{"type":"Feature","geometry":{"type":"Point","coordinates":[6.8581118,53.4375007]},"properties":{"id":"dc_218","subtype":"colocation","layer":"data_centers"}},{"type":"Feature","geometry":{"type":"Point","coordinates":[3.5220762,50.3782966]},"properties":{"id":"dc_223","subtype":"colocation","layer":"data_centers"}},{"type":"Feature","geometry":{"type":"Point","coordinates":[6.1426449,52.4885081]},"properties":{"id":"dc_227","subtype":"colocation","layer":"data_centers"}},{"type":"Feature","geometry":{"type":"Point","coordinates":[4.4117186,50.8576103]},"properties":{"id":"dc_232","subtype":"colocation","layer":"data_centers"}},{"type":"Feature","geometry":{"type":"Point","coordinates":[5.2617368,50.5806237]},"properties":{"id":"dc_237","subtype":"colocation","layer":"data_centers"}},{"type":"Feature","geometry":{"type":"Point","coordinates":[4.4493181,51.875186]},"properties":{"id":"dc_242","subtype":"colocation","layer":"data_centers"}},{"type":"Feature","geometry":{"type":"Point","coordinates":[4.7169352,52.38466]},"properties":{"id":"dc_247","subtype":"colocation","layer":"data_centers"}},{"type":"Feature","geometry":{"type":"Point","coordinates":[4.8925688,52.0824688]},"properties":{"id":"dc_251","subtype":"colocation","layer":"data_centers"}},{"type":"Feature","geometry":{"type":"Point","coordinates":[-6.2164411,53.4001437]},"properties":{"id":"dc_256","subtype":"colocation","layer":"data_centers"}},{"type":"Feature","geometry":{"type":"Point","coordinates":[-8.175627,51.9535089]},"properties":{"id":"dc_261","subtype":"colocation","layer":"data_centers"}},{"type":"Feature","geometry":{"type":"Point","coordinates":[-8.5124741,51.9036267]},"properties":{"id":"dc_266","subtype":"colocation","layer":"data_centers"}},{"type":"Feature","geometry":{"type":"Point","coordinates":[-6.4430316,53.3296278]},"properties":{"id":"dc_271","subtype":"colocation","layer":"data_centers"}},{"type":"Feature","geometry":{"type":"Point","coordinates":[-6.6854646,55.1534408]},"properties":{"id":"dc_275","subtype":"colocation","layer":"data_centers"}},{"type":"Feature","geometry":{"type":"Point","coordinates":[-6.3826786,53.7041784]},"properties":{"id":"dc_280","subtype":"hyperscale","layer":"data_centers"}},{"type":"Feature","geometry":{"type":"Point","coordinates":[5.5983501,58.8601113]},"properties":{"id":"dc_285","subtype":"colocation","layer":"data_centers"}},{"type":"Feature","geometry":{"type":"Point","coordinates":[8.773977,55.3453845]},"properties":{"id":"dc_292","subtype":"colocation","layer":"data_centers"}},{"type":"Feature","geometry":{"type":"Point","coordinates":[24.9684122,60.1849597]},"properties":{"id":"dc_298","subtype":"colocation","layer":"data_centers"}},{"type":"Feature","geometry":{"type":"Point","coordinates":[10.1557782,56.1175792]},"properties":{"id":"dc_303","subtype":"colocation","layer":"data_centers"}},{"type":"Feature","geometry":{"type":"Point","coordinates":[12.3677805,55.6677258]},"properties":{"id":"dc_308","subtype":"colocation","layer":"data_centers"}},{"type":"Feature","geometry":{"type":"Point","coordinates":[24.7785305,60.2031241]},"properties":{"id":"dc_313","subtype":"colocation","layer":"data_centers"}},{"type":"Feature","geometry":{"type":"Point","coordinates":[10.5007399,57.3186485]},"properties":{"id":"dc_320","subtype":"colocation","layer":"data_centers"}},{"type":"Feature","geometry":{"type":"Point","coordinates":[15.6096897,60.6105558]},"properties":{"id":"dc_325","subtype":"colocation","layer":"data_centers"}},{"type":"Feature","geometry":{"type":"Point","coordinates":[16.2351743,58.9964164]},"properties":{"id":"dc_330","subtype":"hyperscale","layer":"data_centers"}},{"type":"Feature","geometry":{"type":"Point","coordinates":[21.89145,61.5001295]},"properties":{"id":"dc_335","subtype":"colocation","layer":"data_centers"}},{"type":"Feature","geometry":{"type":"Point","coordinates":[11.0046451,59.6327351]},"properties":{"id":"dc_341","subtype":"hyperscale","layer":"data_centers"}},{"type":"Feature","geometry":{"type":"Point","coordinates":[14.5302597,50.0601386]},"properties":{"id":"dc_346","subtype":"colocation","layer":"data_centers"}},{"type":"Feature","geometry":{"type":"Point","coordinates":[12.1066375,54.0773947]},"properties":{"id":"dc_351","subtype":"colocation","layer":"data_centers"}},{"type":"Feature","geometry":{"type":"Point","coordinates":[9.9937299,53.7000316]},"properties":{"id":"dc_356","subtype":"colocation","layer":"data_centers"}},{"type":"Feature","geometry":{"type":"Point","coordinates":[7.0396224,49.2249548]},"properties":{"id":"dc_360","subtype":"colocation","layer":"data_centers"}},{"type":"Feature","geometry":{"type":"Point","coordinates":[13.3693009,52.5020344]},"properties":{"id":"dc_365","subtype":"colocation","layer":"data_centers"}},{"type":"Feature","geometry":{"type":"Point","coordinates":[14.3437322,50.1016089]},"properties":{"id":"dc_370","subtype":"colocation","layer":"data_centers"}},{"type":"Feature","geometry":{"type":"Point","coordinates":[14.474814,50.0779578]},"properties":{"id":"dc_375","subtype":"colocation","layer":"data_centers"}},{"type":"Feature","geometry":{"type":"Point","coordinates":[14.3083177,48.2821514]},"properties":{"id":"dc_380","subtype":"colocation","layer":"data_centers"}},{"type":"Feature","geometry":{"type":"Point","coordinates":[11.0638651,49.453733]},"properties":{"id":"dc_384","subtype":"colocation","layer":"data_centers"}},{"type":"Feature","geometry":{"type":"Point","coordinates":[9.7690205,52.3980235]},"properties":{"id":"dc_389","subtype":"colocation","layer":"data_centers"}},{"type":"Feature","geometry":{"type":"Point","coordinates":[8.5533231,50.1442635]},"properties":{"id":"dc_394","subtype":"colocation","layer":"data_centers"}},{"type":"Feature","geometry":{"type":"Point","coordinates":[11.6367855,52.1487484]},"properties":{"id":"dc_399","subtype":"colocation","layer":"data_centers"}},{"type":"Feature","geometry":{"type":"Point","coordinates":[10.0435287,53.547628]},"properties":{"id":"dc_404","subtype":"colocation","layer":"data_centers"}},{"type":"Feature","geometry":{"type":"Point","coordinates":[7.7951206,48.5932662]},"properties":{"id":"dc_408","subtype":"colocation","layer":"data_centers"}},{"type":"Feature","geometry":{"type":"Point","coordinates":[14.485813,50.1256557]},"properties":{"id":"dc_413","subtype":"colocation","layer":"data_centers"}},{"type":"Feature","geometry":{"type":"Point","coordinates":[15.430343,47.0662521]},"properties":{"id":"dc_418","subtype":"colocation","layer":"data_centers"}},{"type":"Feature","geometry":{"type":"Point","coordinates":[6.1505564,48.6559691]},"properties":{"id":"dc_423","subtype":"colocation","layer":"data_centers"}},{"type":"Feature","geometry":{"type":"Point","coordinates":[14.5034521,50.0252197]},"properties":{"id":"dc_428","subtype":"colocation","layer":"data_centers"}},{"type":"Feature","geometry":{"type":"Point","coordinates":[14.4829496,50.06015]},"properties":{"id":"dc_432","subtype":"colocation","layer":"data_centers"}},{"type":"Feature","geometry":{"type":"Point","coordinates":[14.3464295,51.193955]},"properties":{"id":"dc_437","subtype":"colocation","layer":"data_centers"}},{"type":"Feature","geometry":{"type":"Point","coordinates":[6.3246532,49.6940086]},"properties":{"id":"dc_442","subtype":"colocation","layer":"data_centers"}},{"type":"Feature","geometry":{"type":"Point","coordinates":[8.619849,50.1036247]},"properties":{"id":"dc_447","subtype":"colocation","layer":"data_centers"}},{"type":"Feature","geometry":{"type":"Point","coordinates":[11.5333663,48.0639182]},"properties":{"id":"dc_452","subtype":"colocation","layer":"data_centers"}},{"type":"Feature","geometry":{"type":"Point","coordinates":[6.8042459,49.505053]},"properties":{"id":"dc_456","subtype":"colocation","layer":"data_centers"}},{"type":"Feature","geometry":{"type":"Point","coordinates":[8.4582302,49.0777621]},"properties":{"id":"dc_461","subtype":"colocation","layer":"data_centers"}},{"type":"Feature","geometry":{"type":"Point","coordinates":[8.6316399,49.2935279]},"properties":{"id":"dc_466","subtype":"colocation","layer":"data_centers"}},{"type":"Feature","geometry":{"type":"Point","coordinates":[7.6154941,47.5125242]},"properties":{"id":"dc_471","subtype":"colocation","layer":"data_centers"}},{"type":"Feature","geometry":{"type":"Point","coordinates":[9.5637715,52.0768856]},"properties":{"id":"dc_476","subtype":"colocation","layer":"data_centers"}},{"type":"Feature","geometry":{"type":"Point","coordinates":[13.0828042,47.7062217]},"properties":{"id":"dc_480","subtype":"colocation","layer":"data_centers"}},{"type":"Feature","geometry":{"type":"Point","coordinates":[6.2375093,49.0856606]},"properties":{"id":"dc_485","subtype":"colocation","layer":"data_centers"}},{"type":"Feature","geometry":{"type":"Point","coordinates":[7.7371014,48.5201523]},"properties":{"id":"dc_490","subtype":"colocation","layer":"data_centers"}},{"type":"Feature","geometry":{"type":"Point","coordinates":[8.6726374,49.3939028]},"properties":{"id":"dc_495","subtype":"colocation","layer":"data_centers"}},{"type":"Feature","geometry":{"type":"Point","coordinates":[8.6814583,49.3854175]},"properties":{"id":"dc_500","subtype":"colocation","layer":"data_centers"}},{"type":"Feature","geometry":{"type":"Point","coordinates":[8.337092,49.9908869]},"properties":{"id":"dc_504","subtype":"colocation","layer":"data_centers"}},{"type":"Feature","geometry":{"type":"Point","coordinates":[11.3811071,53.6469747]},"properties":{"id":"dc_509","subtype":"colocation","layer":"data_centers"}},{"type":"Feature","geometry":{"type":"Point","coordinates":[2.2577867,48.9037523]},"properties":{"id":"dc_514","subtype":"colocation","layer":"data_centers"}},{"type":"Feature","geometry":{"type":"Point","coordinates":[2.4030379,48.8152095]},"properties":{"id":"dc_519","subtype":"colocation","layer":"data_centers"}},{"type":"Feature","geometry":{"type":"Point","coordinates":[4.8675607,45.7588426]},"properties":{"id":"dc_524","subtype":"colocation","layer":"data_centers"}},{"type":"Feature","geometry":{"type":"Point","coordinates":[0.3400181,46.5884206]},"properties":{"id":"dc_529","subtype":"colocation","layer":"data_centers"}},{"type":"Feature","geometry":{"type":"Point","coordinates":[-1.7479133,46.5154971]},"properties":{"id":"dc_533","subtype":"colocation","layer":"data_centers"}},{"type":"Feature","geometry":{"type":"Point","coordinates":[2.2142352,48.8878271]},"properties":{"id":"dc_538","subtype":"colocation","layer":"data_centers"}},{"type":"Feature","geometry":{"type":"Point","coordinates":[2.4040974,48.8428819]},"properties":{"id":"dc_543","subtype":"colocation","layer":"data_centers"}},{"type":"Feature","geometry":{"type":"Point","coordinates":[2.393401,48.819937]},"properties":{"id":"dc_548","subtype":"colocation","layer":"data_centers"}},{"type":"Feature","geometry":{"type":"Point","coordinates":[2.2942124,48.8574197]},"properties":{"id":"dc_553","subtype":"colocation","layer":"data_centers"}},{"type":"Feature","geometry":{"type":"Point","coordinates":[-4.4154696,48.4413007]},"properties":{"id":"dc_557","subtype":"colocation","layer":"data_centers"}},{"type":"Feature","geometry":{"type":"Point","coordinates":[2.0500164,48.7919993]},"properties":{"id":"dc_562","subtype":"colocation","layer":"data_centers"}},{"type":"Feature","geometry":{"type":"Point","coordinates":[2.0777812,48.7258632]},"properties":{"id":"dc_567","subtype":"colocation","layer":"data_centers"}},{"type":"Feature","geometry":{"type":"Point","coordinates":[5.0776704,47.3400512]},"properties":{"id":"dc_572","subtype":"colocation","layer":"data_centers"}},{"type":"Feature","geometry":{"type":"Point","coordinates":[5.4119359,43.3359205]},"properties":{"id":"dc_577","subtype":"colocation","layer":"data_centers"}},{"type":"Feature","geometry":{"type":"Point","coordinates":[-1.1664407,50.8482468]},"properties":{"id":"dc_581","subtype":"colocation","layer":"data_centers"}},{"type":"Feature","geometry":{"type":"Point","coordinates":[1.9396564,47.8455144]},"properties":{"id":"dc_586","subtype":"colocation","layer":"data_centers"}},{"type":"Feature","geometry":{"type":"Point","coordinates":[-1.4273241,50.9616793]},"properties":{"id":"dc_591","subtype":"colocation","layer":"data_centers"}},{"type":"Feature","geometry":{"type":"Point","coordinates":[0.2580033,51.4533805]},"properties":{"id":"dc_596","subtype":"colocation","layer":"data_centers"}},{"type":"Feature","geometry":{"type":"Point","coordinates":[-0.3963834,51.4666236]},"properties":{"id":"dc_601","subtype":"colocation","layer":"data_centers"}},{"type":"Feature","geometry":{"type":"Point","coordinates":[-0.4799467,51.3475652]},"properties":{"id":"dc_605","subtype":"colocation","layer":"data_centers"}},{"type":"Feature","geometry":{"type":"Point","coordinates":[2.3623904,48.9147278]},"properties":{"id":"dc_610","subtype":"colocation","layer":"data_centers"}},{"type":"Feature","geometry":{"type":"Point","coordinates":[0.2284721,47.9967758]},"properties":{"id":"dc_615","subtype":"colocation","layer":"data_centers"}},{"type":"Feature","geometry":{"type":"Point","coordinates":[5.3772238,43.3029274]},"properties":{"id":"dc_620","subtype":"colocation","layer":"data_centers"}},{"type":"Feature","geometry":{"type":"Point","coordinates":[2.3695394,48.9072064]},"properties":{"id":"dc_625","subtype":"colocation","layer":"data_centers"}},{"type":"Feature","geometry":{"type":"Point","coordinates":[2.2953218,48.9001851]},"properties":{"id":"dc_629","subtype":"colocation","layer":"data_centers"}},{"type":"Feature","geometry":{"type":"Point","coordinates":[2.2236652,48.9253839]},"properties":{"id":"dc_634","subtype":"colocation","layer":"data_centers"}},{"type":"Feature","geometry":{"type":"Point","coordinates":[2.4161651,48.8633885]},"properties":{"id":"dc_639","subtype":"colocation","layer":"data_centers"}},{"type":"Feature","geometry":{"type":"Point","coordinates":[2.3028633,48.8158501]},"properties":{"id":"dc_644","subtype":"colocation","layer":"data_centers"}},{"type":"Feature","geometry":{"type":"Point","coordinates":[-0.975228,51.4206794]},"properties":{"id":"dc_649","subtype":"colocation","layer":"data_centers"}},{"type":"Feature","geometry":{"type":"Point","coordinates":[5.3678465,43.3427925]},"properties":{"id":"dc_653","subtype":"colocation","layer":"data_centers"}},{"type":"Feature","geometry":{"type":"Point","coordinates":[2.6929285,48.8325795]},"properties":{"id":"dc_658","subtype":"colocation","layer":"data_centers"}},{"type":"Feature","geometry":{"type":"Point","coordinates":[2.5873345,48.829258]},"properties":{"id":"dc_663","subtype":"colocation","layer":"data_centers"}},{"type":"Feature","geometry":{"type":"Point","coordinates":[1.5091944,45.1576043]},"properties":{"id":"dc_668","subtype":"colocation","layer":"data_centers"}},{"type":"Feature","geometry":{"type":"Point","coordinates":[-2.9631583,51.2275256]},"properties":{"id":"dc_673","subtype":"colocation","layer":"data_centers"}},{"type":"Feature","geometry":{"type":"Point","coordinates":[2.218598,48.7865768]},"properties":{"id":"dc_677","subtype":"colocation","layer":"data_centers"}},{"type":"Feature","geometry":{"type":"Point","coordinates":[2.2083235,48.6642946]},"properties":{"id":"dc_682","subtype":"colocation","layer":"data_centers"}},{"type":"Feature","geometry":{"type":"Point","coordinates":[-0.4099656,51.4595405]},"properties":{"id":"dc_687","subtype":"colocation","layer":"data_centers"}},{"type":"Feature","geometry":{"type":"Point","coordinates":[-3.753226,43.3928381]},"properties":{"id":"dc_692","subtype":"colocation","layer":"data_centers"}},{"type":"Feature","geometry":{"type":"Point","coordinates":[-0.0110653,51.4998389]},"properties":{"id":"dc_697","subtype":"colocation","layer":"data_centers"}},{"type":"Feature","geometry":{"type":"Point","coordinates":[-1.2904722,51.3770297]},"properties":{"id":"dc_702","subtype":"colocation","layer":"data_centers"}},{"type":"Feature","geometry":{"type":"Point","coordinates":[4.8789773,45.9038171]},"properties":{"id":"dc_706","subtype":"colocation","layer":"data_centers"}},{"type":"Feature","geometry":{"type":"Point","coordinates":[-1.6310155,47.2314685]},"properties":{"id":"dc_711","subtype":"colocation","layer":"data_centers"}},{"type":"Feature","geometry":{"type":"Point","coordinates":[2.1825313,43.9193179]},"properties":{"id":"dc_716","subtype":"colocation","layer":"data_centers"}},{"type":"Feature","geometry":{"type":"Point","coordinates":[-0.4045035,51.4964027]},"properties":{"id":"dc_721","subtype":"colocation","layer":"data_centers"}},{"type":"Feature","geometry":{"type":"Point","coordinates":[-0.5979116,44.8739908]},"properties":{"id":"dc_726","subtype":"colocation","layer":"data_centers"}},{"type":"Feature","geometry":{"type":"Point","coordinates":[2.0013346,48.765411]},"properties":{"id":"dc_730","subtype":"colocation","layer":"data_centers"}},{"type":"Feature","geometry":{"type":"Point","coordinates":[-0.5223663,45.927469]},"properties":{"id":"dc_735","subtype":"colocation","layer":"data_centers"}},{"type":"Feature","geometry":{"type":"Point","coordinates":[2.1232567,41.4896803]},"properties":{"id":"dc_740","subtype":"colocation","layer":"data_centers"}},{"type":"Feature","geometry":{"type":"Point","coordinates":[2.8033037,48.836663]},"properties":{"id":"dc_745","subtype":"colocation","layer":"data_centers"}},{"type":"Feature","geometry":{"type":"Point","coordinates":[-1.6596899,42.817786]},"properties":{"id":"dc_750","subtype":"colocation","layer":"data_centers"}},{"type":"Feature","geometry":{"type":"Point","coordinates":[-0.8873807,51.4373456]},"properties":{"id":"dc_754","subtype":"colocation","layer":"data_centers"}},{"type":"Feature","geometry":{"type":"Point","coordinates":[-3.8773795,36.7483885]},"properties":{"id":"dc_759","subtype":"colocation","layer":"data_centers"}},{"type":"Feature","geometry":{"type":"Point","coordinates":[-9.2305421,38.7251192]},"properties":{"id":"dc_764","subtype":"colocation","layer":"data_centers"}},{"type":"Feature","geometry":{"type":"Point","coordinates":[-8.595026,41.1777225]},"properties":{"id":"dc_769","subtype":"colocation","layer":"data_centers"}},{"type":"Feature","geometry":{"type":"Point","coordinates":[-8.8125832,37.9348553]},"properties":{"id":"dc_774","subtype":"colocation","layer":"data_centers"}},{"type":"Feature","geometry":{"type":"Point","coordinates":[-3.6136753,40.5490838]},"properties":{"id":"dc_778","subtype":"hyperscale","layer":"data_centers"}},{"type":"Feature","geometry":{"type":"Point","coordinates":[-2.2386018,53.4789028]},"properties":{"id":"dc_783","subtype":"colocation","layer":"data_centers"}},{"type":"Feature","geometry":{"type":"Point","coordinates":[-1.3976736,53.6993157]},"properties":{"id":"dc_788","subtype":"colocation","layer":"data_centers"}},{"type":"Feature","geometry":{"type":"Point","coordinates":[-2.2934202,53.4680158]},"properties":{"id":"dc_793","subtype":"colocation","layer":"data_centers"}},{"type":"Feature","geometry":{"type":"Point","coordinates":[-1.2145155,53.0064897]},"properties":{"id":"dc_798","subtype":"colocation","layer":"data_centers"}},{"type":"Feature","geometry":{"type":"Point","coordinates":[-1.377013,53.7034936]},"properties":{"id":"dc_802","subtype":"colocation","layer":"data_centers"}},{"type":"Feature","geometry":{"type":"Point","coordinates":[-2.1601492,57.1525691]},"properties":{"id":"dc_807","subtype":"colocation","layer":"data_centers"}},{"type":"Feature","geometry":{"type":"Point","coordinates":[-3.4812859,55.8762813]},"properties":{"id":"dc_812","subtype":"colocation","layer":"data_centers"}},{"type":"Feature","geometry":{"type":"Point","coordinates":[-3.0376928,51.5556071]},"properties":{"id":"dc_817","subtype":"colocation","layer":"data_centers"}},{"type":"Feature","geometry":{"type":"Point","coordinates":[-2.5817485,51.5406763]},"properties":{"id":"dc_822","subtype":"colocation","layer":"data_centers"}},{"type":"Feature","geometry":{"type":"Point","coordinates":[-0.4288873,51.5013691]},"properties":{"id":"dc_826","subtype":"colocation","layer":"data_centers"}},{"type":"Feature","geometry":{"type":"Point","coordinates":[-0.1503563,51.6514619]},"properties":{"id":"dc_831","subtype":"colocation","layer":"data_centers"}},{"type":"Feature","geometry":{"type":"Point","coordinates":[-0.6189727,51.5200864]},"properties":{"id":"dc_836","subtype":"colocation","layer":"data_centers"}},{"type":"Feature","geometry":{"type":"Point","coordinates":[-0.0828809,51.5229321]},"properties":{"id":"dc_841","subtype":"colocation","layer":"data_centers"}},{"type":"Feature","geometry":{"type":"Point","coordinates":[-1.3153016,51.5740371]},"properties":{"id":"dc_846","subtype":"colocation","layer":"data_centers"}},{"type":"Feature","geometry":{"type":"Point","coordinates":[-0.3639385,51.5453478]},"properties":{"id":"dc_850","subtype":"colocation","layer":"data_centers"}},{"type":"Feature","geometry":{"type":"Point","coordinates":[-0.4271464,51.5067717]},"properties":{"id":"dc_855","subtype":"colocation","layer":"data_centers"}},{"type":"Feature","geometry":{"type":"Point","coordinates":[-0.4538102,51.5105687]},"properties":{"id":"dc_860","subtype":"colocation","layer":"data_centers"}},{"type":"Feature","geometry":{"type":"Point","coordinates":[-3.0404591,51.5509775]},"properties":{"id":"dc_865","subtype":"hyperscale","layer":"data_centers"}},{"type":"Feature","geometry":{"type":"Point","coordinates":[0.0019607,51.515406]},"properties":{"id":"dc_870","subtype":"colocation","layer":"data_centers"}},{"type":"Feature","geometry":{"type":"Point","coordinates":[8.7424,45.5202]},"properties":{"id":"ep_001","subtype":"gas","layer":"energy_plants"}},{"type":"Feature","geometry":{"type":"Point","coordinates":[11.76,42.25]},"properties":{"id":"ep_011","subtype":"solar","layer":"energy_plants"}},{"type":"Feature","geometry":{"type":"Point","coordinates":[15.31235,41.36313]},"properties":{"id":"ep_021","subtype":"wind","layer":"energy_plants"}},{"type":"Feature","geometry":{"type":"Point","coordinates":[16.4633,48.2]},"properties":{"id":"ep_029","subtype":"gas","layer":"energy_plants"}},{"type":"Feature","geometry":{"type":"Point","coordinates":[12.7389,47.2591]},"properties":{"id":"ep_038","subtype":"hydro","layer":"energy_plants"}},{"type":"Feature","geometry":{"type":"Point","coordinates":[13.1389,47.3152]},"properties":{"id":"ep_046","subtype":"hydro","layer":"energy_plants"}},{"type":"Feature","geometry":{"type":"Point","coordinates":[2.8,51.66]},"properties":{"id":"ep_072","subtype":"wind","layer":"energy_plants"}},{"type":"Feature","geometry":{"type":"Point","coordinates":[4.3861,50.1884]},"properties":{"id":"ep_080","subtype":"hydro","layer":"energy_plants"}},{"type":"Feature","geometry":{"type":"Point","coordinates":[25.3381,41.6334]},"properties":{"id":"ep_089","subtype":"hydro","layer":"energy_plants"}},{"type":"Feature","geometry":{"type":"Point","coordinates":[16.784,43.6737]},"properties":{"id":"ep_097","subtype":"hydro","layer":"energy_plants"}},{"type":"Feature","geometry":{"type":"Point","coordinates":[14.127,50.1535]},"properties":{"id":"ep_105","subtype":"gas","layer":"energy_plants"}},{"type":"Feature","geometry":{"type":"Point","coordinates":[7.9062,55.5297]},"properties":{"id":"ep_113","subtype":"wind","layer":"energy_plants"}},{"type":"Feature","geometry":{"type":"Point","coordinates":[23.7871,61.4991]},"properties":{"id":"ep_123","subtype":"gas","layer":"energy_plants"}},{"type":"Feature","geometry":{"type":"Point","coordinates":[4.787,44.676]},"properties":{"id":"ep_135","subtype":"hydro","layer":"energy_plants"}},{"type":"Feature","geometry":{"type":"Point","coordinates":[4.839,45.011]},"properties":{"id":"ep_143","subtype":"hydro","layer":"energy_plants"}},{"type":"Feature","geometry":{"type":"Point","coordinates":[0.6548,46.4563]},"properties":{"id":"ep_152","subtype":"nuclear","layer":"energy_plants"}},{"type":"Feature","geometry":{"type":"Point","coordinates":[5.8917,48.675]},"properties":{"id":"ep_160","subtype":"gas","layer":"energy_plants"}},{"type":"Feature","geometry":{"type":"Point","coordinates":[2.3,48.9333]},"properties":{"id":"ep_168","subtype":"gas","layer":"energy_plants"}},{"type":"Feature","geometry":{"type":"Point","coordinates":[2.364,45.392]},"properties":{"id":"ep_176","subtype":"hydro","layer":"energy_plants"}},{"type":"Feature","geometry":{"type":"Point","coordinates":[0.6354,49.8582]},"properties":{"id":"ep_185","subtype":"nuclear","layer":"energy_plants"}},{"type":"Feature","geometry":{"type":"Point","coordinates":[4.625,49.906]},"properties":{"id":"ep_193","subtype":"hydro","layer":"energy_plants"}},{"type":"Feature","geometry":{"type":"Point","coordinates":[6.4726,45.2184]},"properties":{"id":"ep_201","subtype":"hydro","layer":"energy_plants"}},{"type":"Feature","geometry":{"type":"Point","coordinates":[4.7311,44.3311]},"properties":{"id":"ep_209","subtype":"nuclear","layer":"energy_plants"}},{"type":"Feature","geometry":{"type":"Point","coordinates":[6.55,53.9667]},"properties":{"id":"ep_218","subtype":"wind","layer":"energy_plants"}},{"type":"Feature","geometry":{"type":"Point","coordinates":[7.3204,52.4716]},"properties":{"id":"ep_226","subtype":"nuclear","layer":"energy_plants"}},{"type":"Feature","geometry":{"type":"Point","coordinates":[6.994,54.041]},"properties":{"id":"ep_234","subtype":"wind","layer":"energy_plants"}},{"type":"Feature","geometry":{"type":"Point","coordinates":[8.4141,49.992]},"properties":{"id":"ep_242","subtype":"gas","layer":"energy_plants"}},{"type":"Feature","geometry":{"type":"Point","coordinates":[6.988,50.9749]},"properties":{"id":"ep_251","subtype":"gas","layer":"energy_plants"}},{"type":"Feature","geometry":{"type":"Point","coordinates":[9.9231,49.8]},"properties":{"id":"ep_259","subtype":"gas","layer":"energy_plants"}},{"type":"Feature","geometry":{"type":"Point","coordinates":[8.6482,52.1951]},"properties":{"id":"ep_267","subtype":"gas","layer":"energy_plants"}},{"type":"Feature","geometry":{"type":"Point","coordinates":[8.1926,47.6178]},"properties":{"id":"ep_276","subtype":"hydro","layer":"energy_plants"}},{"type":"Feature","geometry":{"type":"Point","coordinates":[13.4209,52.5117]},"properties":{"id":"ep_284","subtype":"gas","layer":"energy_plants"}},{"type":"Feature","geometry":{"type":"Point","coordinates":[7.9928,51.2248]},"properties":{"id":"ep_292","subtype":"hydro","layer":"energy_plants"}},{"type":"Feature","geometry":{"type":"Point","coordinates":[7.9291,51.6739]},"properties":{"id":"ep_300","subtype":"gas","layer":"energy_plants"}},{"type":"Feature","geometry":{"type":"Point","coordinates":[9.0139,54.6409]},"properties":{"id":"ep_309","subtype":"wind","layer":"energy_plants"}},{"type":"Feature","geometry":{"type":"Point","coordinates":[23.3264,38.2801]},"properties":{"id":"ep_317","subtype":"gas","layer":"energy_plants"}},{"type":"Feature","geometry":{"type":"Point","coordinates":[21.3021,39.4646]},"properties":{"id":"ep_325","subtype":"hydro","layer":"energy_plants"}},{"type":"Feature","geometry":{"type":"Point","coordinates":[22.1913,40.3954]},"properties":{"id":"ep_333","subtype":"hydro","layer":"energy_plants"}},{"type":"Feature","geometry":{"type":"Point","coordinates":[19.0563,47.4624]},"properties":{"id":"ep_342","subtype":"gas","layer":"energy_plants"}},{"type":"Feature","geometry":{"type":"Point","coordinates":[-9.0596,52.6324]},"properties":{"id":"ep_350","subtype":"gas","layer":"energy_plants"}},{"type":"Feature","geometry":{"type":"Point","coordinates":[13.521,37.2814]},"properties":{"id":"ep_358","subtype":"gas","layer":"energy_plants"}},{"type":"Feature","geometry":{"type":"Point","coordinates":[8.7412,44.8903]},"properties":{"id":"ep_366","subtype":"solar","layer":"energy_plants"}},{"type":"Feature","geometry":{"type":"Point","coordinates":[11.0888,44.1705]},"properties":{"id":"ep_375","subtype":"hydro","layer":"energy_plants"}},{"type":"Feature","geometry":{"type":"Point","coordinates":[12.6621,41.6577]},"properties":{"id":"ep_383","subtype":"solar","layer":"energy_plants"}},{"type":"Feature","geometry":{"type":"Point","coordinates":[17.8399,40.5941]},"properties":{"id":"ep_391","subtype":"solar","layer":"energy_plants"}},{"type":"Feature","geometry":{"type":"Point","coordinates":[11.3336,46.4927]},"properties":{"id":"ep_400","subtype":"hydro","layer":"energy_plants"}},{"type":"Feature","geometry":{"type":"Point","coordinates":[9.6377,45.2268]},"properties":{"id":"ep_408","subtype":"gas","layer":"energy_plants"}},{"type":"Feature","geometry":{"type":"Point","coordinates":[14.4039,42.3496]},"properties":{"id":"ep_416","subtype":"gas","layer":"energy_plants"}},{"type":"Feature","geometry":{"type":"Point","coordinates":[7.788,44.8749]},"properties":{"id":"ep_424","subtype":"solar","layer":"energy_plants"}},{"type":"Feature","geometry":{"type":"Point","coordinates":[17.932,40.517]},"properties":{"id":"ep_433","subtype":"solar","layer":"energy_plants"}},{"type":"Feature","geometry":{"type":"Point","coordinates":[15.1119,37.2866]},"properties":{"id":"ep_441","subtype":"solar","layer":"energy_plants"}},{"type":"Feature","geometry":{"type":"Point","coordinates":[18.0033,40.6293]},"properties":{"id":"ep_449","subtype":"gas","layer":"energy_plants"}},{"type":"Feature","geometry":{"type":"Point","coordinates":[8.321,40.825]},"properties":{"id":"ep_457","subtype":"solar","layer":"energy_plants"}},{"type":"Feature","geometry":{"type":"Point","coordinates":[10.2653,46.286]},"properties":{"id":"ep_466","subtype":"hydro","layer":"energy_plants"}},{"type":"Feature","geometry":{"type":"Point","coordinates":[16.735,40.491]},"properties":{"id":"ep_474","subtype":"solar","layer":"energy_plants"}},{"type":"Feature","geometry":{"type":"Point","coordinates":[11.697,42.508]},"properties":{"id":"ep_482","subtype":"solar","layer":"energy_plants"}},{"type":"Feature","geometry":{"type":"Point","coordinates":[12.2552,45.4458]},"properties":{"id":"ep_490","subtype":"gas","layer":"energy_plants"}},{"type":"Feature","geometry":{"type":"Point","coordinates":[11.6136,42.3925]},"properties":{"id":"ep_499","subtype":"solar","layer":"energy_plants"}},{"type":"Feature","geometry":{"type":"Point","coordinates":[16.3838,39.4929]},"properties":{"id":"ep_507","subtype":"hydro","layer":"energy_plants"}},{"type":"Feature","geometry":{"type":"Point","coordinates":[8.6647,39.7386]},"properties":{"id":"ep_515","subtype":"solar","layer":"energy_plants"}},{"type":"Feature","geometry":{"type":"Point","coordinates":[11.5717,42.409]},"properties":{"id":"ep_524","subtype":"solar","layer":"energy_plants"}},{"type":"Feature","geometry":{"type":"Point","coordinates":[17.9046,40.5423]},"properties":{"id":"ep_532","subtype":"solar","layer":"energy_plants"}},{"type":"Feature","geometry":{"type":"Point","coordinates":[15.027,40.63]},"properties":{"id":"ep_540","subtype":"solar","layer":"energy_plants"}},{"type":"Feature","geometry":{"type":"Point","coordinates":[12.1995,42.9954]},"properties":{"id":"ep_548","subtype":"gas","layer":"energy_plants"}},{"type":"Feature","geometry":{"type":"Point","coordinates":[12.742,41.543]},"properties":{"id":"ep_557","subtype":"solar","layer":"energy_plants"}},{"type":"Feature","geometry":{"type":"Point","coordinates":[16.2486,40.9277]},"properties":{"id":"ep_565","subtype":"solar","layer":"energy_plants"}},{"type":"Feature","geometry":{"type":"Point","coordinates":[8.7339,46.0702]},"properties":{"id":"ep_573","subtype":"hydro","layer":"energy_plants"}},{"type":"Feature","geometry":{"type":"Point","coordinates":[9.0063,39.1037]},"properties":{"id":"ep_581","subtype":"gas","layer":"energy_plants"}},{"type":"Feature","geometry":{"type":"Point","coordinates":[14.1129,41.1783]},"properties":{"id":"ep_590","subtype":"gas","layer":"energy_plants"}},{"type":"Feature","geometry":{"type":"Point","coordinates":[16.479,38.846]},"properties":{"id":"ep_598","subtype":"solar","layer":"energy_plants"}},{"type":"Feature","geometry":{"type":"Point","coordinates":[14.542,36.814]},"properties":{"id":"ep_606","subtype":"solar","layer":"energy_plants"}},{"type":"Feature","geometry":{"type":"Point","coordinates":[15.1189,40.5758]},"properties":{"id":"ep_614","subtype":"solar","layer":"energy_plants"}},{"type":"Feature","geometry":{"type":"Point","coordinates":[9.1402,40.1272]},"properties":{"id":"ep_623","subtype":"hydro","layer":"energy_plants"}},{"type":"Feature","geometry":{"type":"Point","coordinates":[13.2891,45.817]},"properties":{"id":"ep_631","subtype":"gas","layer":"energy_plants"}},{"type":"Feature","geometry":{"type":"Point","coordinates":[13.3558,43.3244]},"properties":{"id":"ep_639","subtype":"solar","layer":"energy_plants"}},{"type":"Feature","geometry":{"type":"Point","coordinates":[8.4305,44.2755]},"properties":{"id":"ep_648","subtype":"gas","layer":"energy_plants"}},{"type":"Feature","geometry":{"type":"Point","coordinates":[11.806,42.587]},"properties":{"id":"ep_656","subtype":"solar","layer":"energy_plants"}},{"type":"Feature","geometry":{"type":"Point","coordinates":[24.7113,56.7405]},"properties":{"id":"ep_664","subtype":"hydro","layer":"energy_plants"}},{"type":"Feature","geometry":{"type":"Point","coordinates":[24.2475,54.799]},"properties":{"id":"ep_672","subtype":"hydro","layer":"energy_plants"}},{"type":"Feature","geometry":{"type":"Point","coordinates":[6.856,53.4441]},"properties":{"id":"ep_681","subtype":"gas","layer":"energy_plants"}},{"type":"Feature","geometry":{"type":"Point","coordinates":[4.223,52.588]},"properties":{"id":"ep_689","subtype":"wind","layer":"energy_plants"}},{"type":"Feature","geometry":{"type":"Point","coordinates":[6.4184,60.4321]},"properties":{"id":"ep_700","subtype":"hydro","layer":"energy_plants"}},{"type":"Feature","geometry":{"type":"Point","coordinates":[6.1121,60.6566]},"properties":{"id":"ep_710","subtype":"hydro","layer":"energy_plants"}},{"type":"Feature","geometry":{"type":"Point","coordinates":[6.544,58.4653]},"properties":{"id":"ep_720","subtype":"hydro","layer":"energy_plants"}},{"type":"Feature","geometry":{"type":"Point","coordinates":[7.6355,61.1822]},"properties":{"id":"ep_734","subtype":"hydro","layer":"energy_plants"}},{"type":"Feature","geometry":{"type":"Point","coordinates":[6.5673,61.0213]},"properties":{"id":"ep_747","subtype":"hydro","layer":"energy_plants"}},{"type":"Feature","geometry":{"type":"Point","coordinates":[7.0202,58.7683]},"properties":{"id":"ep_758","subtype":"hydro","layer":"energy_plants"}},{"type":"Feature","geometry":{"type":"Point","coordinates":[9.2572,59.5813]},"properties":{"id":"ep_770","subtype":"hydro","layer":"energy_plants"}},{"type":"Feature","geometry":{"type":"Point","coordinates":[8.9308,60.265]},"properties":{"id":"ep_780","subtype":"hydro","layer":"energy_plants"}},{"type":"Feature","geometry":{"type":"Point","coordinates":[22.0294,50.0646]},"properties":{"id":"ep_788","subtype":"gas","layer":"energy_plants"}},{"type":"Feature","geometry":{"type":"Point","coordinates":[16.7069,54.0251]},"properties":{"id":"ep_797","subtype":"hydro","layer":"energy_plants"}},{"type":"Feature","geometry":{"type":"Point","coordinates":[-7.6647,40.0695]},"properties":{"id":"ep_805","subtype":"wind","layer":"energy_plants"}},{"type":"Feature","geometry":{"type":"Point","coordinates":[-8.9386,39.4087]},"properties":{"id":"ep_813","subtype":"wind","layer":"energy_plants"}},{"type":"Feature","geometry":{"type":"Point","coordinates":[23.059,46.6679]},"properties":{"id":"ep_821","subtype":"hydro","layer":"energy_plants"}},{"type":"Feature","geometry":{"type":"Point","coordinates":[27.9235,45.166]},"properties":{"id":"ep_830","subtype":"gas","layer":"energy_plants"}},{"type":"Feature","geometry":{"type":"Point","coordinates":[19.9122,49.0088]},"properties":{"id":"ep_839","subtype":"hydro","layer":"energy_plants"}},{"type":"Feature","geometry":{"type":"Point","coordinates":[15.787,46.448]},"properties":{"id":"ep_847","subtype":"hydro","layer":"energy_plants"}},{"type":"Feature","geometry":{"type":"Point","coordinates":[-5.8164,36.6721]},"properties":{"id":"ep_855","subtype":"gas","layer":"energy_plants"}},{"type":"Feature","geometry":{"type":"Point","coordinates":[-0.9392,37.5732]},"properties":{"id":"ep_864","subtype":"gas","layer":"energy_plants"}},{"type":"Feature","geometry":{"type":"Point","coordinates":[-0.2928,41.2167]},"properties":{"id":"ep_872","subtype":"gas","layer":"energy_plants"}},{"type":"Feature","geometry":{"type":"Point","coordinates":[0.8692,40.9596]},"properties":{"id":"ep_880","subtype":"gas","layer":"energy_plants"}},{"type":"Feature","geometry":{"type":"Point","coordinates":[-0.9317,39.2438]},"properties":{"id":"ep_889","subtype":"hydro","layer":"energy_plants"}},{"type":"Feature","geometry":{"type":"Point","coordinates":[-4.4981,37.9582]},"properties":{"id":"ep_898","subtype":"solar","layer":"energy_plants"}},{"type":"Feature","geometry":{"type":"Point","coordinates":[-3.0539,43.34]},"properties":{"id":"ep_906","subtype":"gas","layer":"energy_plants"}},{"type":"Feature","geometry":{"type":"Point","coordinates":[1.2512,42.637]},"properties":{"id":"ep_914","subtype":"hydro","layer":"energy_plants"}},{"type":"Feature","geometry":{"type":"Point","coordinates":[12.2787,58.2804]},"properties":{"id":"ep_932","subtype":"hydro","layer":"energy_plants"}},{"type":"Feature","geometry":{"type":"Point","coordinates":[13.7312,61.3811]},"properties":{"id":"ep_961","subtype":"hydro","layer":"energy_plants"}},{"type":"Feature","geometry":{"type":"Point","coordinates":[9.5179,46.3339]},"properties":{"id":"ep_973","subtype":"hydro","layer":"energy_plants"}},{"type":"Feature","geometry":{"type":"Point","coordinates":[8.3077,46.6167]},"properties":{"id":"ep_981","subtype":"hydro","layer":"energy_plants"}},{"type":"Feature","geometry":{"type":"Point","coordinates":[8.7786,46.6816]},"properties":{"id":"ep_990","subtype":"hydro","layer":"energy_plants"}},{"type":"Feature","geometry":{"type":"Point","coordinates":[-2.9502,58.0882]},"properties":{"id":"ep_998","subtype":"wind","layer":"energy_plants"}},{"type":"Feature","geometry":{"type":"Point","coordinates":[-7.2487,55.0437]},"properties":{"id":"ep_1006","subtype":"gas","layer":"energy_plants"}},{"type":"Feature","geometry":{"type":"Point","coordinates":[-3.0547,53.2332]},"properties":{"id":"ep_1014","subtype":"gas","layer":"energy_plants"}},{"type":"Feature","geometry":{"type":"Point","coordinates":[-4.4835,57.2618]},"properties":{"id":"ep_1023","subtype":"hydro","layer":"energy_plants"}},{"type":"Feature","geometry":{"type":"Point","coordinates":[-3.6266,53.454]},"properties":{"id":"ep_1031","subtype":"wind","layer":"energy_plants"}},{"type":"Feature","geometry":{"type":"Point","coordinates":[-4.8964,55.7204]},"properties":{"id":"ep_1039","subtype":"nuclear","layer":"energy_plants"}},{"type":"Feature","geometry":{"type":"Point","coordinates":[-1.4384,50.8998]},"properties":{"id":"ep_1047","subtype":"gas","layer":"energy_plants"}},{"type":"Feature","geometry":{"type":"Point","coordinates":[-2.7232,53.3147]},"properties":{"id":"ep_1056","subtype":"gas","layer":"energy_plants"}},{"type":"Feature","geometry":{"type":"Point","coordinates":[-4.7117,56.2512]},"properties":{"id":"ep_1064","subtype":"hydro","layer":"energy_plants"}},{"type":"Feature","geometry":{"type":"Point","coordinates":[-2.4086,55.9679]},"properties":{"id":"ep_1072","subtype":"nuclear","layer":"energy_plants"}},{"type":"Feature","geometry":{"type":"Point","coordinates":[9.35,45.5667]},"properties":{"id":"rm_001","subtype":"semiconductor_fab","layer":"raw_materials"}},{"type":"Feature","geometry":{"type":"Point","coordinates":[15.05,37.45]},"properties":{"id":"rm_002","subtype":"semiconductor_fab","layer":"raw_materials"}},{"type":"Feature","geometry":{"type":"Point","coordinates":[13.73,51.05]},"properties":{"id":"rm_003","subtype":"semiconductor_fab","layer":"raw_materials"}},{"type":"Feature","geometry":{"type":"Point","coordinates":[13.7847,51.1289]},"properties":{"id":"rm_004","subtype":"semiconductor_fab","layer":"raw_materials"}},{"type":"Feature","geometry":{"type":"Point","coordinates":[5.46,51.41]},"properties":{"id":"rm_005","subtype":"component_manufacturing","layer":"raw_materials"}},{"type":"Feature","geometry":{"type":"Point","coordinates":[13.78,46.61]},"properties":{"id":"rm_006","subtype":"semiconductor_fab","layer":"raw_materials"}},{"type":"Feature","geometry":{"type":"Point","coordinates":[-7.6678,41.6872]},"properties":{"id":"rm_008","subtype":"lithium_mine","layer":"raw_materials"}},{"type":"Feature","geometry":{"type":"Point","coordinates":[19.3,44.5333]},"properties":{"id":"rm_010","subtype":"lithium_mine","layer":"raw_materials"}},{"type":"Feature","geometry":{"type":"Point","coordinates":[14.5667,58.1]},"properties":{"id":"rm_015","subtype":"rare_earth_mine","layer":"raw_materials"}},{"type":"Feature","geometry":{"type":"Point","coordinates":[17.27474,50.49838]},"properties":{"id":"rm_031","subtype":"battery_materials","layer":"raw_materials"}},{"type":"Feature","geometry":{"type":"Point","coordinates":[16.88595,51.02055]},"properties":{"id":"rm_032","subtype":"battery_cell","layer":"raw_materials"}},{"type":"Feature","geometry":{"type":"Point","coordinates":[19.16246,47.67462]},"properties":{"id":"rm_035","subtype":"battery_cell","layer":"raw_materials"}},{"type":"Feature","geometry":{"type":"Point","coordinates":[4.33657,51.16466]},"properties":{"id":"rm_038","subtype":"battery_materials","layer":"raw_materials"}}]}