{"type":"FeatureCollection","features":[{"type":"Feature","geometry":{"type":"Point","coordinates":[9.35,45.5667]},"properties":{"id":"rm_001","name":"STMicroelectronics - Agrate Brianza","type":"raw_material","subtype":"semiconductor_fab","operator":"STMicroelectronics","capacity":"Fab 200mm e 300mm (R3)","description_it":"Principale impianto di produzione semiconduttori STMicroelectronics ad Agrate Brianza (Monza e Brianza). Include fab MEMS per accelerometri e giroscopi, e il nuovo fab R3 da 300mm per semiconduttori analogici e di potenza. In partnership con Tower Semiconductor per accelerare la produzione.","country":"IT","city":"Agrate Brianza","site_category":"manufacturing","status":"operational","updated_at":"2026-09-29","confidence":"medium","description_en":"STMicroelectronics Agrate Brianza fab (Italy) — power/analog silicon. European manufacturing context; no curated edge into the AI GPU chain (wrong node class for NVIDIA leading-edge).","employment":{"direct":null,"indirect_est":null,"contractors_est":null,"note_it":"Polo ST in Brianza: lavoro industriale high-tech; headcount sito non fissato qui. Non è sulla filiera EUV→GPU AI.","note_en":"ST Agrate hub: high-tech industrial labor; site headcount not fixed here. Not on the EUV→AI GPU chain.","conditions_tags":["high_skill","shift_work"]}}},{"type":"Feature","geometry":{"type":"Point","coordinates":[15.05,37.45]},"properties":{"id":"rm_002","name":"STMicroelectronics - Catania (Silicon Carbide Campus)","type":"raw_material","subtype":"semiconductor_fab","operator":"STMicroelectronics","capacity":"Fab 200mm SiC (investimento 5,4 miliardi USD)","description_it":"Centro di produzione semiconduttori STMicroelectronics a Catania, Sicilia, in Strada Primosole 50. Ospita due fab, R&D e progettazione. Nel 2024 annunciato il primo impianto integrato al mondo per carburo di silicio (SiC) da 200mm, con 2 miliardi di euro di aiuti di stato italiani. Circa 5.000 dipendenti.","country":"IT","city":"Catania","site_category":"manufacturing","status":"operational","updated_at":"2026-09-29","confidence":"medium","employment":{"direct":5000,"indirect_est":null,"contractors_est":null,"note_it":"ST dichiara circa 5.000 dipendenti sul sito di Catania (fab, R&D, design). Polo europeo di elettronica di potenza/SiC: lavoro industriale specializzato, diverso sia dal campus cloud sia dalla miniera.","conditions_tags":["high_skill","shift_work"],"note_en":"ST declares about 5,000 employees on the Catania site (fab, R&D, design). European power/SiC electronics pole: specialized industrial work, different from both cloud campuses and mines."},"labor_risks":[],"community_impact_it":"Uno dei maggiori datori di lavoro high-tech in Sicilia; il campus SiC rafforza una filiera europea di componenti per alimentazione (anche data center), non di GPU AI.","description_en":"STMicroelectronics Catania Silicon Carbide Campus — European power-electronics pole (~5,000 employees declared on site). Distinct from AI logic foundries; useful labor contrast vs hyperscale campuses.","community_impact_en":"One of Sicily’s largest high-tech employers; the SiC campus reinforces a regional electronics cluster."}},{"type":"Feature","geometry":{"type":"Point","coordinates":[13.73,51.05]},"properties":{"id":"rm_003","name":"ESMC/TSMC Fab - Dresda","type":"raw_material","subtype":"semiconductor_fab","operator":"ESMC (TSMC, Bosch, Infineon, NXP)","capacity":"Fab 300mm (investimento 10-11 miliardi USD)","description_it":"Primo impianto di produzione TSMC in Europa, a Dresda nella regione 'Silicon Saxony'. Joint venture ESMC tra TSMC, Bosch, Infineon e NXP. Costruzione iniziata nell'agosto 2024, approvata nell'ambito dell'EU Chips Act per rafforzare la sovranità digitale europea.","country":"DE","city":"Dresda","site_category":"manufacturing","status":"under_construction","updated_at":"2026-09-29","confidence":"medium","description_en":"ESMC/TSMC Dresden fab (EU Chips Act). Receives ASML tools (likely supplies edge). Future European capacity for advanced nodes — not yet a Quanta/NVIDIA campus offtake.","employment":{"direct":null,"indirect_est":null,"contractors_est":null,"note_it":"Fab in costruzione/avvio in Sassonia: organico di cantiere e successivo esercizio high-skill; cifra unica sito non consolidata qui.","note_en":"Fab under construction/ramp in Saxony: construction then high-skill operating labor; single site figure not consolidated here.","conditions_tags":["high_skill","construction_phase","shift_work"]}}},{"type":"Feature","geometry":{"type":"Point","coordinates":[13.7847,51.1289]},"properties":{"id":"rm_004","name":"GlobalFoundries Fab 1 - Dresda","type":"raw_material","subtype":"semiconductor_fab","operator":"GlobalFoundries","capacity":"Fab 300mm","description_it":"Impianto di produzione semiconduttori GlobalFoundries Fab 1 a Dresda-Klotzsche, Wilschdorfer Landstraße 101. Uno dei siti di produzione di semiconduttori più produttivi e moderni d'Europa. Tecnologie affidabili ad alto volume per applicazioni a lungo ciclo di vita. Non è sulla spina EUV→HBM→CoWoS→GPU AI (nodo foundry legacy/embedded europeo).","country":"DE","city":"Dresda","site_category":"manufacturing","status":"operational","updated_at":"2026-09-29","confidence":"medium","description_en":"GlobalFoundries Fab 1 Dresden — mature/specialty nodes. European semiconductor employment context; not on the curated NVIDIA leading-edge corridor.","employment":{"direct":null,"indirect_est":null,"contractors_est":null,"note_it":"Fab GF Dresda: lavoro industriale semiconduttori; fuori dal corridoio NVIDIA leading-edge curato.","note_en":"GF Dresden fab: semiconductor industrial labor; outside the curated NVIDIA leading-edge corridor.","conditions_tags":["high_skill","shift_work"]}}},{"type":"Feature","geometry":{"type":"Point","coordinates":[5.46,51.41]},"properties":{"id":"rm_005","name":"ASML - Veldhoven (Sede centrale)","type":"raw_material","subtype":"component_manufacturing","operator":"ASML","capacity":"Principale sito R&D e produzione","description_it":"Sede centrale mondiale di ASML a De Run 6501, Veldhoven, Paesi Bassi. Il più grande sito R&D dell'azienda, che ospita più della metà di tutti i dipendenti ASML. Fornitore monopolista di macchine litografiche EUV essenziali per la produzione di chip avanzati. Nuove strutture in costruzione vicino all'aeroporto di Eindhoven (settembre 2026).","country":"NL","city":"Veldhoven","site_category":"manufacturing","status":"operational","updated_at":"2026-09-29","confidence":"medium","employment":{"direct":null,"indirect_est":null,"contractors_est":null,"note_it":"ASML: ~22.800 FTE medi nei Paesi Bassi e ~44.200 globali (2025). Veldhoven è HQ e principale campus R&D/produzione (storicamente oltre metà dei dipendenti ASML). Headcount esclusivo De Run non pubblicato come cifra unica: usare i totali NL come ordine di grandezza del polo Brainport.","conditions_tags":["high_skill","shift_work"],"note_en":"ASML: ~22,800 average FTEs in the Netherlands and ~44,200 globally (2025). Veldhoven is HQ and main R&D/production campus (historically over half of ASML staff). Exclusive De Run headcount not published as a single figure: use NL totals as the Brainport order of magnitude."},"labor_risks":[],"community_impact_it":"Pressione abitativa e infrastrutturale nella regione Brainport Eindhoven; lavoro ad altissima specializzazione, salari elevati, dipendenza geografica europea dalla litografia EUV.","sources":[{"title":"ASML — employee information (NL / worldwide FTE)","url":"https://www.sec.gov/Archives/edgar/data/937966/000162828026011378/R29.htm","accessed_at":"2026-09-27","note":"NL avg payroll FTE 2025 ~22.801; worldwide ~44.209"},{"title":"ASML — annual report / employment","url":"https://www.asml.com/en/investors","accessed_at":"2026-09-29"}],"description_en":"ASML headquarters and main R&D/production campus in Veldhoven (Brainport Eindhoven). Builds the EUV lithography tools without which leading-edge AI GPU nodes at TSMC cannot be printed. High-skill industrial work at planetary bottleneck scale — not a mine, not a data center.","community_impact_en":"Housing and infrastructure pressure in the Brainport Eindhoven region; highly paid specialized work beside local cost-of-living stress."}},{"type":"Feature","geometry":{"type":"Point","coordinates":[13.78,46.61]},"properties":{"id":"rm_006","name":"Infineon - Villach","type":"raw_material","subtype":"semiconductor_fab","operator":"Infineon Technologies Austria AG","capacity":"Fab 300mm (investimento 1,6 miliardi EUR)","description_it":"Fabbrica di chip Infineon a Siemensstraße 2, Villach, Austria. Impianto completamente automatizzato per wafer sottili da 300mm, inaugurato nel settembre 2021. Uno dei più grandi impianti di microelettronica in Europa, specializzato in elettronica di potenza. Power/automotive: fuori dalla spina GPU AI curata (HBM/CoWoS/NVIDIA–AMD).","country":"AT","city":"Villach","site_category":"manufacturing","status":"operational","updated_at":"2026-09-29","confidence":"medium","employment":{"direct":null,"indirect_est":null,"contractors_est":null,"note_it":"Fab 300mm Infineon a Villach (inaugurata 2021): lavoro automatico ad alta specializzazione tipico della microelettronica europea di potenza. Headcount sito non fissato qui senza fonte primaria recente.","conditions_tags":["high_skill","shift_work"],"note_en":"Infineon 300mm fab at Villach (opened 2021): high-skill automated work typical of European power microelectronics. Site headcount not fixed here without a recent primary source."},"labor_risks":[],"community_impact_it":"Investimento rilevante in Carinzia; occupazione qualificata locale nella filiera power semiconductors che arriva ai sistemi di alimentazione dei campus.","description_en":"Infineon Villach 300mm fab (opened 2021) — European power semiconductors. High-skill automated fab labor; not AI GPU leading-edge.","community_impact_en":"Significant Carinthia investment; local skilled employment in the power semiconductor chain."}},{"type":"Feature","geometry":{"type":"Point","coordinates":[121.014,24.773]},"properties":{"id":"rm_007","name":"TSMC - Hsinchu Science Park (Sede centrale e Fab 12A)","type":"raw_material","subtype":"semiconductor_fab","operator":"Taiwan Semiconductor Manufacturing Company","capacity":"Produzione semiconduttori avanzati","description_it":"Sede centrale e impianto Fab 12A di TSMC a Hsinchu Science Park, Taiwan. Il più grande produttore di semiconduttori al mondo per conto terzi, produce i chip più avanzati utilizzati nei processori AI e nei server dei data center globali.","country":"TW","city":"Hsinchu","site_category":"manufacturing","status":"operational","updated_at":"2026-09-29","confidence":"medium","employment":{"direct":null,"indirect_est":null,"contractors_est":null,"note_it":"TSMC: 83.825 dipendenti a fine 2024 (worldwide), di cui una quota maggioritaria a Taiwan tra fab e HQ. Hsinchu ospita sede e Fab 12A: non attribuire l’intero headcount al solo Science Park. Forza lavoro mista tecnici di fab (turni 24/7) e professionisti R&D.","conditions_tags":["high_skill","shift_work"],"note_en":"TSMC: 83,825 employees at end-2024 (worldwide), majority in Taiwan across fabs and HQ. Hsinchu hosts HQ and Fab 12A: do not assign the full headcount to the Science Park alone. Mixed fab technicians (24/7 shifts) and R&D professionals."},"labor_risks":["water_stress"],"community_impact_it":"Hsinchu Science Park è un ecosistema nazionale: il lavoro della fonderia AI è concentrato, specializzato e geopoliticamente sensibile. A valle, ODM e campus cloud assorbono quel silicio con organici molto diversi.","sources":[{"title":"TSMC 2024 Annual Report — workforce","url":"https://investor.tsmc.com/static/annualReports/2024/english/ebook/files/basic-html/page116.html","accessed_at":"2026-09-27","note":"83.825 employees worldwide end-2024"},{"title":"TSMC — annual report 2024 employment","url":"https://investor.tsmc.com/","accessed_at":"2026-09-29"}],"description_en":"TSMC headquarters and Fab 12A in Hsinchu Science Park, Taiwan — primary foundry for NVIDIA AI accelerators. 24/7 fab shifts plus R&D professionals. Do not attribute worldwide headcount to this single park.","community_impact_en":"Hsinchu Science Park is a national ecosystem: AI foundry labor is concentrated, highly skilled, and water/power intensive for the island grid."}},{"type":"Feature","geometry":{"type":"Point","coordinates":[-7.6678,41.6872]},"properties":{"id":"rm_008","name":"Mina do Barroso - Progetto Litio","type":"raw_material","subtype":"lithium_mine","operator":"Savannah Resources","capacity":"Riserva di 20 milioni di tonnellate","description_it":"Progetto minerario di litio a Boticas, nel nord del Portogallo. Studio di fattibilità definitivo completato nel luglio 2026. Comprende due concessioni minerarie: C-100 Mina do Barroso e C-190 Canedo-Covas. Progetto controverso con opposizione locale e questioni ambientali in corso.","country":"PT","city":"Boticas","site_category":"extraction","status":"planned","updated_at":"2026-09-29","confidence":"medium","description_en":"Lithium mining project at Boticas, northern Portugal (Mina do Barroso). Definitive feasibility study completed July 2026; concessions C-100 and C-190. Contested locally on environmental grounds. No curated offtake edge yet — context pin only.","community_impact_it":"Forte opposizione locale e questioni ambientali: conflitto d’uso del suolo e paesaggio rispetto a un corridoio litio EU ancora senza arco documentato verso raffineria.","community_impact_en":"Strong local opposition and environmental issues: land-use and landscape conflict for an EU lithium corridor still without a documented edge to a refinery.","labor_risks":["land_use_conflict"],"employment":{"direct":null,"indirect_est":null,"contractors_est":null,"note_it":"Progetto: organico operativo non ancora fissato. In fase di sviluppo il lavoro è cantiere/consulenza, non estrazione a regime.","note_en":"Project stage: operating headcount not fixed. Development-phase work is construction/consulting, not steady-state mining.","conditions_tags":["construction_phase"]},"sources":[{"title":"Savannah Resources — Mina do Barroso","url":"https://www.savannahresources.com/","accessed_at":"2026-09-29"}]}},{"type":"Feature","geometry":{"type":"Point","coordinates":[23.7067,63.5544]},"properties":{"id":"rm_009","name":"Keliber - Progetto Litio Kaustinen","type":"raw_material","subtype":"lithium_mine","operator":"Sibanye-Stillwater","capacity":"Investimento 588 milioni EUR","description_it":"Progetto litio avanzato a Kaustinen e Kokkola, nella regione dell'Ostrobotnia Centrale in Finlandia. Mira a diventare il primo produttore europeo di litio per batterie. Depositi su oltre 500 km², con raffineria nel Parco Industriale di Kokkola. Finanziamento UE di 150 milioni di euro (agosto 2024).","country":"FI","city":"Kaustinen","site_category":"extraction","status":"under_construction","updated_at":"2026-09-29","confidence":"medium","labor_risks":["land_use_conflict"],"employment":{"direct":null,"indirect_est":null,"contractors_est":null,"note_it":"Progetto litio finlandese (Keliber): organico a regime non curato; contesto EU battery chain.","note_en":"Finnish lithium project (Keliber): steady-state headcount not curated; EU battery-chain context.","conditions_tags":["construction_phase"]},"community_impact_it":"Progetto litio finlandese (Keliber): organico a regime non curato; contesto EU battery chain.","community_impact_en":"Finnish lithium project (Keliber): steady-state headcount not curated; EU battery-chain context."}},{"type":"Feature","geometry":{"type":"Point","coordinates":[19.3,44.5333]},"properties":{"id":"rm_010","name":"Jadar - Progetto Litio-Boro","type":"raw_material","subtype":"lithium_mine","operator":"Rio Tinto","capacity":"N/D (progetto sospeso)","description_it":"Giacimento di litio e boro nella valle di Jadar, Serbia occidentale, vicino a Loznica. Progetto sospeso da Rio Tinto a settembre 2024 a causa della forte opposizione locale degli agricoltori serbi. Destinato alla produzione di carbonato di litio per batterie EV europee. L'investimento più controverso nella storia recente della Serbia.","country":"RS","city":"Loznica","site_category":"extraction","status":"planned","updated_at":"2026-09-29","confidence":"medium","labor_risks":["land_use_conflict"],"employment":{"direct":null,"indirect_est":null,"contractors_est":null,"note_it":"Jadar (Rio Tinto) in Serbia: progetto contestato e sospeso/ripreso a più riprese; forte opposizione locale.","note_en":"Jadar (Rio Tinto) in Serbia: contested project repeatedly paused/restarted; strong local opposition.","conditions_tags":["construction_phase"]},"community_impact_it":"Jadar (Rio Tinto) in Serbia: progetto contestato e sospeso/ripreso a più riprese; forte opposizione locale.","community_impact_en":"Jadar (Rio Tinto) in Serbia: contested project repeatedly paused/restarted; strong local opposition."}},{"type":"Feature","geometry":{"type":"Point","coordinates":[116.0633,-33.8564]},"properties":{"id":"rm_011","name":"Greenbushes - Miniera di Litio","type":"raw_material","subtype":"lithium_mine","operator":"Talison Lithium (Albemarle 49%)","capacity":"1,95 milioni di tonnellate/anno di spodumene","description_it":"La più grande miniera di litio hard-rock al mondo, situata 250 km a sud di Perth in Australia Occidentale. Fornisce circa il 20% dell'approvvigionamento mondiale di litio hard-rock. Operativa da oltre 30 anni, produce anche tantalio e stagno.","country":"AU","city":"Greenbushes","site_category":"extraction","status":"operational","updated_at":"2026-09-29","confidence":"medium","description_en":"Greenbushes hard-rock lithium mine (Western Australia), operated by Talison — jointly held by Tianqi Lithium Energy Australia (Tianqi–IGO) and Albemarle. Highest-grade hard-rock lithium reserve globally; offtake splits feed Kwinana (TLEA) and Albemarle’s Kemerton chain.","community_impact_it":"Distretto minerario di lunga durata in WA; intensità di suolo e acqua tipica dello spodumene hard-rock. Lavoro industriale salariato, non artigianale.","community_impact_en":"Long-running WA mining district; land and water intensity typical of hard-rock spodumene. Industrial wage labor, not artisanal.","labor_risks":["water_stress"],"employment":{"direct":null,"indirect_est":null,"contractors_est":null,"note_it":"Operazione industriale Talison/Greenbushes: headcount sito non consolidato qui; lavoro minerario salariato a turni in Australia Occidentale.","note_en":"Industrial Talison/Greenbushes operation: site headcount not consolidated here; salaried shift mining labor in Western Australia.","conditions_tags":["shift_work","high_skill"]},"sources":[{"title":"IGO — Greenbushes / TLEA lithium JV","url":"https://www.igo.com.au/site/operations/lithium-holdco-joint-venture","accessed_at":"2026-09-29"}]}},{"type":"Feature","geometry":{"type":"Point","coordinates":[-68.25667,-23.38362]},"properties":{"id":"rm_012","name":"Salar de Atacama - Estrazione Litio","type":"raw_material","subtype":"lithium_mine","operator":"SQM / Albemarle","capacity":"36% quota mercato globale combinata (2022)","description_it":"Il più grande salar del Cile, 55 km a sud di San Pedro de Atacama. SQM (20% mercato globale) e Albemarle (16%) estraggono litio dalla salamoia. La più grande operazione di estrazione di litio visibile da satellite al mondo. Prima operazione mineraria di litio a ottenere la certificazione IRMA 75 (settembre 2023). Ramo brine distinto dallo spodumene Greenbushes→Kwinana. Arco verso raffineria Albemarle La Negra (rm_033).","country":"CL","city":"San Pedro de Atacama","site_category":"extraction","status":"operational","updated_at":"2026-09-29","confidence":"medium","description_en":"Salar de Atacama brine lithium extraction (Chile): SQM and Albemarle. Largest visible lithium brine operation from orbit. Indigenous and water-stress conflicts documented; no curated edge to a named cathode plant in this dataset yet. Brine path distinct from Greenbushes→Kwinana spodumene. Edge to Albemarle La Negra refinery (rm_033).","community_impact_it":"Conflitti con comunità indigene e stress idrico sul salar: l’estrazione da salamoia compete con usi locali dell’acqua. Contesto, senza arco verso un catodo nominato.","community_impact_en":"Conflicts with Indigenous communities and water stress on the salar: brine extraction competes with local water uses. Context pin, no edge to a named cathode plant.","labor_risks":["water_stress","land_use_conflict"],"employment":{"direct":null,"indirect_est":null,"contractors_est":null,"note_it":"Operazioni SQM/Albemarle: lavoro industriale sul salar; organico sito non fissato qui senza fonte primaria recente.","note_en":"SQM/Albemarle operations: industrial labor on the salar; site headcount not fixed here without a recent primary source.","conditions_tags":["shift_work"]}}},{"type":"Feature","geometry":{"type":"Point","coordinates":[25.8082,-10.7858]},"properties":{"id":"rm_013","name":"Mutanda - Miniera di Cobalto","type":"raw_material","subtype":"cobalt_mine","operator":"Glencore (95%)","capacity":"27.300 tonnellate cobalto/anno (2018)","description_it":"Il più grande produttore di cobalto al mondo, situato nella provincia di Lualaba, RDC, circa 40 km a est di Kolwezi. Copre circa il 20% dell'approvvigionamento globale di cobalto. Produce anche 199.000 tonnellate di rame all'anno. Oltre 3.500 dipendenti, il 96% congolesi.","country":"CD","city":"Kolwezi","status":"operational","site_category":"extraction","opened_year":null,"updated_at":"2026-09-29","confidence":"medium","impact":{"capacity_mw":null,"power_draw_mw_est":null,"pue":null,"water_use_m3_year":null,"land_ha":null,"co2_t_year_est":null,"energy_mix_note_it":"Produzione dichiarata ~27.300 t cobalto/anno (2018); alto impatto territoriale e idrico tipico dell'estrazione."},"employment":{"direct":3500,"indirect_est":null,"contractors_est":null,"note_it":"Oltre 3.500 dipendenti dichiarati, ~96% congolesi (dato storico da fonti aziendali/secondarie). Lavoro industriale salariato Glencore: distinguere nettamente dalle miniere artigianali vicine, dove rischi e condizioni sono altri.","conditions_tags":["shift_work","conflict_zone"],"note_en":"Over 3,500 declared employees, ~96% Congolese (historical company/secondary figures). Industrial Glencore wage labor: distinguish sharply from nearby artisanal mines, where risks and conditions differ."},"community_impact_it":"Nodo critico cobalto in Lualaba: esternalità sociali/ambientali, dipendenza economica locale, contiguità con estrazione artigianale. A valle della filiera (batterie/UPS) il lavoro cambia di registro — qui è dove il cloud ha ancora mani e rischio.","labor_risks":["conflict_zone","artisanal_mining_nearby"],"sources":[{"title":"Glencore — Mutanda","accessed_at":"2026-09-16","note":"Occupazione e output produttivo da fonti aziendali/giornalistiche secondarie"},{"title":"Glencore — Mutanda (occupazione / output)","accessed_at":"2026-09-27","note":"~3.500 dipendenti; ~96% congolesi (dato storico)"},{"title":"Amnesty International — cobalt mining DRC","url":"https://www.amnesty.org/en/latest/news/2016/01/child-labour-behind-smart-phone-and-electric-car-batteries/","accessed_at":"2026-09-29","note":"Context on artisanal cobalt risks in the same province geography"}],"description_en":"Glencore Mutanda cobalt mine, Lualaba (DRC). Industrial wage labor (~3,500 declared, ~96% Congolese in historical company figures) beside nearby artisanal mining with different risks. Critical cobalt node for battery materials including Umicore’s European refining chain.","community_impact_en":"Critical cobalt node in Lualaba: social/environmental externalities, economic dependence, and the industrial/artisanal labor split."}},{"type":"Feature","geometry":{"type":"Point","coordinates":[25.3855,-10.7148]},"properties":{"id":"rm_014","name":"Kamoto - Miniera Rame-Cobalto","type":"raw_material","subtype":"cobalt_mine","operator":"Katanga Mining / Glencore","capacity":"270.000 tonnellate rame (riserve 2020)","description_it":"Miniera di rame e cobalto a cielo aperto nella provincia di Lualaba, RDC, nella regione di Kolwezi. Gestita da Kamoto Copper Company (KCC), joint venture associata a Glencore. La produzione di cobalto è stata sospesa nel novembre 2018 per contaminazione.","country":"CD","city":"Kolwezi","site_category":"extraction","status":"operational","updated_at":"2026-09-29","confidence":"medium","employment":{"direct":null,"indirect_est":null,"contractors_est":null,"note_it":"KCC/Glencore a Kolwezi: grande operazione rame-cobalto con forza lavoro industriale locale. Headcount sito non consolidato qui in modo affidabile; stesso contesto geopolitico di Mutanda (provincia di Lualaba).","conditions_tags":["shift_work","conflict_zone"],"note_en":"KCC/Glencore at Kolwezi: large copper-cobalt operation with local industrial workforce. Site headcount not consolidated here reliably; same geopolitical context as Mutanda (Lualaba province)."},"labor_risks":["conflict_zone","artisanal_mining_nearby","chemical_exposure"],"community_impact_it":"Stessa geografia estrattiva di Mutanda: lavoro salariato industriale accanto a filiere artigianali e tensioni su suolo, acqua e salute. Sospensione storica della produzione cobalto per contaminazione (2018) segnala rischi ambientali sul lavoro.","description_en":"Kamoto Copper Company (KCC/Glencore) copper-cobalt operation at Kolwezi, Lualaba. Same extractive geography as Mutanda; industrial local workforce. Feeds Glencore–Umicore cobalt hydroxide offtake toward Kokkola.","community_impact_en":"Same extractive geography as Mutanda: industrial wage labor beside artisanal frontiers and chemical exposure risk."}},{"type":"Feature","geometry":{"type":"Point","coordinates":[14.5667,58.1]},"properties":{"id":"rm_015","name":"Norra Kärr - Deposito Terre Rare","type":"raw_material","subtype":"rare_earth_mine","operator":"Leading Edge Materials","capacity":"Concessione mineraria 25 anni (luglio 2026)","description_it":"Uno dei più ricchi depositi di terre rare in Europa, situato nel sud della Svezia, 11 km a nord-est di Gränna, nella contea di Jönköping, vicino al lago Vättern. Contiene concentrazioni significative di disprosio, terbio e ittrio. Leading Edge Materials ha ottenuto una concessione mineraria di 25 anni nel luglio 2026, posizionandolo come la prima miniera europea di terre rare pesanti.","country":"SE","city":"Gränna","site_category":"extraction","status":"planned","updated_at":"2026-09-29","confidence":"medium","labor_risks":["land_use_conflict"],"employment":{"direct":null,"indirect_est":null,"contractors_est":null,"note_it":"Norra Kärr (Svezia): deposito terre rare in fase di progetto; conflitto ambientale/locale tipico dei REE europei.","note_en":"Norra Kärr (Sweden): rare-earth deposit at project stage; typical EU REE environmental/local conflict.","conditions_tags":["construction_phase"]},"community_impact_it":"Norra Kärr (Svezia): deposito terre rare in fase di progetto; conflitto ambientale/locale tipico dei REE europei.","community_impact_en":"Norra Kärr (Sweden): rare-earth deposit at project stage; typical EU REE environmental/local conflict."}},{"type":"Feature","geometry":{"type":"Point","coordinates":[-46.0486,60.9122]},"properties":{"id":"rm_016","name":"Kvanefjeld (Kuannersuit) - Deposito Terre Rare","type":"raw_material","subtype":"rare_earth_mine","operator":"Energy Transition Minerals","capacity":"Seconda più grande fonte mondiale di terre rare (potenziale)","description_it":"Deposito di terre rare, uranio e zinco nel sud della Groenlandia, vicino a Narsaq. Sarebbe la seconda più grande fonte mondiale di terre rare e la quinta più grande miniera di uranio. Dopo 13 anni di lavoro, le autorità groenlandesi hanno rifiutato la licenza mineraria nel giugno 2026. Progetto strategico per l'indipendenza europea dalle terre rare cinesi.","country":"GL","city":"Narsaq","site_category":"extraction","status":"planned","updated_at":"2026-09-29","confidence":"medium","labor_risks":["land_use_conflict"],"employment":{"direct":null,"indirect_est":null,"contractors_est":null,"note_it":"Kvanefjeld/Kuannersuit (Groenlandia): progetto REE/uranio politicamente bloccato; nessun arco.","note_en":"Kvanefjeld/Kuannersuit (Greenland): politically blocked REE/uranium project; no edge.","conditions_tags":[]},"community_impact_it":"Kvanefjeld/Kuannersuit (Groenlandia): progetto REE/uranio politicamente bloccato; nessun arco.","community_impact_en":"Kvanefjeld/Kuannersuit (Greenland): politically blocked REE/uranium project; no edge."}},{"type":"Feature","geometry":{"type":"Point","coordinates":[109.9736,41.7828]},"properties":{"id":"rm_017","name":"Bayan Obo - Miniera Terre Rare","type":"raw_material","subtype":"rare_earth_mine","operator":"China Northern Rare Earth Group","capacity":"Oltre 80% delle riserve cinesi di terre rare","description_it":"Il più grande deposito e miniera di terre rare al mondo, situato nel distretto minerario di Bayan Obo, circa 150 km a nord di Baotou, Mongolia Interna, Cina. Area mineraria di circa 48 km². Baotou è conosciuta come la 'capitale delle terre rare della Cina'. Scoperto negli anni '30, domina la produzione globale di terre rare.","country":"CN","city":"Baotou","site_category":"extraction","status":"operational","updated_at":"2026-09-29","confidence":"medium","description_en":"Bayan Obo rare-earth mining district, Inner Mongolia (China) — dominant global REE source feeding magnets and electronics downstream. Extreme environmental legacy around Baotou. Context pin: no site-to-site magnet offtake curated yet.","community_impact_it":"Eredità ambientale grave intorno a Baotou (tailings, contaminazione). Dominio cinese sulle terre rare: lavoro industriale in un distretto ad alto impatto sanitario/ambientale.","community_impact_en":"Severe environmental legacy around Baotou (tailings, contamination). Chinese REE dominance: industrial labor in a high health/environment-impact district.","labor_risks":["chemical_exposure","land_use_conflict"],"employment":{"direct":null,"indirect_est":null,"contractors_est":null,"note_it":"Distretto minerario di scala nazionale: headcount non attribuibile in modo affidabile a un singolo pin senza fonte primaria.","note_en":"National-scale mining district: headcount not reliably attributable to a single pin without a primary source.","conditions_tags":["shift_work"]}}},{"type":"Feature","geometry":{"type":"Point","coordinates":[-121.9689,37.3707]},"properties":{"id":"rm_018","name":"NVIDIA - Santa Clara (HQ / chip design)","type":"raw_material","subtype":"chip_design","operator":"NVIDIA Corporation","capacity":"Design fabless (GPU / accelerator AI)","description_it":"Sede e cuore del design fabless di NVIDIA a Santa Clara, California. Progetta i GPU e gli accelerator AI prodotti in fonderia da TSMC e usati nei cluster di training e inference degli hyperscaler. Anello mancante tipico nelle mappe di data center: senza il design fabless la filiera silicio→cloud resta incompleta.","country":"US","city":"Santa Clara","status":"operational","site_category":"manufacturing","opened_year":1993,"updated_at":"2026-09-29","confidence":"high","sources":[{"title":"NVIDIA — corporate / AI platforms","url":"https://www.nvidia.com/","accessed_at":"2026-09-27"},{"title":"TSMC and NVIDIA Reaffirm Partnership","url":"https://pr.tsmc.com/english/news/1236","accessed_at":"2026-09-27"}],"employment":{"direct":null,"indirect_est":null,"contractors_est":null,"note_it":"NVIDIA è fabless: a Santa Clara il lavoro è design, software e corporate — non fabbricazione wafer né assemblaggio rack. I posti «pesanti» della filiera GPU stanno in fonderia (TSMC) e ODM (Quanta/Foxconn). Non confondere HQ con fabbrica.","conditions_tags":["high_skill"],"note_en":"NVIDIA is fabless: Santa Clara labor is design, software and corporate — not wafer fab or rack assembly. The «heavy» jobs in the GPU chain sit in foundry (TSMC) and ODM (Quanta/Foxconn). Do not confuse HQ with a factory."},"labor_risks":[],"community_impact_it":"Polo design nella Silicon Valley: alto reddito, bassa intensità di suolo industriale rispetto a una fab 300mm o a una miniera. Il «corpo» del chip sta altrove.","description_en":"NVIDIA Santa Clara HQ / fabless chip design. Work here is design, software and corporate — not wafer fabrication or rack assembly. Heavy jobs in the GPU chain sit at the foundry (TSMC) and ODMs (Quanta/Foxconn).","community_impact_en":"Silicon Valley design hub: high income, low industrial land intensity compared with fabs and mines upstream."}},{"type":"Feature","geometry":{"type":"Point","coordinates":[23.1308,63.8381]},"properties":{"id":"rm_019","name":"Umicore - Kokkola (raffineria Co + pCAM)","type":"raw_material","subtype":"battery_materials","operator":"Umicore","capacity":"Raffineria Co + pCAM; ~400 addetti dichiarati","description_it":"Impianto Umicore a Kokkola (Finlandia): maggiore raffineria di cobalto fuori dalla Cina e grande sito europeo di precursori catodici (pCAM / NMC). Riceve idrossido di cobalto Glencore da Mutanda e Kamoto (conn_016/017); alimenta la produzione CAM di Nysa (rm_031). Chimica NMC: cobalto + nichel + manganese (Ni non pinato a parte senza contratto miniera→sito pubblico).","country":"FI","city":"Kokkola","status":"operational","site_category":"manufacturing","opened_year":null,"updated_at":"2026-09-29","confidence":"high","community_impact_it":"Polo chimico finlandese sulla filiera critica del cobalto; pressione su tracciabilità ESG della catena RDC→Europa. Occupazione locale stabile e qualificata, di due ordini di grandezza inferiore a Mutanda ma con profilo di rischio diverso (impianto, non fossa).","sources":[{"title":"Umicore × Glencore — cobalt supply partnership","url":"https://www.umicore.com/en/media/newsroom/umicore-and-glencore-develop-partnership-for-sustainable-cobalt-supply-in-battery-materials/","accessed_at":"2026-09-27"},{"title":"Umicore Finland — sito Kokkola","url":"https://www.umicore.fi/en/our-site/start/","accessed_at":"2026-09-27","note":"400 people; largest cobalt refining plant outside China"}],"employment":{"direct":400,"indirect_est":null,"contractors_est":null,"note_it":"Umicore dichiara ~400 persone a Kokkola (raffineria cobalto / battery precursors), sito operativo dal 1968. Lavoro chimico specializzato in Europa: anello intermedio tra miniera RDC e catodi batterie.","conditions_tags":["high_skill","shift_work"],"note_en":"Umicore declares ~400 people at Kokkola (cobalt refinery / battery precursors), operating since 1968. Specialized chemical work in Europe: middle link between DRC mine and battery cathodes."},"labor_risks":["chemical_exposure"],"description_en":"Umicore plant at Kokkola (Finland): largest cobalt refinery outside China and a major European cathode-precursor (pCAM / NMC) site. Receives Glencore cobalt hydroxide from Mutanda and Kamoto (conn_016/017); feeds CAM production at Nysa (rm_031). NMC chemistry: cobalt + nickel + manganese (Ni not separately pinned without a public mine→site contract).","community_impact_en":"Finnish chemical hub on the critical cobalt chain; pressure for due diligence and traceability toward African extraction."}},{"type":"Feature","geometry":{"type":"Point","coordinates":[121.375222,25.049944]},"properties":{"id":"rm_020","name":"Quanta Computer - Taoyuan (ODM server AI)","type":"raw_material","subtype":"server_assembly","operator":"Quanta Computer / QCT","capacity":"Assemblaggio server / rack AI (ODM)","description_it":"Sede e polo produttivo Quanta a Guishan, Taoyuan (Taiwan). ODM leader per server hyperscale e rack AI basati su GPU NVIDIA (tra cui configurazioni NVL). Fornitore chiave di Meta e tra i principali assembler per Google e altri CSP: è l'anello fisico tra il chip progettato/fabbricato e il rack che finisce nel data center.","country":"TW","city":"Taoyuan","status":"operational","site_category":"manufacturing","opened_year":1988,"updated_at":"2026-09-29","confidence":"high","sources":[{"title":"Quanta Computer — company information","url":"https://www.quantatw.com/quanta/english/about/information.aspx","accessed_at":"2026-09-27"},{"title":"TrendForce — Quanta/Wiwynn e committenza Meta/Microsoft AI","url":"https://www.trendforce.com/news/2025/05/05/news-microsoft-meta-ramp-up-ai-spend-lifting-nvidias-taiwanese-odm-partners-foxonn-quanta-and-wiwynn/","accessed_at":"2026-09-27"}],"employment":{"direct":null,"indirect_est":null,"contractors_est":null,"note_it":"Quanta/QCT: ODM con decine di migliaia di dipendenti nel gruppo (stime di mercato ~15–17k a Taiwan e maggioranza della forza lavoro in Cina). Taoyuan è HQ + manufacturing city: assemblaggio server/rack AI a turni, intensità di manodopera molto superiore a un data center europeo a parità di «valore» digitale a valle.","conditions_tags":["shift_work","high_skill","migrant_labor","precarious_contracts"],"note_en":"Quanta/QCT: ODM with tens of thousands of group employees (market estimates ~15–17k in Taiwan; majority of workforce in China). Taoyuan is HQ + manufacturing city: AI server/rack assembly on shifts, labor intensity much higher than a European data center at equal downstream digital «value»."},"labor_risks":["precarious_contracts"],"community_impact_it":"Assemblaggio electronics in Taiwan/Cina: il lavoro che materializza i rack NVIDIA prima che arrivino a Hamina o Luleå. Condizioni e densità occupazionale qui spiegano perché il cloud «ha un corpo» anche fuori dall’Europa.","description_en":"Quanta Computer / QCT Taoyuan — ODM HQ and manufacturing city assembling AI servers and racks that integrate NVIDIA accelerators for hyperscalers. Shift-work intensity far above a European data center for comparable digital «value» downstream.","community_impact_en":"Electronics assembly in Taiwan/China: the labor that materializes NVIDIA racks before they reach hyperscale campuses."}},{"type":"Feature","geometry":{"type":"Point","coordinates":[115.769,-32.243]},"properties":{"id":"rm_024","name":"Kwinana — Raffineria idrossido di litio (TLEA)","type":"raw_material","subtype":"battery_materials","operator":"Tianqi Lithium Energy Australia (Tianqi–IGO)","capacity":"Idrossido di litio battery-grade (raffineria AU)","description_it":"Raffineria di idrossido di litio a Kwinana (WA), di proprietà TLEA (JV Tianqi–IGO). È l’anello a valle di Greenbushes: lo spodumene chimico dalla miniera alimenta questo impianto in catena verticalmente integrata (~200 km a nord della miniera). Clienti dichiarati: cell maker in Corea del Sud ed Europa.","description_en":"Lithium hydroxide refinery at Kwinana (WA), owned by TLEA (Tianqi–IGO JV). Downstream of Greenbushes: chemical-grade spodumene from the mine feeds this vertically integrated plant (~200 km north of the mine). Declared customers include cell makers in South Korea and Europe.","country":"AU","city":"Kwinana","status":"operational","site_category":"manufacturing","opened_year":null,"updated_at":"2026-09-29","confidence":"high","employment":{"direct":null,"indirect_est":null,"contractors_est":null,"note_it":"Impianto chimico automatizzato: organico contenuto rispetto ai MW equivalenti a valle; lavoro industriale specializzato WA.","note_en":"Automated chemical plant: lean headcount relative to downstream equivalent MW; specialized industrial WA labor.","conditions_tags":["high_skill","shift_work"]},"labor_risks":["chemical_exposure"],"community_impact_it":"Polo chimico nel corridoio industriale di Kwinana; pressione ESG e tracciabilità sulla filiera litio AU.","community_impact_en":"Chemical hub in the Kwinana industrial corridor; ESG and traceability pressure on the Australian lithium chain.","sources":[{"title":"IGO — Kwinana Lithium Hydroxide Refinery / TLEA","url":"https://www.igo.com.au/site/operations/lithium-holdco-joint-venture","accessed_at":"2026-09-29"}]}},{"type":"Feature","geometry":{"type":"Point","coordinates":[36.8219,-1.2921]},"properties":{"id":"rm_021","name":"Sama — hub labeling / moderazione (Nairobi)","type":"raw_material","subtype":"ai_data_work","operator":"Sama (Samasource)","capacity":"Storicamente >3.000 worker KE; apr 2026: ~1.108 layoff dopo fine engagement Meta","description_it":"Hub keniano di Sama (Bay Area) per data labeling e, in passato, moderazione contenuti per clienti Silicon Valley (OpenAI, Meta — TIME/CBS). Contratto OpenAI chiuso anticipatamente nel 2022; uscita da NLP/moderazione sensibile ~mar 2023. Restava labeling/AI annotation per Meta fino alla fine di un «major engagement» Nairobi (apr 2026), con ~1.108 layoff dichiarati. Pin sul nodo Nairobi: lavoro cognitivo outsourcato, non una fabbrica. Status ancora operational come azienda, ma il corridoio documentato è in gran parte storico.","description_en":"Kenyan Sama (Bay Area) hub for data labeling and, historically, content moderation for Silicon Valley clients (OpenAI, Meta — TIME/CBS). OpenAI contract ended early in 2022; exit from sensitive NLP/moderation ~Mar 2023. AI annotation for Meta continued until Meta ended a major Nairobi engagement (Apr 2026), with ~1,108 declared layoffs. Nairobi pin: outsourced cognitive labor, not a factory. Still operational as a company, but the documented corridor is largely historical.","country":"KE","city":"Nairobi","status":"operational","site_category":"extraction","opened_year":null,"updated_at":"2026-09-29","confidence":"high","employment":{"direct":null,"indirect_est":null,"contractors_est":1108,"note_it":"CBS: >3.000 worker KE al picco. Pay band OpenAI ~1,32–2 $/ora (storico). Apr 2026: Sama dichiara layoff notice per 1.108 staff dopo fine engagement Meta a Nairobi.","note_en":"CBS: >3,000 KE workers at peak. OpenAI pay band ~$1.32–2/hour (historical). Apr 2026: Sama declares layoff notice for 1,108 staff after Meta ended the Nairobi engagement.","conditions_tags":["outsourced_gig","precarious_contracts","psychological_harm"]},"labor_risks":["psychological_harm","precarious_contracts","outsourced_gig","union_busting"],"community_impact_it":"Nairobi come hub «human in the loop»: salari bassi, danni psichici documentati, e precarietà quando il cliente Big Tech chiude il contratto (OpenAI 2022; Meta engagement 2026).","community_impact_en":"Nairobi as a «human in the loop» hub: low wages, documented psychological harm, and precarity when the Big Tech client ends the contract (OpenAI 2022; Meta engagement 2026).","sources":[{"title":"TIME — OpenAI / Sama Kenya workers <$2/hour","url":"https://time.com/6247678/openai-chatgpt-kenya-workers/","accessed_at":"2026-09-29"},{"title":"CBS 60 Minutes — AI work Kenya exploitation","url":"https://www.cbsnews.com/news/ai-work-kenya-exploitation-60-minutes/","accessed_at":"2026-09-29"},{"title":"Foxglove — open letter Kenyan AI workers","url":"https://www.foxglove.org.uk/open-letter-to-president-biden-from-tech-workers-in-kenya/","accessed_at":"2026-09-29"},{"title":"AP — Sama lays off 1,000+ after Meta ends Nairobi contract (2026)","url":"https://apnews.com/article/kenya-meta-facebook-sama-content-moderators-902716b8037bc4063dd1101e2dbd4c3a","accessed_at":"2026-09-29","note":"1,108 layoff notice; major Nairobi engagement ended"},{"title":"Guardian — Kenyan firm sacks 1,000+ after losing Meta contract","url":"https://www.theguardian.com/technology/2026/apr/17/kenyan-outsourcing-company-for-meta-sacks-workers","accessed_at":"2026-09-29"}]}},{"type":"Feature","geometry":{"type":"Point","coordinates":[36.8255,-1.2925]},"properties":{"id":"rm_022","name":"Remotasks / Scale AI — click-work (Nairobi)","type":"raw_material","subtype":"ai_data_work","operator":"Scale AI (Remotasks)","capacity":"Piattaforma gig; uscita dal mercato KE/NG/PK nel 2024","description_it":"Piattaforma Remotasks (sussidiaria Scale AI) per click-work di labeling a distanza. Worker keniani segnalano salari non pagati e chiusura del mercato africano (mar 2024). Il pin Nairobi è hub di reclutamento/lavoro remoto storico, non uno stabilimento fisico; la committenza corporate passa da Scale HQ (San Francisco).","description_en":"Remotasks platform (Scale AI subsidiary) for remote labeling click-work. Kenyan workers report unpaid wages and an African market exit (Mar 2024). Nairobi pin is a historical recruitment/remote-work hub, not a physical plant; corporate contracting sits at Scale HQ (San Francisco).","country":"KE","city":"Nairobi","status":"decommissioned","site_category":"extraction","opened_year":null,"updated_at":"2026-09-29","confidence":"high","employment":{"direct":null,"indirect_est":null,"contractors_est":null,"note_it":"Gig work a pezzo: organico non «dipendenti» Scale. Chiusura africana 2024 con accuse di salari arretrati (Foxglove / CBS).","note_en":"Piece-rate gig work: not Scale «employees». 2024 African shutdown with unpaid-wage allegations (Foxglove / CBS).","conditions_tags":["outsourced_gig","precarious_contracts"]},"labor_risks":["outsourced_gig","precarious_contracts","union_busting"],"community_impact_it":"Estrazione di lavoro cognitivo via piattaforma: quando il mercato chiude, il rischio resta sui worker locali senza tutele da datore Big Tech.","community_impact_en":"Cognitive-labor extraction via platform: when the market closes, risk stays with local workers without Big Tech employer protections.","sources":[{"title":"CBS — Remotasks / Scale AI Kenya","url":"https://www.cbsnews.com/news/ai-work-kenya-exploitation-60-minutes/","accessed_at":"2026-09-29"},{"title":"Foxglove — letter on Scale AI Remotasks exit","url":"https://www.foxglove.org.uk/open-letter-to-president-biden-from-tech-workers-in-kenya/","accessed_at":"2026-09-29"}]}},{"type":"Feature","geometry":{"type":"Point","coordinates":[-122.41044,37.76221]},"properties":{"id":"rm_023","name":"OpenAI — San Francisco (HQ / model lab)","type":"raw_material","subtype":"model_lab","operator":"OpenAI","capacity":"Lab modelli generativi (non un data center di training nominato qui)","description_it":"Sede / lab OpenAI a San Francisco (Mission / Florida St). Nodo di committenza del lavoro di labeling e safety (RLHF, moderazione) esternalizzato — documentato verso Sama in Kenya; Scale AI figura tra i fornitori di dati dei lab di primo piano. Non è la fabbrica GPU né il campus cluster: è dove si concentra il controllo sul modello e sulla catena di «intelligenza umana».","description_en":"OpenAI San Francisco HQ / lab (Mission / Florida St). Contracting node for outsourced labeling and safety work (RLHF, moderation) — documented toward Sama in Kenya; Scale AI figures among data suppliers to leading labs. Not the GPU factory and not the cluster campus: where control over the model and the «human intelligence» chain concentrates.","country":"US","city":"San Francisco","status":"operational","site_category":"manufacturing","opened_year":null,"updated_at":"2026-09-29","confidence":"high","employment":{"direct":null,"indirect_est":null,"contractors_est":null,"note_it":"Organico HQ high-skill e ben retribuito: il contrasto con i worker Sama/Remotasks è il punto editoriale del corridoio trains.","note_en":"High-skill, well-paid HQ staff: contrast with Sama/Remotasks workers is the editorial point of the trains corridor.","conditions_tags":["high_skill"]},"labor_risks":[],"community_impact_it":"Polo corporate Bay Area: basso impatto di suolo industriale locale, altissimo leverage sulla filiera globale di lavoro cognitivo.","community_impact_en":"Bay Area corporate hub: low local industrial land impact, very high leverage on the global cognitive-labor chain.","sources":[{"title":"TIME — OpenAI contracted Sama in Kenya","url":"https://time.com/6247678/openai-chatgpt-kenya-workers/","accessed_at":"2026-09-29"},{"title":"OpenAI — company","url":"https://openai.com/","accessed_at":"2026-09-29"},{"title":"OpenStreetMap — OpenAI Florida Street, San Francisco","url":"https://www.openstreetmap.org/search?query=OpenAI%20Florida%20Street%20San%20Francisco","accessed_at":"2026-09-29"}]}},{"type":"Feature","geometry":{"type":"Point","coordinates":[127.44291,37.28088]},"properties":{"id":"rm_025","name":"SK Hynix — Icheon (HBM)","type":"raw_material","subtype":"hbm_memory","operator":"SK Hynix","capacity":"HBM3e/HBM4; output 2026 dichiarato sold-out / quasi interamente allocato","description_it":"Polo memoria SK Hynix a Icheon (Corea): principale fornitore HBM per GPU AI NVIDIA (quota HBM dominante su Hopper/Blackwell/Rubin secondo analisi di settore). L’HBM si integra nel package CoWoS insieme al die logico — collo di bottiglia parallelo alla foundry. Distinto da TSMC (logica) e dagli ODM (rack). Peer HBM in mappa: Samsung Hwaseong (rm_030) come dual-source 2026.","description_en":"SK Hynix memory hub at Icheon (Korea): primary HBM supplier for NVIDIA AI GPUs (dominant HBM share on Hopper/Blackwell/Rubin per industry analysis). HBM integrates into the CoWoS package with the logic die — a bottleneck alongside foundry. Distinct from TSMC (logic) and ODMs (racks). HBM peer on map: Samsung Hwaseong (rm_030) as 2026 dual-source.","country":"KR","city":"Icheon","site_category":"manufacturing","status":"operational","opened_year":null,"updated_at":"2026-09-29","confidence":"high","impact":{"capacity_mw":null,"power_draw_mw_est":null,"pue":null,"water_use_m3_year":null,"land_ha":null,"co2_t_year_est":null,"energy_mix_note_it":"Fab memoria ad alta intensità energetica/idrica tipica dei nodi HBM; non quantificato qui."},"employment":{"direct":null,"indirect_est":null,"contractors_est":null,"note_it":"Organico fab HBM non fissato in scheda; lavoro industriale high-tech a shift.","conditions_tags":["high_skill","shift_work"]},"community_impact_it":"Competizione geopolitica Corea–US–CN sulla memoria AI; pressione locale tipica di mega-fab.","labor_risks":["shift_work"],"sources":[{"title":"NVIDIA supply-chain notes — SK Hynix HBM share","url":"https://mohammed-sumon.com/research/semiconductor-cohort/docs/NVDA/supply-chain.html","accessed_at":"2026-09-29","note":"SK Hynix primary HBM; 2026 sold out cited"},{"title":"ValueAdd — AI chip supply / HBM allocation 2026","url":"https://valueaddvc.com/blog/ai-chip-supply-ranked-2026-nvidia-amd-broadcom-tsmc-and-whos-actually-unconstrained","accessed_at":"2026-09-29"}]}},{"type":"Feature","geometry":{"type":"Point","coordinates":[120.87343,24.68374]},"properties":{"id":"rm_026","name":"TSMC Advanced Packaging — CoWoS (Zhunan / AP)","type":"raw_material","subtype":"advanced_packaging","operator":"TSMC","capacity":"CoWoS-L/S; bottleneck AI 2025–26 (~60% allocazione NVIDIA stimata)","description_it":"Packaging avanzato TSMC (famiglia CoWoS) nell’area Zhunan/Longtan (Miaoli): qui die logici e stack HBM diventano il package GPU. Collo di bottiglia dichiarato del shipment AI; NVIDIA stima ~60% dell’allocazione CoWoS. Distinto dal fab front-end di Hsinchu (rm_007): stessa azienda, anello diverso.","description_en":"TSMC advanced packaging (CoWoS family) in the Zhunan/Longtan (Miaoli) area: where logic dies and HBM stacks become the GPU package. Declared AI shipment bottleneck; NVIDIA estimated ~60% of CoWoS allocation. Distinct from Hsinchu front-end fab (rm_007): same company, different chain ring.","country":"TW","city":"Zhunan","site_category":"manufacturing","status":"operational","opened_year":null,"updated_at":"2026-09-29","confidence":"medium","impact":{"capacity_mw":null,"power_draw_mw_est":null,"pue":null,"water_use_m3_year":null,"land_ha":null,"co2_t_year_est":null,"energy_mix_note_it":"Packaging AP ad alta densità di tool; consumo non modellato qui."},"employment":{"direct":null,"indirect_est":null,"contractors_est":null,"note_it":"Organico linee CoWoS non pubblico sito-sito; tipico lavoro fab/OSAT high-skill.","conditions_tags":["high_skill","shift_work"]},"community_impact_it":"Espansione capacità CoWoS in Taiwan come vincolo sistemico dell’AI globale.","labor_risks":["shift_work"],"sources":[{"title":"Inside DeepTech — TSMC CoWoS guide 2026","url":"https://www.insidedeeptech.com/tsmc-cowos-packaging-full-guide/","accessed_at":"2026-09-29","note":"Zhunan/Longtan/AP6; NVIDIA CoWoS-L Blackwell"},{"title":"NVIDIA supply chain — CoWoS capacity notes","url":"https://mohammed-sumon.com/research/semiconductor-cohort/docs/NVDA/supply-chain.html","accessed_at":"2026-09-29"}]}},{"type":"Feature","geometry":{"type":"Point","coordinates":[120.30532,22.72081]},"properties":{"id":"rm_027","name":"ASE — Kaohsiung (OSAT / CoWoS overflow)","type":"raw_material","subtype":"advanced_packaging","operator":"ASE (ASE Technology Holding)","capacity":"OSAT 2.5D/3D; WoS e overflow CoW in rampa per AI","description_it":"Campus ASE a Kaohsiung (Nanzi): OSAT storico. Con il bottleneck CoWoS, TSMC e clienti AI (NVIDIA/AMD) spingono overflow di passi CoW/WoS verso ASE e peer. Non sostituisce TSMC AP come percorso primario NVIDIA, ma è il secondo anello di packaging del corridoio.","description_en":"ASE campus in Kaohsiung (Nanzi): legacy OSAT. With the CoWoS bottleneck, TSMC and AI customers (NVIDIA/AMD) push CoW/WoS overflow to ASE and peers. Does not replace TSMC AP as NVIDIA’s primary path, but is the second packaging ring on the corridor.","country":"TW","city":"Kaohsiung","site_category":"manufacturing","status":"operational","opened_year":null,"updated_at":"2026-09-29","confidence":"medium","impact":{"capacity_mw":null,"power_draw_mw_est":null,"pue":null,"water_use_m3_year":null,"land_ha":null,"co2_t_year_est":null,"energy_mix_note_it":"OSAT; intensità energetica minore di un mega-fab front-end, rilevante a scala di volume AI."},"community_impact_it":"Polo packaging sud Taiwan; pressione cumulativa con altre OSAT sulla stessa isola.","labor_risks":["shift_work"],"sources":[{"title":"M1K — TSMC CoWoS outsourcing to ASE","url":"https://m1k.tech/2026/08/tsmc-cowos-outsourcing-osat-nvidia/","accessed_at":"2026-09-29"},{"title":"OpenStreetMap — ASE K3 Kaohsiung","url":"https://www.openstreetmap.org/search?query=ASE%20Kaohsiung","accessed_at":"2026-09-29"}]}},{"type":"Feature","geometry":{"type":"Point","coordinates":[-121.97038,37.38296]},"properties":{"id":"rm_028","name":"AMD — Santa Clara (HQ / Instinct design)","type":"raw_material","subtype":"chip_design","operator":"AMD","capacity":"Fabless; Instinct MI300/MI400 su TSMC + HBM + CoWoS (allocazione CoWoS ~11% vs ~60% NVIDIA)","description_it":"HQ AMD a Santa Clara (Augustine Drive): design degli accelerator Instinct. Stessa dipendenza TSMC/HBM/CoWoS di NVIDIA, con quota packaging più stretta. Secondo polo fabless del corridoio silicio AI in mappa (oltre rm_018).","description_en":"AMD HQ in Santa Clara (Augustine Drive): Instinct accelerator design. Same TSMC/HBM/CoWoS dependency as NVIDIA, with a tighter packaging allocation. Second fabless pole on the mapped AI silicon corridor (besides rm_018).","country":"US","city":"Santa Clara","site_category":"manufacturing","status":"operational","opened_year":null,"updated_at":"2026-09-29","confidence":"high","impact":{"capacity_mw":null,"power_draw_mw_est":null,"pue":null,"water_use_m3_year":null,"land_ha":null,"co2_t_year_est":null,"energy_mix_note_it":"HQ design: consumo da campus uffici/lab, non fab."},"employment":{"direct":null,"indirect_est":null,"contractors_est":null,"note_it":"Occupazione HQ design/engineering; non confrontabile con headcount fab o DC.","conditions_tags":["high_skill"]},"community_impact_it":"Nodo Silicon Valley del duopolio GPU AI con NVIDIA.","labor_risks":[],"sources":[{"title":"OpenStreetMap — AMD Santa Clara Augustine Drive","url":"https://www.openstreetmap.org/search?query=AMD%20Santa%20Clara","accessed_at":"2026-09-29"},{"title":"ValueAdd — AMD CoWoS allocation ~11%","url":"https://valueaddvc.com/blog/ai-chip-supply-ranked-2026-nvidia-amd-broadcom-tsmc-and-whos-actually-unconstrained","accessed_at":"2026-09-29"}]}},{"type":"Feature","geometry":{"type":"Point","coordinates":[121.41893,24.95841]},"properties":{"id":"rm_029","name":"Foxconn — Tucheng / Nuovo Taipei (ODM server)","type":"raw_material","subtype":"server_assembly","operator":"Foxconn (Hon Hai)","capacity":"ODM server/AI rack; volumi hyperscale non pubblici sito-sito","description_it":"Complesso Foxconn a Tucheng (Nuovo Taipei): ODM di scala che assembla server e sistemi per hyperscaler. Secondo assemblatore in mappa oltre Quanta (rm_020), per non ridurre l’ODM AI a un solo fornitore. Certainty sugli archi verso singoli campus resta likely/assente senza packing list.","description_en":"Foxconn complex at Tucheng (New Taipei): large-scale ODM assembling servers/systems for hyperscalers. Second assembler on the map besides Quanta (rm_020), so AI ODM is not a single-vendor story. Edge certainty to individual campuses stays likely/absent without packing lists.","country":"TW","city":"Tucheng","site_category":"manufacturing","status":"operational","opened_year":null,"updated_at":"2026-09-29","confidence":"medium","impact":{"capacity_mw":null,"power_draw_mw_est":null,"pue":null,"water_use_m3_year":null,"land_ha":null,"co2_t_year_est":null,"energy_mix_note_it":"Assembly ODM; intensità minore di fab, rilevante a volume rack AI."},"community_impact_it":"Mega-employer manifatturiero taiwanese; catena del valore verso campus cloud globali.","labor_risks":["shift_work"],"sources":[{"title":"OpenStreetMap — Foxconn Tucheng (頂埔)","url":"https://www.openstreetmap.org/search?query=Foxconn%20Tucheng","accessed_at":"2026-09-29"},{"title":"Nota metodologica — ODM multipli (Quanta+Foxconn)","url":"https://www.insidedeeptech.com/tsmc-cowos-packaging-full-guide/","accessed_at":"2026-09-29","note":"ODM come anello post-package; Foxconn tra i grandi assembler AI"}]}},{"type":"Feature","geometry":{"type":"Point","coordinates":[127.06596,37.21853]},"properties":{"id":"rm_030","name":"Samsung Electronics — Hwaseong (HBM)","type":"raw_material","subtype":"hbm_memory","operator":"Samsung Electronics","capacity":"HBM3e/HBM4 in rampa; qualifica NVIDIA HBM4 riportata mar 2026 (analisi di settore)","description_it":"Campus Samsung a Hwaseong (Gyeonggi): secondo fornitore HBM del corridoio AI dopo SK Hynix (rm_025). Chiude il dual-source memoria 2026 senza aggiungere Micron (terzo volume, minor segnale editoriale). Fornisce stack HBM verso il package CoWoS; non sostituisce SK Hynix come leader di quota.","description_en":"Samsung campus at Hwaseong (Gyeonggi): second HBM supplier on the AI corridor after SK Hynix (rm_025). Closes 2026 memory dual-source without adding Micron (third volume, weaker editorial signal). Supplies HBM stacks into the CoWoS package; does not replace SK Hynix as share leader.","country":"KR","city":"Hwaseong","site_category":"manufacturing","status":"operational","opened_year":null,"updated_at":"2026-09-29","confidence":"medium","impact":{"capacity_mw":null,"power_draw_mw_est":null,"pue":null,"water_use_m3_year":null,"land_ha":null,"co2_t_year_est":null,"energy_mix_note_it":"Mega-fab memoria; intensità energetica/idrica tipica, non quantificata qui."},"employment":{"direct":null,"indirect_est":null,"contractors_est":null,"note_it":"Organico campus non fissato in scheda; lavoro industriale high-tech a shift.","conditions_tags":["high_skill","shift_work"]},"community_impact_it":"Secondo polo HBM coreano: competizione SK Hynix–Samsung sulla memoria AI.","labor_risks":["shift_work"],"sources":[{"title":"NVIDIA supply chain — Samsung HBM qualification notes","url":"https://mohammed-sumon.com/research/semiconductor-cohort/docs/NVDA/supply-chain.html","accessed_at":"2026-09-29","note":"Samsung HBM4 NVIDIA-qualified (Mar 2026 per TrendForce cited)"},{"title":"ValueAdd — HBM Samsung/Micron ramp 2026","url":"https://valueaddvc.com/blog/ai-chip-supply-ranked-2026-nvidia-amd-broadcom-tsmc-and-whos-actually-unconstrained","accessed_at":"2026-09-29"},{"title":"OpenStreetMap — Samsung Electronics Hwaseong campus","url":"https://www.openstreetmap.org/search?query=Samsung%20Electronics%20Hwaseong","accessed_at":"2026-09-29"}]}},{"type":"Feature","geometry":{"type":"Point","coordinates":[17.27474,50.49838]},"properties":{"id":"rm_031","name":"Umicore — Nysa (catodo CAM / NMC)","type":"raw_material","subtype":"battery_materials","operator":"Umicore","capacity":"Primo impianto CAM in Europa (greenfield 2021); ~400 addetti dichiarati a regime","description_it":"Stabilimento Umicore a Nysa/Radzikowice (Polonia): prima fabbrica europea di materiali catodici (CAM NMC) per batterie Li-ion. Riceve precursori da Kokkola e nichel solfato da Terrafame (accordo long-term); vende CAM ai cell maker (accordo LG Chem con volumi prevalenti da Polonia; accordo Samsung SDI multi-regionale verso EU/Asia).","description_en":"Umicore plant at Nysa/Radzikowice (Poland): Europe’s first cathode active materials (NMC CAM) plant for Li-ion batteries. Receives precursors from Kokkola and nickel sulphate from Terrafame (long-term agreement); sells CAM to cell makers (LG Chem agreement with majority volumes from Poland; multi-region Samsung SDI agreement for EU/Asia).","country":"PL","city":"Nysa","site_category":"manufacturing","status":"operational","opened_year":2021,"updated_at":"2026-09-29","confidence":"high","impact":{"capacity_mw":null,"power_draw_mw_est":null,"pue":null,"water_use_m3_year":null,"land_ha":null,"co2_t_year_est":null,"energy_mix_note_it":"Manifattura CAM; intensità energetica industriale, non modellata qui."},"employment":{"direct":400,"indirect_est":null,"contractors_est":null,"note_it":"Umicore dichiara ~400 posti a regime sul sito di Nysa.","conditions_tags":["high_skill","shift_work"]},"community_impact_it":"Polo CAM nell’Opole; anello UE tra raffinazione finlandese e gigafactory polacche.","labor_risks":["shift_work"],"sources":[{"title":"Umicore Poland — Nysa site","url":"https://www.umicore.pl/en/our-sites/nysa/","accessed_at":"2026-09-29","note":"Radzikowice 1c; first cathode plant in Europe"},{"title":"Umicore — sustainable battery materials / Kokkola→Nysa precursors","url":"https://www.umicore.com/en/media/newsroom/sustainable-battery-materials-supply-chain/","accessed_at":"2026-09-29"},{"title":"Umicore — long-term nickel sulphate agreement with Terrafame","url":"https://www.umicore.com/en/media/newsroom/long-term-agreement-with-terrafame-for-the-supply-of-sustainable-low-carbon-nickel/","accessed_at":"2026-09-29","note":"Covers substantial part of Nysa nickel requirements"}]}},{"type":"Feature","geometry":{"type":"Point","coordinates":[16.88595,51.02055]},"properties":{"id":"rm_032","name":"LG Energy Solution — Wrocław / Kobierzyce (celle)","type":"raw_material","subtype":"battery_cell","operator":"LG Energy Solution","capacity":"Gigafactory EV Li-ion; tra i maggiori siti cell Europe","description_it":"Stabilimento LG Energy Solution a Biskupice Podgórne / Kobierzyce (Wrocław): produzione celle Li-ion per automotive. Cliente documentato di CAM Umicore: accordo LG Chem/LGES con volumi in larga parte dal greenfield polacco (Nysa).","description_en":"LG Energy Solution plant at Biskupice Podgórne / Kobierzyce (Wrocław): Li-ion cell production for automotive. Documented Umicore CAM customer: LG Chem/LGES agreement with a large share of volumes from the Polish greenfield (Nysa).","country":"PL","city":"Kobierzyce","site_category":"manufacturing","status":"operational","opened_year":null,"updated_at":"2026-09-29","confidence":"high","impact":{"capacity_mw":null,"power_draw_mw_est":null,"pue":null,"water_use_m3_year":null,"land_ha":null,"co2_t_year_est":null,"energy_mix_note_it":"Gigafactory: alto prelievo elettrico; non modellato qui."},"employment":{"direct":null,"indirect_est":null,"contractors_est":null,"note_it":"Organico di gigafactory (migliaia in area); non fissato in scheda.","conditions_tags":["shift_work","high_skill"]},"community_impact_it":"Mega-sito cellulare in Bassa Slesia; pressione su rete, suolo e lavoro locale.","labor_risks":["shift_work"],"sources":[{"title":"OpenStreetMap — LG Energy Solution Wrocław","url":"https://www.openstreetmap.org/search?query=LG%20Energy%20Solution%20Wrocław","accessed_at":"2026-09-29"},{"title":"Umicore — supply agreement LG Chem (volumes from Poland plant)","url":"https://assets-002.noviams.com/novi-file-uploads/naatbatt/Conference_Material/2020/Session_2/MT-21_Introducing_Umicore_2020.pdf","accessed_at":"2026-09-29","note":"Majority of agreement volumes from Poland greenfield"}]}},{"type":"Feature","geometry":{"type":"Point","coordinates":[-70.31467,-23.7739]},"properties":{"id":"rm_033","name":"Albemarle — La Negra (raffineria litio, Atacama)","type":"raw_material","subtype":"battery_materials","operator":"Albemarle","capacity":"Conversione chimica litio da salamoia Atacama","description_it":"Complesso Albemarle a La Negra (Antofagasta): raffinazione/conversione del litio estratto dal Salar de Atacama. Chiude il ramo brine cileno in parallelo allo spodumene Greenbushes→Kwinana (non mescolare i due).","description_en":"Albemarle complex at La Negra (Antofagasta): refining/conversion of lithium from Salar de Atacama brine. Closes the Chilean brine branch in parallel to Greenbushes→Kwinana spodumene (do not conflate the two).","country":"CL","city":"Antofagasta","site_category":"manufacturing","status":"operational","opened_year":null,"updated_at":"2026-09-29","confidence":"medium","impact":{"capacity_mw":null,"power_draw_mw_est":null,"pue":null,"water_use_m3_year":null,"land_ha":null,"co2_t_year_est":null,"energy_mix_note_it":"Raffinazione litio; impatto idrico regionale legato alla catena Atacama."},"community_impact_it":"Nodo chimico nel deserto di Atacama; dibattiti su acqua e comunità locali a monte sul Salar.","labor_risks":["shift_work"],"sources":[{"title":"OpenStreetMap — La Negra, Antofagasta","url":"https://www.openstreetmap.org/search?query=La%20Negra%20Antofagasta","accessed_at":"2026-09-29"},{"title":"Contesto Albemarle Atacama–La Negra (filiera brine)","url":"https://www.umicore.com/en/media/newsroom/sustainable-battery-materials-supply-chain/","accessed_at":"2026-09-29","note":"Metodologia: brine ≠ hard-rock; pin raffineria locale al Salar"}]}},{"type":"Feature","geometry":{"type":"Point","coordinates":[28.00345,63.97809]},"properties":{"id":"rm_034","name":"Terrafame — Sotkamo (nichel batteria)","type":"raw_material","subtype":"nickel_mine","operator":"Terrafame","capacity":"NiSO4 battery-grade; linea chimici per ~1M EV/anno (dichiarazione operatore)","description_it":"Complesso integrato Terrafame a Sotkamo/Talvivaara (Finlandia): miniera e produzione di solfato di nichel a basso carbonio per catodi NMC. Accordo long-term con Umicore: copre una parte sostanziale del fabbisogno di nichel dello stabilimento CAM di Nysa.","description_en":"Integrated Terrafame complex at Sotkamo/Talvivaara (Finland): mine plus low-carbon battery-grade nickel sulphate for NMC cathodes. Long-term agreement with Umicore covering a substantial share of nickel needs at the Nysa CAM plant.","country":"FI","city":"Sotkamo","site_category":"extraction","status":"operational","opened_year":null,"updated_at":"2026-09-29","confidence":"high","impact":{"capacity_mw":null,"power_draw_mw_est":null,"pue":null,"water_use_m3_year":null,"land_ha":null,"co2_t_year_est":null,"energy_mix_note_it":"Processo bioheap leaching a basso carbonio dichiarato; intensità non modellata qui."},"employment":{"direct":null,"indirect_est":null,"contractors_est":null,"note_it":"Sito industriale di scala in Kainuu; headcount non fissato in scheda.","conditions_tags":["shift_work","high_skill"]},"community_impact_it":"Polo europeo del nichel batteria; eredità ambientale Talvivaara e dibattiti locali su acqua/suolo.","labor_risks":["shift_work"],"sources":[{"title":"Umicore — long-term agreement with Terrafame (NiSO4 → Nysa)","url":"https://www.umicore.com/en/media/newsroom/long-term-agreement-with-terrafame-for-the-supply-of-sustainable-low-carbon-nickel/","accessed_at":"2026-09-29"},{"title":"Terrafame — same agreement (commercial deliveries started)","url":"https://www.terrafame.com/newsroom/media-releases/umicore-signs-long-term-agreement-with-terrafame-for-the-supply-of-sustainable-low-carbon-nickel.html","accessed_at":"2026-09-29"},{"title":"OpenStreetMap — Terrafame / Talvivaara Sotkamo","url":"https://www.openstreetmap.org/search?query=Terrafame%20Sotkamo","accessed_at":"2026-09-29"}]}},{"type":"Feature","geometry":{"type":"Point","coordinates":[19.16246,47.67462]},"properties":{"id":"rm_035","name":"Samsung SDI — Göd (celle EV)","type":"raw_material","subtype":"battery_cell","operator":"Samsung SDI","capacity":"Gigafactory EV Li-ion in Ungheria (Göd)","description_it":"Stabilimento Samsung SDI a Göd (Ungheria): produzione celle Li-ion per automotive in UE. Secondo cell maker del corridoio dopo LGES Wrocław. Accordo multi-anno Umicore–Samsung SDI per CAM NMC (volumi multi-regione, inizialmente prevalenti dalla Corea; destinazione EU include questo sito).","description_en":"Samsung SDI plant at Göd (Hungary): Li-ion cell production for automotive in the EU. Second cell maker on the corridor after LGES Wrocław. Multi-year Umicore–Samsung SDI NMC CAM agreement (multi-region volumes, initially majority from Korea; EU destination includes this site).","country":"HU","city":"Göd","site_category":"manufacturing","status":"operational","opened_year":null,"updated_at":"2026-09-29","confidence":"high","impact":{"capacity_mw":null,"power_draw_mw_est":null,"pue":null,"water_use_m3_year":null,"land_ha":null,"co2_t_year_est":null,"energy_mix_note_it":"Gigafactory: alto prelievo elettrico; non modellato qui."},"employment":{"direct":null,"indirect_est":null,"contractors_est":null,"note_it":"Organico di gigafactory; non fissato in scheda.","conditions_tags":["shift_work","high_skill"]},"community_impact_it":"Mega-sito cellulare sull’asse Budapest nord; pressione su rete e lavoro locale.","labor_risks":["shift_work"],"sources":[{"title":"OpenStreetMap — Samsung SDI Göd","url":"https://www.openstreetmap.org/search?query=Samsung%20SDI%20Göd","accessed_at":"2026-09-29"},{"title":"Umicore — strategic supply agreement with Samsung SDI (NMC CAM)","url":"https://www.umicore.com/en/media/newsroom/umicore-announces-strategic-supply-agreement-with-samsung-sdi-for-nmc-cathode-materials/","accessed_at":"2026-09-29","note":"Multi-region; majority initially Korea; EU/Asia automotive"}]}},{"type":"Feature","geometry":{"type":"Point","coordinates":[38.65797,-13.3056]},"properties":{"id":"rm_036","name":"Syrah — Balama (grafite naturale)","type":"raw_material","subtype":"graphite_mine","operator":"Syrah Resources","capacity":"~350 ktpa concentrato grafite (capacità impianto dichiarata)","description_it":"Miniera a cielo aperto Syrah a Balama (Cabo Delgado, Mozambico): una delle maggiori fonti di grafite flake naturale fuori Cina. Feedstock del ramo anodo Verticale Balama→Vidalia (AAM). Ramo parallelo al catodo NMC (cobalto/nichel/litio): chiude il materiale dell’anodo sulla stessa mappa batterie.","description_en":"Syrah open-pit mine at Balama (Cabo Delgado, Mozambique): a major natural flake graphite source outside China. Feedstock for the vertical Balama→Vidalia anode (AAM) branch. Parallel to the NMC cathode branch (cobalt/nickel/lithium): closes anode material on the same battery map.","country":"MZ","city":"Balama","site_category":"extraction","status":"operational","opened_year":2017,"updated_at":"2026-09-29","confidence":"high","impact":{"capacity_mw":null,"power_draw_mw_est":null,"pue":null,"water_use_m3_year":null,"land_ha":null,"co2_t_year_est":null,"energy_mix_note_it":"Estrazione open-pit; impatto territoriale tipico, non quantificato qui."},"employment":{"direct":null,"indirect_est":null,"contractors_est":null,"note_it":"Lavoro minerario in Cabo Delgado; headcount non fissato in scheda.","conditions_tags":["shift_work","hazardous"]},"community_impact_it":"Grande progetto minerario nel nord Mozambico; contesto di sicurezza regionale Cabo Delgado.","labor_risks":["shift_work","hazardous"],"sources":[{"title":"Syrah — Balama Graphite Operation (company)","url":"https://www.syrahresources.com.au/our-business/balama-graphite-operation","accessed_at":"2026-09-29"},{"title":"NS Energy — Balama Graphite Project","url":"https://www.nsenergybusiness.com/projects/balama-graphite-project/","accessed_at":"2026-09-29"}]}},{"type":"Feature","geometry":{"type":"Point","coordinates":[-91.42595,31.56544]},"properties":{"id":"rm_037","name":"Syrah — Vidalia (anodo AAM)","type":"raw_material","subtype":"battery_materials","operator":"Syrah Resources","capacity":"11,25 ktpa active anode material (AAM); avvio produzione Q1 2024","description_it":"Impianto Syrah a Vidalia (Louisiana): primo AAM a scala commerciale da grafite naturale fuori Cina. Processa concentrato da Balama (milling, purificazione, coating). Offtake con OEM (es. Lucid); MoU non vincolante con Samsung SDI per valutare fornitura AAM. Nodo anodo del corridoio batterie, distinto dal ramo catodo Umicore.","description_en":"Syrah plant at Vidalia (Louisiana): first commercial-scale natural-graphite AAM facility outside China. Processes Balama concentrate (milling, purification, coating). Offtake with OEMs (e.g. Lucid); non-binding MoU with Samsung SDI to evaluate AAM supply. Anode node on the battery corridor, distinct from the Umicore cathode branch.","country":"US","city":"Vidalia","site_category":"manufacturing","status":"operational","opened_year":2024,"updated_at":"2026-09-29","confidence":"high","impact":{"capacity_mw":null,"power_draw_mw_est":null,"pue":null,"water_use_m3_year":null,"land_ha":null,"co2_t_year_est":null,"energy_mix_note_it":"Manifattura AAM; GWP dichiarato da Syrah su catena Balama→cliente, non modellato qui."},"employment":{"direct":null,"indirect_est":null,"contractors_est":null,"note_it":"Impianto di processo batteria; headcount non fissato in scheda.","conditions_tags":["high_skill","shift_work"]},"community_impact_it":"Nodo US IRA-aligned per anodo ex-China; legame diretto con miniera mozambicana.","labor_risks":["shift_work"],"sources":[{"title":"Syrah — Vidalia Active Anode Material Facility","url":"https://www.syrahresources.com.au/our-business/vidalia-active-anode-material-facility","accessed_at":"2026-09-29"},{"title":"NS Energy — Balama→Vidalia vertical integration","url":"https://www.nsenergybusiness.com/projects/balama-graphite-project/","accessed_at":"2026-09-29","note":"Also notes MoU Samsung SDI Aug 2023"}]}},{"type":"Feature","geometry":{"type":"Point","coordinates":[4.33657,51.16466]},"properties":{"id":"rm_038","name":"Umicore — Hoboken (riciclo batterie)","type":"raw_material","subtype":"battery_materials","operator":"Umicore","capacity":"~7.000 t/anno smelter Li-ion dedicato (capacità dichiarata Umicore)","description_it":"Impianto Umicore a Hoboken (Anversa): smelter dedicato al riciclo di batterie Li-ion e scrap di produzione (pyro-hydro). Recupera Ni, Co, Cu e Li verso sali battery-grade che rientrano nella filiera CAM dello stesso gruppo. Chiude il loop del corridoio batterie UE accanto a Kokkola/Nysa.","description_en":"Umicore plant at Hoboken (Antwerp): dedicated Li-ion battery and production-scrap smelter (pyro-hydro). Recovers Ni, Co, Cu and Li into battery-grade salts that re-enter the group’s CAM chain. Closes the EU battery corridor loop beside Kokkola/Nysa.","country":"BE","city":"Hoboken","site_category":"manufacturing","status":"operational","opened_year":2011,"updated_at":"2026-09-29","confidence":"high","impact":{"capacity_mw":null,"power_draw_mw_est":null,"pue":null,"water_use_m3_year":null,"land_ha":null,"co2_t_year_est":null,"energy_mix_note_it":"Pyrometallurgia + idro; intensità non modellata qui."},"employment":{"direct":null,"indirect_est":null,"contractors_est":null,"note_it":"Sito refining storico Umicore; organico riciclo batterie non separato in scheda.","conditions_tags":["high_skill","hazardous","shift_work"]},"community_impact_it":"Polo recycling in area Anversa; dibattiti storici su emissioni del sito Hoboken più ampio.","labor_risks":["hazardous","shift_work"],"sources":[{"title":"Umicore — pyro-hydro battery recycling (Hoboken)","url":"https://www.umicore.com/en/about/battery-materials-solutions/battery-recycling-solutions/pyro-hydro-technology/","accessed_at":"2026-09-29"},{"title":"Umicore — nickel recycling & refining (Hoboken pilot capacity)","url":"https://www.umicore.com/en/markets-products/metals/nickel/recycling-refining/","accessed_at":"2026-09-29"},{"title":"OpenStreetMap — Umicore Hoboken","url":"https://www.openstreetmap.org/search?query=Umicore%20Hoboken","accessed_at":"2026-09-29"}]}},{"type":"Feature","geometry":{"type":"Point","coordinates":[-122.14837,37.48467]},"properties":{"id":"rm_039","name":"Meta — Menlo Park (HQ / AI lab)","type":"raw_material","subtype":"model_lab","operator":"Meta Platforms","capacity":"HQ + Meta Superintelligence Labs (Menlo Park); committenza AI/moderazione","description_it":"Sede Meta a 1 Hacker Way, Menlo Park: nodo di committenza del lavoro di moderazione e AI annotation esternalizzato (Sama Nairobi documentato da TIME/CBS; engagement maggiore chiuso apr 2026). Meglio di un singolo data center come estremità del corridoio trains: qui si decide il contratto, non dove gira il rack. Distinto da Luleå (footprint hyperscale, fuori da questo preset).","description_en":"Meta HQ at 1 Hacker Way, Menlo Park: contracting node for outsourced moderation and AI annotation (Sama Nairobi documented by TIME/CBS; major engagement ended Apr 2026). Better trains endpoint than a single data center: contracts are decided here, not where the rack runs. Distinct from Luleå (hyperscale footprint, outside this preset).","country":"US","city":"Menlo Park","site_category":"manufacturing","status":"operational","opened_year":null,"updated_at":"2026-09-29","confidence":"high","employment":{"direct":null,"indirect_est":null,"contractors_est":null,"note_it":"Organico HQ high-skill; il contrasto editoriale è con i worker Sama a Nairobi, non con l’headcount campus.","note_en":"High-skill HQ staff; editorial contrast is with Sama workers in Nairobi, not campus headcount.","conditions_tags":["high_skill"]},"labor_risks":[],"community_impact_it":"Polo corporate Bay Area: leverage sulla filiera globale di lavoro cognitivo outsourcato.","community_impact_en":"Bay Area corporate hub: leverage on the global outsourced cognitive-labor chain.","sources":[{"title":"OpenStreetMap — 1 Hacker Way, Menlo Park","url":"https://www.openstreetmap.org/search?query=1%20Hacker%20Way%20Menlo%20Park","accessed_at":"2026-09-29"},{"title":"TIME — Facebook’s African sweatshop / Sama","url":"https://time.com/6147458/facebook-africa-content-moderation-employee-treatment/","accessed_at":"2026-09-29"},{"title":"AP — Meta ends major Sama Nairobi engagement (2026)","url":"https://apnews.com/article/kenya-meta-facebook-sama-content-moderators-902716b8037bc4063dd1101e2dbd4c3a","accessed_at":"2026-09-29"}]}},{"type":"Feature","geometry":{"type":"Point","coordinates":[-122.40366,37.77096]},"properties":{"id":"rm_040","name":"Scale AI — San Francisco (HQ)","type":"raw_material","subtype":"ai_data_work","operator":"Scale AI","capacity":"HQ ~180k sq ft (650 Townsend); piattaforme Remotasks + Outlier","description_it":"Sede Scale AI a San Francisco (650 Townsend St): intermediario corporate del labeling/RLHF. Opera Remotasks (click-work; uscita Africa 2024, hub Filippine documentato) e Outlier (feedback LLM). Fornisce dati e valutazione a lab AI di primo piano; Meta detiene una quota rilevante (2025).","description_en":"Scale AI HQ in San Francisco (650 Townsend St): corporate intermediary for labeling/RLHF. Runs Remotasks (click-work; Africa exit 2024, documented Philippines hub) and Outlier (LLM feedback). Supplies data and evaluation to leading AI labs; Meta holds a material stake (2025).","country":"US","city":"San Francisco","site_category":"manufacturing","status":"operational","opened_year":2016,"updated_at":"2026-09-29","confidence":"high","employment":{"direct":1200,"indirect_est":null,"contractors_est":null,"note_it":"~1.200 dipendenti Scale (stima 2025); i worker Remotasks/Outlier sono gig/contractor fuori organico HQ.","note_en":"~1,200 Scale employees (2025 estimate); Remotasks/Outlier workers are gig/contractors outside HQ payroll.","conditions_tags":["high_skill"]},"labor_risks":[],"community_impact_it":"HQ che cattura il margine del lavoro cognitivo distribuito; il rischio resta sui worker Remotasks/Outlier.","community_impact_en":"HQ that captures margin on distributed cognitive labor; risk stays with Remotasks/Outlier workers.","sources":[{"title":"SF Standard — Scale AI office 650 Townsend (~180k sq ft)","url":"https://sfstandard.com/2026/04/07/i-leaderboard-san-francisco-office/","accessed_at":"2026-09-29"},{"title":"Craft — Scale AI HQ 650 Townsend Street","url":"https://craft.co/scale/locations","accessed_at":"2026-09-29"},{"title":"Wikipedia — Scale AI (Remotasks, Outlier; Meta stake)","url":"https://en.wikipedia.org/wiki/Scale_AI","accessed_at":"2026-09-29"},{"title":"Washington Post — Remotasks workers Philippines","url":"https://www.washingtonpost.com/world/2023/08/28/scale-ai-remotasks-philippines-artificial-intelligence/","accessed_at":"2026-09-29"}]}},{"type":"Feature","geometry":{"type":"Point","coordinates":[124.64215,8.47564]},"properties":{"id":"rm_041","name":"Remotasks — hub Filippine (Mindanao)","type":"raw_material","subtype":"ai_data_work","operator":"Scale AI (Remotasks)","capacity":"Migliaia di worker in internet café/uffici (stima WaPo 2023); mercato KE chiuso 2024","description_it":"Hub documentato di Remotasks nel sud delle Filippine (Cagayan de Oro / Mindanao): worker etichettano video, immagini e testo per modelli AI americani via piattaforma Scale. WaPo descrive «digital sweatshops» con pay bassi e ritardi pagamenti; BHR Centre cita ~10.000 worker Remotasks in PH. Pin regionale Mindanao; distinto da Nairobi (chiusura Africa 2024).","description_en":"Documented Remotasks hub in the southern Philippines (Cagayan de Oro / Mindanao): workers label video, images and text for US AI models via Scale’s platform. WaPo describes «digital sweatshops» with low pay and delayed payments; BHR Centre cites ~10,000 Remotasks workers in PH. Regional Mindanao pin; distinct from Nairobi (Africa exit 2024).","country":"PH","city":"Cagayan de Oro","site_category":"extraction","status":"operational","opened_year":null,"updated_at":"2026-09-29","confidence":"high","employment":{"direct":null,"indirect_est":10000,"contractors_est":null,"note_it":"Gig/contractor Remotasks, non dipendenti Scale; stime giornalistiche ~10k in Filippine (2023).","note_en":"Remotasks gig/contractors, not Scale employees; press estimates ~10k in Philippines (2023).","conditions_tags":["outsourced_gig","precarious_contracts"]},"labor_risks":["outsourced_gig","precarious_contracts"],"community_impact_it":"Filippine tra i maggiori mercati globali di annotazione AI; regolazione «informale» ammessa dal governo locale nelle inchieste.","community_impact_en":"Philippines among the largest global AI annotation markets; local government interviews describe the sector as «informal» and hard to regulate.","sources":[{"title":"Washington Post — Remotasks Philippines digital sweatshops","url":"https://www.washingtonpost.com/world/2023/08/28/scale-ai-remotasks-philippines-artificial-intelligence/","accessed_at":"2026-09-29"},{"title":"Business & Human Rights Centre — Scale AI Philippines","url":"https://www.business-humanrights.org/en/latest-news/philippines-scale-ai-creating-race-to-the-bottom-as-outsourced-workers-face-poor-conditions-in-digital-sweatshops-incl-low-wages-withheld-payments/","accessed_at":"2026-09-29"}]}},{"type":"Feature","geometry":{"type":"Point","coordinates":[120.93658,14.42902]},"properties":{"id":"rm_042","name":"Appen — Imus, Cavite (BPO annotation)","type":"raw_material","subtype":"ai_data_work","operator":"Appen","capacity":"Centro BPO on-site; survey Fairwork 129 worker (2024–25)","description_it":"Centro BPO Appen a Imus, Cavite (Calabarzon): worker impiegati in fila davanti ai PC per labeling e moderazione contenuti per clienti globali. Fairwork AI Supply Chain Assessment 2025: 4/10, site visit + 129 survey; 15 miglioramenti documentati (salute mentale, forum worker). Pin fisico vs gig Remotasks: stesso corridoio lavoro dati, modello employment diverso.","description_en":"Appen BPO centre at Imus, Cavite (Calabarzon): employed workers at rows of PCs labeling and moderating content for global clients. Fairwork AI Supply Chain Assessment 2025: 4/10, site visit + 129-worker survey; 15 documented improvements (mental health, worker forum). Physical-site pin vs Remotasks gig: same data-labor corridor, different employment model.","country":"PH","city":"Imus","site_category":"manufacturing","status":"operational","opened_year":null,"updated_at":"2026-09-29","confidence":"high","employment":{"direct":null,"indirect_est":null,"contractors_est":null,"note_it":"Impiegati formalmente on-site (BPO), distinti dalla «crowd» remota Appen; condizioni valutate da Fairwork 2025.","note_en":"Formally employed on-site (BPO), distinct from Appen’s remote crowd; conditions assessed by Fairwork 2025.","conditions_tags":["shift_work","psychological_harm"]},"labor_risks":["psychological_harm","shift_work"],"community_impact_it":"Parco industriale Cavite: materialità fisica del lavoro AI export-oriented verso clienti US/Cina.","community_impact_en":"Cavite industrial park: physical materiality of export-oriented AI labor toward US/China clients.","sources":[{"title":"Fairwork — AI Supply Chain Assessment: Appen 2025 (Imus, Cavite)","url":"https://fair.work/en/fw/publications/fairwork-ai-supply-chain-assessment-appen-2025/","accessed_at":"2026-09-29"},{"title":"Fairwork Appen 2025 report (PDF)","url":"https://www.bmz-digital.global/wp-content/uploads/2025/12/Fairwork-Report-Appen_2025.pdf","accessed_at":"2026-09-29"}]}},{"type":"Feature","geometry":{"type":"Point","coordinates":[-122.3972,37.7862]},"properties":{"id":"rm_043","name":"Surge AI — San Francisco (HQ)","type":"raw_material","subtype":"ai_data_work","operator":"Surge AI (Surge Labs)","capacity":"Intermediario RLHF; piattaforma DataAnnotation.tech","description_it":"Surge AI (San Francisco): competitor/intermediario di Scale per RLHF e annotation ad alta qualità. Clienti documentati includono Anthropic (blog ufficiale Surge); class action 2025 cita assegnazione progetti Google, Anthropic, OpenAI, Meta. Workforce distribuita in decine di paesi via contractor «Data Annotators».","description_en":"Surge AI (San Francisco): Scale peer intermediary for high-quality RLHF and annotation. Documented clients include Anthropic (Surge official blog); 2025 class action cites project assignment for Google, Anthropic, OpenAI, Meta. Workforce distributed across dozens of countries via «Data Annotator» contractors.","country":"US","city":"San Francisco","site_category":"manufacturing","status":"operational","opened_year":2020,"updated_at":"2026-09-29","confidence":"high","employment":{"direct":459,"indirect_est":null,"contractors_est":null,"note_it":"LinkedIn stima ~459 dipendenti HQ; annotatori sono contractor via DataAnnotation.tech (lawsuit misclassification).","note_en":"LinkedIn estimates ~459 HQ employees; annotators are contractors via DataAnnotation.tech (misclassification lawsuit).","conditions_tags":["high_skill"]},"labor_risks":[],"community_impact_it":"Secondo polo Bay Area del labeling premium; indagine DoL su pay FLSA (2025).","community_impact_en":"Second Bay Area pole for premium labeling; DoL fair-pay investigation (2025).","sources":[{"title":"Surge — Anthropic RLHF partnership (Kaplan quote)","url":"https://surgehq.ai/blog/anthropic-surge-ai-rlhf-platform-train-llm-assistant-human-feedback","accessed_at":"2026-09-29"},{"title":"Clarkson Law Firm — Surge AI class action (clients named)","url":"https://clarksonlawfirm.com/wp-content/uploads/2025/05/2025.05.20-Surge-Labs.pdf","accessed_at":"2026-09-29"},{"title":"SiliconANGLE — DoL investigation Scale/Surge labor context","url":"https://siliconangle.com/2025/03/06/scale-ai-faces-probe-amid-allegations-underpaying-data-labeling-contractors/","accessed_at":"2026-09-29","note":"Industry context on labeling labor probes"}]}},{"type":"Feature","geometry":{"type":"Point","coordinates":[-122.39674,37.78851]},"properties":{"id":"rm_044","name":"Anthropic — San Francisco (HQ / lab)","type":"raw_material","subtype":"model_lab","operator":"Anthropic","capacity":"Claude / alignment research; HQ ~500 Howard St","description_it":"Anthropic PBC a San Francisco (500 Howard St): lab modelli Claude e ricerca alignment. Committenza documentata di RLHF via Surge AI (blog con quote Jared Kaplan). Requisiti dichiarati su pay minimo ~16 $/h per subcontractor labeling e regole wellbeing su contenuti sensibili (Straits Times).","description_en":"Anthropic PBC in San Francisco (500 Howard St): Claude models and alignment research. Documented RLHF contracting via Surge AI (blog with Jared Kaplan quote). Stated requirements for subcontractor labeling pay floors ~$16/h and wellbeing rules on sensitive content (Straits Times).","country":"US","city":"San Francisco","site_category":"manufacturing","status":"operational","opened_year":2021,"updated_at":"2026-09-29","confidence":"high","employment":{"direct":2500,"indirect_est":null,"contractors_est":null,"note_it":"~2.500 dipendenti (stima 2026); contrasto con annotatori Surge/Scale outsourced.","note_en":"~2,500 employees (2026 estimate); contrast with outsourced Surge/Scale annotators.","conditions_tags":["high_skill"]},"labor_risks":[],"community_impact_it":"Terzo polo lab SF nel preset insieme a OpenAI e Meta Menlo Park.","community_impact_en":"Third SF-area lab pole in the preset alongside OpenAI and Meta Menlo Park.","sources":[{"title":"Wikipedia — Anthropic HQ 500 Howard Street","url":"https://en.wikipedia.org/wiki/Anthropic","accessed_at":"2026-09-29"},{"title":"Surge — Anthropic uses Surge RLHF platform","url":"https://surgehq.ai/blog/anthropic-surge-ai-rlhf-platform-train-llm-assistant-human-feedback","accessed_at":"2026-09-29"},{"title":"Straits Times — Anthropic subcontractor pay / wellbeing rules","url":"https://www.straitstimes.com/world/gruelling-low-paid-human-work-behind-generative-ai-curtain","accessed_at":"2026-09-29"}]}},{"type":"Feature","geometry":{"type":"Point","coordinates":[-122.08238,37.419]},"properties":{"id":"rm_045","name":"Google — Mountain View (AI committenza)","type":"raw_material","subtype":"model_lab","operator":"Google (Alphabet)","capacity":"Gemini / Google AI; committenza labeling via intermediari","description_it":"Campus Google a Mountain View: nodo di committenza AI (Gemini e prodotti Google). Surge AI cita assegnazione progetti Google verso Data Annotators (class action 2025); Scale BI elenca Google tra clienti labeling. Pin HQ, non un data center di training.","description_en":"Google campus at Mountain View: AI contracting node (Gemini and Google products). Surge AI class action cites Google project assignment to Data Annotators (2025); Business Insider lists Google among Scale labeling clients. HQ pin, not a training data center.","country":"US","city":"Mountain View","site_category":"manufacturing","status":"operational","opened_year":null,"updated_at":"2026-09-29","confidence":"medium","employment":{"direct":null,"indirect_est":null,"contractors_est":null,"note_it":"Organico Google non fissato in scheda; arco trains via Surge/Scale, non payroll Google→Filippine.","note_en":"Google headcount not fixed here; trains edge via Surge/Scale, not Google payroll→Philippines.","conditions_tags":["high_skill"]},"labor_risks":[],"community_impact_it":"Quarto lab Big Tech nel corridoio lavoro dati (con OpenAI, Meta, Anthropic).","community_impact_en":"Fourth Big Tech lab on the data-labor corridor (with OpenAI, Meta, Anthropic).","sources":[{"title":"Clarkson — Surge assigns projects for Google (complaint)","url":"https://clarksonlawfirm.com/wp-content/uploads/2025/05/2025.05.20-Surge-Labs.pdf","accessed_at":"2026-09-29"},{"title":"Business Insider — Scale AI clients include Google","url":"https://www.businessinsider.com/scale-ai-outlier-training-harmful-ai-prompts-2025-04","accessed_at":"2026-09-29"},{"title":"OpenStreetMap — Google Mountain View","url":"https://www.openstreetmap.org/search?query=Googleplex%20Mountain%20View","accessed_at":"2026-09-29"}]}}]}