{
  "type": "FeatureCollection",
  "features": [
    {
      "type": "Feature",
      "geometry": {
        "type": "Point",
        "coordinates": [
          8.7424,
          45.5202
        ]
      },
      "properties": {
        "id": "ep_001",
        "name": "Turbigo - Centrale a Ciclo Combinato",
        "type": "energy_plant",
        "subtype": "gas",
        "operator": "Iren",
        "capacity": "1.280-1.334 MW",
        "description_it": "Centrale termoelettrica a gas a ciclo combinato a Turbigo (Iren), circa 1.280–1.334 MW, inclusa un’unità da 430 MW entrata nel 2022. Immette nella stazione di trasmissione a 380 kV che le sta accanto. Da lì partono le linee il cui nome inizia per Turbigo, tra cui Turbigo–Ospiate verso la futura stazione di Poglianasca (Nerviano). Non risulta un offtake o un PPA verso un data center.",
        "description_en": "Combined-cycle gas plant at Turbigo (Iren), about 1,280–1,334 MW, including a 430 MW unit added in 2022. It injects into the 380 kV transmission station beside it. The lines whose names begin with Turbigo leave from there, including Turbigo–Ospiate toward the future Poglianasca substation at Nerviano. No offtake or PPA toward a data center is on record.",
        "country": "IT",
        "city": "Turbigo",
        "status": "operational",
        "site_category": "infrastructure",
        "opened_year": null,
        "updated_at": "2026-09-28",
        "confidence": "medium",
        "impact": {
          "capacity_mw": 1300,
          "power_draw_mw_est": null,
          "pue": null,
          "water_use_m3_year": null,
          "land_ha": null,
          "co2_t_year_est": null,
          "energy_mix_note_it": "Gas a ciclo combinato: elevata densità di potenza, emissioni di CO₂ e dipendenza dal gas.",
          "energy_mix_note_en": "Combined-cycle gas: high power density, CO₂ emissions and gas dependence."
        },
        "employment": {
          "direct": null,
          "indirect_est": null,
          "contractors_est": null,
          "note_it": "Centrale CCGT ~1,3 GW: organico operativo contenuto (turnisti, manutenzione) rispetto alla potenza. Appalti di manutenzione rilevanti; non confrontare i MW con i posti di lavoro come se fossero proporzionali.",
          "note_en": "CCGT plant ~1.3 GW: modest operating staff (shift workers, maintenance) relative to capacity. Significant maintenance contracting; do not treat MW and jobs as proportional.",
          "conditions_tags": [
            "shift_work",
            "high_skill"
          ]
        },
        "labor_risks": [],
        "sources": [
          {
            "title": "Iren — centrale Turbigo",
            "accessed_at": "2026-09-16",
            "note": "Capacità ~1.280–1.334 MW inclusa unità 2022"
          }
        ],
        "community_impact_it": "Impatto soprattutto emissivo, di gas e di rete locale. L’organico operativo è contenuto rispetto alla potenza. Non è l’allaccio dei data center milanesi.",
        "community_impact_en": "Impact is mainly emissions, gas and local-grid related. Operating headcount is modest relative to capacity. It is not the connection point for Milan-area data centers."
      }
    },
    {
      "type": "Feature",
      "geometry": {
        "type": "Point",
        "coordinates": [
          8.29,
          45.19
        ]
      },
      "properties": {
        "id": "ep_002",
        "name": "Enel Trino Solar Park",
        "type": "energy_plant",
        "subtype": "solar",
        "operator": "Enel Green Power",
        "capacity": "87 MW",
        "description_it": "Il più grande parco fotovoltaico del nord Italia, a Trino (Vercelli): ~87 MW, ~160.000 pannelli e sistema di accumulo. Operativo da giugno 2024 sull’area di un’ex centrale termoelettrica. Nello stesso territorio è previsto il Cavour Hyperscale Campus (dc_028) sulla ex Galileo Ferraris: nodo chiave energia↔AI in Piemonte.",
        "description_en": "Northern Italy’s largest solar farm, at Trino (Vercelli): ~87 MW, ~160,000 panels and a storage system. Operational since June 2024 on the site of a former thermal power plant. In the same area the Cavour Hyperscale Campus (dc_028) is planned on the former Galileo Ferraris site: a key energy↔AI node in Piedmont.",
        "country": "IT",
        "city": "Trino",
        "updated_at": "2026-09-27",
        "status": "operational",
        "impact": {
          "capacity_mw": 87,
          "power_draw_mw_est": null,
          "pue": null,
          "water_use_m3_year": null,
          "land_ha": null,
          "co2_t_year_est": null,
          "energy_mix_note_it": "Fotovoltaico utility-scale con accumulo; produzione stimata ~130 GWh/anno.",
          "energy_mix_note_en": "Utility-scale solar with storage; estimated output ~130 GWh/year."
        },
        "sources": [
          {
            "title": "Enel Green Power — Trino Solar Park",
            "accessed_at": "2026-09-27",
            "note": "Maggior FV Nord Italia; co-localizzazione con area industriale Trino"
          }
        ]
      }
    },
    {
      "type": "Feature",
      "geometry": {
        "type": "Point",
        "coordinates": [
          11.6,
          42.35
        ]
      },
      "properties": {
        "id": "ep_003",
        "name": "Montalto di Castro - Hub Solare",
        "type": "energy_plant",
        "subtype": "solar",
        "operator": "Enel / EDP Renewables / Iberdrola / CCE Italia",
        "capacity": "125+ MW (combinato)",
        "description_it": "Hub solare a Montalto di Castro, Lazio, con molteplici installazioni: Enel (9-10 MW nel complesso Alessandro Volta con moduli bifacciali), Castrum 13 di EDP Renewables (41 MW), Iberdrola (23 MW), CCE Italia (42 MW). Capacità combinata superiore a 125 MW, importante polo di energia rinnovabile nel Lazio.",
        "description_en": "Solar hub at Montalto di Castro, Lazio, with multiple installations: Enel (9–10 MW in the Alessandro Volta complex with bifacial modules), EDP Renewables’ Castrum 13 (41 MW), Iberdrola (23 MW), CCE Italia (42 MW). Combined capacity above 125 MW, a major renewable energy pole in Lazio.",
        "country": "IT",
        "city": "Montalto di Castro"
      }
    },
    {
      "type": "Feature",
      "geometry": {
        "type": "Point",
        "coordinates": [
          15.8997,
          41.2648
        ]
      },
      "properties": {
        "id": "ep_004",
        "name": "Cerignola Wind Farm",
        "type": "energy_plant",
        "subtype": "wind",
        "operator": "BKW",
        "capacity": "125 MW",
        "description_it": "Parco eolico di Cerignola in Puglia, circa 100 km a ovest di Bari. 29 turbine distribuite tra Cerignola Nord e Cerignola Sud, con produzione annua di oltre 310 GWh. Il più grande parco eolico di BKW fuori dalla Svizzera, commissionato nel gennaio 2026. La Puglia è leader in Italia per capacità eolica installata con 2,5 GW.",
        "description_en": "Cerignola wind farm in Apulia, about 100 km west of Bari. 29 turbines across Cerignola Nord and Cerignola Sud, with annual output over 310 GWh. BKW’s largest wind farm outside Switzerland, commissioned in January 2026. Apulia leads Italy for installed wind capacity at 2.5 GW.",
        "country": "IT",
        "city": "Cerignola"
      }
    },
    {
      "type": "Feature",
      "geometry": {
        "type": "Point",
        "coordinates": [
          15.0579,
          41.3584
        ]
      },
      "properties": {
        "id": "ep_005",
        "name": "Fortore Wind Farm (Repowering)",
        "type": "energy_plant",
        "subtype": "wind",
        "operator": "IVPC Group / Eurus Energy",
        "capacity": "134 MW",
        "description_it": "Parco eolico nel Fortore, provincia di Benevento, Campania. Progetto di repowering da 187 milioni di euro che sostituisce 140 turbine legacy con 17 turbine GE Vernova da 6,1 MW ciascuna. Chiusura finanziaria nel giugno 2026, consegne turbine previste dal Q2 2027. Uno dei più grandi progetti eolici in Italia.",
        "description_en": "Wind farm in the Fortore, Benevento province, Campania. €187 million repowering project replacing 140 legacy turbines with 17 GE Vernova turbines of 6.1 MW each. Financial close in June 2026, turbine deliveries expected from Q2 2027. One of Italy’s largest wind projects.",
        "country": "IT",
        "city": "Montefalcone di Val Fortore"
      }
    },
    {
      "type": "Feature",
      "geometry": {
        "type": "Point",
        "coordinates": [
          14.08,
          41.37
        ]
      },
      "properties": {
        "id": "ep_006",
        "name": "Presenzano - Centrale a Gas Edison",
        "type": "energy_plant",
        "subtype": "gas",
        "operator": "Edison",
        "capacity": "770 MW",
        "description_it": "Centrale termoelettrica a gas a ciclo combinato di ultima generazione a Presenzano, Caserta, Campania. Investimento di 450 milioni di euro, inaugurata nell'ottobre 2024. Utilizza turbina a gas GT36 H-class di Ansaldo Energia, una delle centrali a gas più efficienti d'Italia.",
        "description_en": "Next-generation combined-cycle gas plant at Presenzano, Caserta, Campania. €450 million investment, inaugurated in October 2024. Uses Ansaldo Energia’s GT36 H-class gas turbine; one of Italy’s most efficient gas plants.",
        "country": "IT",
        "city": "Presenzano"
      }
    },
    {
      "type": "Feature",
      "geometry": {
        "type": "Point",
        "coordinates": [
          19.8147,
          66.9541
        ]
      },
      "properties": {
        "id": "ep_007",
        "name": "Harsprånget - Centrale Idroelettrica",
        "type": "energy_plant",
        "subtype": "hydro",
        "operator": "Vattenfall",
        "capacity": "811 MW",
        "description_it": "Una delle più grandi centrali idroelettriche della Svezia, sul fiume Lule (Lule Älv) nella contea di Norrbotten, circa 8 km a valle di Porjus. Parte del portafoglio idroelettrico di Vattenfall di circa 100 centrali in Svezia (8.500 MW totali). Fonte di energia rinnovabile chiave per i data center del nord della Svezia, incluso il data center Meta di Luleå.",
        "description_en": "One of Sweden’s largest hydropower plants, on the Lule River (Lule Älv) in Norrbotten County, about 8 km downstream of Porjus. Part of Vattenfall’s hydropower portfolio of about 100 plants in Sweden (8,500 MW total). A key renewable source for northern Sweden data centers, including Meta’s Luleå facility.",
        "country": "SE",
        "city": "Jokkmokk",
        "employment": {
          "direct": null,
          "indirect_est": null,
          "contractors_est": null,
          "note_it": "Grande idroelettrico Vattenfall: organico di centrale tipicamente ridotto e altamente specializzato. Alimenta Meta Luleå via accordo di fornitura: il contrasto lavoro è tra pochi operatori di diga/centrale e i ~300 del campus Meta a valle.",
          "note_en": "Large Vattenfall hydro: plant staff typically small and highly specialized. Supplies Meta Luleå via a supply agreement: the labor contrast is between a few dam/plant operators and the ~300 at Meta’s downstream campus.",
          "conditions_tags": [
            "high_skill",
            "shift_work"
          ]
        },
        "labor_risks": [],
        "community_impact_it": "Bacino del Lule Älv: infrastruttura energetica storica del Norrbotten, oggi anche «carburante» dei data center artici.",
        "community_impact_en": "Lule Älv basin: historic Norrbotten energy infrastructure, today also «fuel» for Arctic data centers.",
        "updated_at": "2026-09-27"
      }
    },
    {
      "type": "Feature",
      "geometry": {
        "type": "Point",
        "coordinates": [
          19.8008,
          66.9587
        ]
      },
      "properties": {
        "id": "ep_008",
        "name": "Porjus - Centrale Idroelettrica",
        "type": "energy_plant",
        "subtype": "hydro",
        "operator": "Vattenfall",
        "capacity": "422 MW",
        "description_it": "Centrale idroelettrica sotterranea sul fiume Stora Luleälv nel comune di Jokkmokk, Svezia. Parte del sistema idroelettrico del fiume Lule che alimenta i data center nel nord della Svezia. Vattenfall sta pianificando espansioni con capacità aggiuntiva di 720 MW a partire dal 2026.",
        "description_en": "Underground hydropower plant on the Stora Luleälv in Jokkmokk municipality, Sweden. Part of the Lule River hydro system that supplies data centers in northern Sweden. Vattenfall is planning expansions with 720 MW of additional capacity from 2026.",
        "country": "SE",
        "city": "Jokkmokk"
      }
    },
    {
      "type": "Feature",
      "geometry": {
        "type": "Point",
        "coordinates": [
          12.1108,
          57.2597
        ]
      },
      "properties": {
        "id": "ep_009",
        "name": "Ringhals - Centrale Nucleare",
        "type": "energy_plant",
        "subtype": "nuclear",
        "operator": "Vattenfall (70,4%) / Uniper (29,6%)",
        "capacity": "2.190 MW (2 reattori operativi)",
        "description_it": "La più grande centrale elettrica della Scandinavia, sulla penisola di Värö, circa 60 km a sud di Göteborg. Due reattori operativi (Unità 3: 1.074 MW, Unità 4: 1.130 MW) che generano circa il 20% dell'energia elettrica svedese (circa 24 TWh/anno). Vattenfall sta esplorando nuova capacità nucleare con piccoli reattori modulari (SMR) per ulteriori 1.500 MW.",
        "description_en": "Scandinavia’s largest power plant, on the Värö peninsula about 60 km south of Gothenburg. Two operating reactors (Unit 3: 1,074 MW, Unit 4: 1,130 MW) generating about 20% of Sweden’s electricity (around 24 TWh/year). Vattenfall is exploring new nuclear capacity with small modular reactors (SMR) for a further 1,500 MW.",
        "country": "SE",
        "city": "Varberg"
      }
    },
    {
      "type": "Feature",
      "geometry": {
        "type": "Point",
        "coordinates": [
          21.4433,
          61.2371
        ]
      },
      "properties": {
        "id": "ep_010",
        "name": "Olkiluoto - Centrale Nucleare",
        "type": "energy_plant",
        "subtype": "nuclear",
        "operator": "Teollisuuden Voima (TVO)",
        "capacity": "2.800 MW (3 reattori)",
        "description_it": "Centrale nucleare a Eurajoki, Satakunta, nel sud-ovest della Finlandia. Tre reattori: Olkiluoto 1 e 2 (BWR, 860-890 MW ciascuno) e Olkiluoto 3 (EPR, 1.600 MW), il primo reattore EPR in Europa, operativo commercialmente dall'aprile 2023. Olkiluoto 3 produce circa il 14% dell'elettricità finlandese.",
        "description_en": "Nuclear plant at Eurajoki, Satakunta, in southwestern Finland. Three reactors: Olkiluoto 1 and 2 (BWR, 860–890 MW each) and Olkiluoto 3 (EPR, 1,600 MW), Europe’s first EPR reactor, commercially operational since April 2023. Olkiluoto 3 produces about 14% of Finland’s electricity.",
        "country": "FI",
        "city": "Eurajoki"
      }
    },
    {
      "type": "Feature",
      "geometry": {
        "type": "Point",
        "coordinates": [
          11.76,
          42.25
        ]
      },
      "properties": {
        "id": "ep_011",
        "name": "Tarquinia - Impianto Agrivoltaico Enel",
        "type": "energy_plant",
        "subtype": "solar",
        "operator": "Enel Green Power",
        "capacity": "170 MW (circa)",
        "description_it": "Il più grande impianto agrivoltaico d'Italia, in costruzione a Tarquinia, Lazio. Circa 170 MW di capacità, annunciato nel marzo 2023 da Enel Green Power. Combina produzione di energia solare con attività agricole, rappresentando un modello innovativo di uso del suolo.",
        "description_en": "Italy’s largest agrivoltaic plant, under construction at Tarquinia, Lazio. About 170 MW capacity, announced in March 2023 by Enel Green Power. Combines solar generation with farming, an innovative land-use model.",
        "country": "IT",
        "city": "Tarquinia"
      }
    },
    {
      "type": "Feature",
      "geometry": {
        "type": "Point",
        "coordinates": [
          16,
          41.1
        ]
      },
      "properties": {
        "id": "ep_012",
        "name": "Edison Wind Operations - Sud Italia",
        "type": "energy_plant",
        "subtype": "wind",
        "operator": "Edison",
        "capacity": "1.100 MW (installati totali)",
        "description_it": "Edison è il secondo operatore eolico in Italia (~1.100 MW installati, soprattutto Sud). Questo pin è un marker di portfolio (non un singolo parco). Parchi nominati in mappa: Troia (ep_021), Mazara del Vallo (ep_022), Castiglione Messer Marino (ep_024), Schiavi d’Abruzzo (ep_025); Fortore/Montefalcone già come ep_005. Copertura intenzionale oltre il sottocampionamento WRI sull’eolico IT.",
        "country": "IT",
        "city": "Puglia (distribuito)",
        "description_en": "Edison is Italy’s second wind operator (~1,100 MW installed, mainly in the South). This pin is a portfolio marker (not a single farm). Named farms on the map: Troia (ep_021), Mazara del Vallo (ep_022), Castiglione Messer Marino (ep_024), Schiavi d’Abruzzo (ep_025); Fortore/Montefalcone already as ep_005. Intentional coverage beyond WRI’s thin Italian wind sample.",
        "updated_at": "2026-09-29",
        "confidence": "medium",
        "status": "operational",
        "site_category": "infrastructure"
      }
    },
    {
      "type": "Feature",
      "geometry": {
        "type": "Point",
        "coordinates": [
          21.6991,
          62.1927
        ]
      },
      "properties": {
        "id": "ep_013",
        "name": "Lakiakangas 1+2 - Parco Eolico",
        "type": "energy_plant",
        "subtype": "wind",
        "operator": "CPC Finland / Ardian",
        "capacity": "57,3 MW",
        "description_it": "Parco eolico a Isojoki/Kristiinankaupunki (Finlandia occidentale), 14 turbine Vestas per 57,3 MW. Lakiakangas 2 è stato finanziato con il primo PPA eolico finlandese di Google, esplicitamente collegato al data center di Hamina.",
        "description_en": "Wind farm at Isojoki/Kristiinankaupunki (western Finland), 14 Vestas turbines for 57.3 MW. Lakiakangas 2 was financed with Google’s first Finnish wind PPA, explicitly tied to the Hamina data center.",
        "country": "FI",
        "city": "Isojoki",
        "status": "operational",
        "site_category": "infrastructure",
        "opened_year": 2019,
        "updated_at": "2026-09-27",
        "confidence": "high",
        "impact": {
          "capacity_mw": 57.3,
          "power_draw_mw_est": null,
          "pue": null,
          "water_use_m3_year": null,
          "land_ha": null,
          "co2_t_year_est": null,
          "energy_mix_note_it": "Eolico onshore; PPA Google verso la rete di Hamina.",
          "energy_mix_note_en": "Onshore wind; Google PPA toward the Hamina grid."
        },
        "sources": [
          {
            "title": "CPC Finland — Lakiakangas 1+2",
            "url": "https://cpc-finland.com/projekt/lakiakangas-1-2/",
            "accessed_at": "2026-09-27"
          }
        ],
        "employment": {
          "direct": null,
          "indirect_est": null,
          "contractors_est": null,
          "note_it": "Parco eolico: pochi posti permanenti di O&M dopo il cantiere. Il PPA Google→Hamina sposta valore energetico, non crea un polo occupazionale comparabile a una fab o a una miniera.",
          "note_en": "Wind farm: few permanent O&M jobs after construction. The Google→Hamina PPA shifts energy value; it does not create an employment pole comparable to a fab or a mine.",
          "conditions_tags": [
            "construction_phase"
          ]
        },
        "labor_risks": [
          "construction_phase"
        ],
        "community_impact_it": "Impatto locale tipico dell’eolico onshore (paesaggio, cantiere breve, O&M ridotto).",
        "community_impact_en": "Typical local impact of onshore wind (landscape, short construction phase, limited O&M)."
      }
    },
    {
      "type": "Feature",
      "geometry": {
        "type": "Point",
        "coordinates": [
          26.7515,
          64.1452
        ]
      },
      "properties": {
        "id": "ep_014",
        "name": "Piiparinmäki - Parco Eolico",
        "type": "energy_plant",
        "subtype": "wind",
        "operator": "Ilmatar Energy",
        "capacity": "211 MW",
        "description_it": "Uno dei maggiori parchi eolici finlandesi (41 turbine, 211 MW) sul confine Kajaani–Pyhäntä. Google ha firmato un PPA per 125 MW della produzione a servizio del campus di Hamina.",
        "description_en": "One of Finland’s largest wind farms (41 turbines, 211 MW) on the Kajaani–Pyhäntä border. Google signed a PPA for 125 MW of output serving the Hamina campus.",
        "country": "FI",
        "city": "Pyhäntä / Kajaani",
        "status": "operational",
        "site_category": "infrastructure",
        "opened_year": 2021,
        "updated_at": "2026-09-27",
        "confidence": "high",
        "impact": {
          "capacity_mw": 211,
          "power_draw_mw_est": null,
          "pue": null,
          "water_use_m3_year": null,
          "land_ha": null,
          "co2_t_year_est": null,
          "energy_mix_note_it": "Eolico onshore; 125 MW sotto PPA Google per Hamina.",
          "energy_mix_note_en": "Onshore wind; 125 MW under Google PPA for Hamina."
        },
        "sources": [
          {
            "title": "Ilmatar — accordo Google / Piiparinmäki",
            "url": "https://ilmatar.com/news/ilmatar-energy-announces-new-wind-farm-adding-new-clean-energy-to-the-grid/",
            "accessed_at": "2026-09-27"
          }
        ],
        "employment": {
          "direct": null,
          "indirect_est": null,
          "contractors_est": null,
          "note_it": "211 MW, 41 turbine: occupazione permanente di gestione molto inferiore al carico di lavoro del cantiere. Serve Hamina via PPA, non come fabbrica di posti locali.",
          "note_en": "211 MW, 41 turbines: permanent operating jobs far below construction workload. Serves Hamina via PPA, not as a local job factory.",
          "conditions_tags": [
            "construction_phase"
          ]
        },
        "labor_risks": [
          "construction_phase"
        ],
        "community_impact_it": "Ricavi fiscali locali rilevanti per i comuni ospitanti; posti permanenti limitati rispetto alla potenza.",
        "community_impact_en": "Meaningful local tax revenue for host municipalities; permanent jobs limited relative to capacity."
      }
    },
    {
      "type": "Feature",
      "geometry": {
        "type": "Point",
        "coordinates": [
          -7.8529,
          54.8845
        ]
      },
      "properties": {
        "id": "ep_015",
        "name": "Lenalea Wind Farm",
        "type": "energy_plant",
        "subtype": "wind",
        "operator": "SSE Renewables / FuturEnergy Ireland",
        "capacity": "30,1 MW",
        "description_it": "Parco eolico onshore da 7 turbine Vestas (30,1 MW) a sud-ovest di Letterkenny, Donegal. Operativo dalla fine del 2023. Sotto CPPA Microsoft: l'elettricità contribuisce all'obiettivo di alimentare i data center irlandesi al 100% con rinnovabili entro il 2025.",
        "description_en": "Onshore wind farm with 7 Vestas turbines (30.1 MW) southwest of Letterkenny, Donegal. Operational since late 2023. Under a Microsoft CPPA: the power contributes to the goal of supplying Irish data centers with 100% renewables by 2025.",
        "country": "IE",
        "city": "Letterkenny",
        "status": "operational",
        "site_category": "infrastructure",
        "opened_year": 2023,
        "updated_at": "2026-09-27",
        "confidence": "high",
        "impact": {
          "capacity_mw": 30.1,
          "power_draw_mw_est": null,
          "pue": null,
          "water_use_m3_year": null,
          "land_ha": null,
          "co2_t_year_est": null,
          "energy_mix_note_it": "Eolico onshore; CPPA Microsoft verso i data center in Irlanda.",
          "energy_mix_note_en": "Onshore wind; Microsoft CPPA toward data centers in Ireland."
        },
        "sources": [
          {
            "title": "Lenalea Wind Farm — CPPA Microsoft",
            "url": "https://lenaleawindfarm.com/",
            "accessed_at": "2026-09-27"
          }
        ],
        "employment": {
          "direct": null,
          "indirect_est": null,
          "contractors_est": null,
          "note_it": "7 turbine / 30 MW: dopo il commissioning restano principalmente ruoli O&M. Il CPPA Microsoft è un contratto energetico, non un piano occupazionale per Donegal.",
          "note_en": "7 turbines / 30 MW: after commissioning mainly O&M roles remain. The Microsoft CPPA is an energy contract, not an employment plan for Donegal.",
          "conditions_tags": [
            "construction_phase"
          ]
        },
        "labor_risks": [
          "construction_phase"
        ],
        "community_impact_it": "Progetto rurale in Donegal: beneficio energetico/fiscale più che occupazionale di massa.",
        "community_impact_en": "Rural Donegal project: energy/fiscal benefit more than mass employment."
      }
    },
    {
      "type": "Feature",
      "geometry": {
        "type": "Point",
        "coordinates": [
          14.13459,
          58.227572
        ]
      },
      "properties": {
        "id": "ep_016",
        "name": "Fågelås - Parco Eolico",
        "type": "energy_plant",
        "subtype": "wind",
        "operator": "Eolus / Mirova",
        "capacity": "31,5 MW",
        "description_it": "Parco eolico onshore a Hjo (Västra Götaland), 7 turbine per 31,5 MW, parte del portafoglio Saena. Operativo; Amazon ha firmato un PPA sul progetto nell'ambito di circa 1 GW di capacità eolica contrattata in Svezia a supporto della regione AWS Europe (Stoccolma).",
        "description_en": "Onshore wind farm at Hjo (Västra Götaland), 7 turbines for 31.5 MW, part of the Saena portfolio. Operational; Amazon signed a PPA on the project within about 1 GW of wind capacity contracted in Sweden to support the AWS Europe region (Stockholm).",
        "country": "SE",
        "city": "Hjo",
        "status": "operational",
        "site_category": "infrastructure",
        "opened_year": 2025,
        "updated_at": "2026-09-27",
        "confidence": "high",
        "impact": {
          "capacity_mw": 31.5,
          "power_draw_mw_est": null,
          "pue": null,
          "water_use_m3_year": null,
          "land_ha": null,
          "co2_t_year_est": null,
          "energy_mix_note_it": "Eolico onshore SE3; PPA Amazon per operazioni svedesi / regione Stoccolma.",
          "energy_mix_note_en": "Onshore wind SE3; Amazon PPA for Swedish operations / Stockholm region."
        },
        "sources": [
          {
            "title": "Eolus — Fågelås",
            "url": "https://www.eolus.com/en/projects/fagelas/",
            "accessed_at": "2026-09-27"
          },
          {
            "title": "Amazon Sverige — PPA eolici in Svezia",
            "url": "https://www.mynewsdesk.com/se/amazonsverige/pressreleases/amazon-investerar-i-fyra-nya-vindkraftsprojekt-i-sverige-totala-portfoeljen-av-koldioxidfri-energi-kan-foersoerja-motsvarande-350-000-hushaall-3462370",
            "accessed_at": "2026-09-27"
          }
        ],
        "employment": {
          "direct": null,
          "indirect_est": null,
          "contractors_est": null,
          "note_it": "Parco Saena operativo: pochi posti O&M permanenti. Il PPA Amazon collega il lavoro del cantiere eolico alla regione AWS Stoccolma, dove l’occupazione DC resta opaca e contenuta.",
          "note_en": "Operational Saena farm: few permanent O&M jobs. The Amazon PPA links wind-construction work to the AWS Stockholm region, where DC employment remains opaque and limited.",
          "conditions_tags": [
            "construction_phase"
          ]
        },
        "labor_risks": [
          "construction_phase"
        ],
        "community_impact_it": "Eolico in SE3: pressione paesaggistica locale vs contributi a rete e contratti PPA hyperscale.",
        "community_impact_en": "Wind in SE3: local landscape pressure vs grid contributions and hyperscale PPA contracts."
      }
    },
    {
      "type": "Feature",
      "geometry": {
        "type": "Point",
        "coordinates": [
          9.355,
          45.094
        ]
      },
      "properties": {
        "id": "ep_017",
        "name": "Neoen Arena Po — Parco fotovoltaico",
        "type": "energy_plant",
        "subtype": "solar",
        "operator": "Neoen",
        "capacity": "7.4 MWp",
        "description_it": "Primo parco solare Neoen in Italia, nel comune di Arena Po (Pavia/Lombardia): 7,4 MWp, iniezione in rete dall’inizio del 2026, produzione attesa ~11,9 GWh/anno. Fa parte del portfolio di sette impianti nord-italiani del PPA decennale da 53 MW con Equinix (novembre 2024), a supporto dei data center Equinix di Milano e Genova. È un PPA virtuale di portfolio, non un cavo dedicato a un singolo campus. Pin approssimato sul comune di Arena Po.",
        "description_en": "Neoen’s first solar farm in Italy, in the municipality of Arena Po (Pavia/Lombardy): 7.4 MWp, injecting into the grid since early 2026, expected output ~11.9 GWh/year. It is part of the seven northern-Italy plants under Neoen’s 10-year 53 MW PPA with Equinix (November 2024), supporting Equinix data centers in Milan and Genoa. It is a virtual portfolio PPA, not a dedicated cable to a single campus. Approximate pin on the Arena Po municipality.",
        "country": "IT",
        "city": "Arena Po",
        "status": "operational",
        "site_category": "infrastructure",
        "opened_year": 2026,
        "updated_at": "2026-09-29",
        "confidence": "medium",
        "impact": {
          "capacity_mw": 7.4,
          "power_draw_mw_est": null,
          "pue": null,
          "water_use_m3_year": null,
          "land_ha": null,
          "co2_t_year_est": null,
          "energy_mix_note_it": "Fotovoltaico; PPA virtuale Equinix (portfolio 53 MW).",
          "energy_mix_note_en": "Solar; virtual Equinix PPA (53 MW portfolio)."
        },
        "employment": {
          "direct": null,
          "indirect_est": null,
          "contractors_est": null,
          "note_it": "Impianto FV di piccola-media taglia: organico operativo contenuto.",
          "note_en": "Small-to-medium solar plant: modest operating staff.",
          "conditions_tags": [
            "high_skill"
          ]
        },
        "labor_risks": [],
        "sources": [
          {
            "title": "Neoen — inaugurazione Arena Po (PPA Equinix)",
            "url": "https://neoen.com/en/news/2026/neoen-inaugurates-arena-po-its-first-solar-farm-in-italy-contracted-with-equinix/",
            "accessed_at": "2026-09-29"
          },
          {
            "title": "Neoen — primo PPA italiano con Equinix (53 MW)",
            "url": "https://neoen.com/en/news/2024/neoen-and-equinix-sign-their-first-ppa-in-italy-supporting-decarbonization-of-the-local-grid/",
            "accessed_at": "2026-09-29",
            "note": "Portfolio di sette progetti nel Nord Italia; virtual PPA"
          }
        ],
        "community_impact_it": "Impatto locale tipico di un FV di piccola-media taglia su suolo agricolo. Il legame con Equinix è contrattuale (PPA), non un allaccio fisico al campus.",
        "community_impact_en": "Typical local impact of a small-to-medium solar plant on agricultural land. The Equinix link is contractual (PPA), not a physical campus connection."
      }
    },
    {
      "type": "Feature",
      "geometry": {
        "type": "Point",
        "coordinates": [
          9.4364,
          45.3325
        ]
      },
      "properties": {
        "id": "ep_018",
        "name": "Tavazzano / Montanaso — Centrale TTEP",
        "type": "energy_plant",
        "subtype": "gas",
        "operator": "EP Produzione (TTEP)",
        "capacity": "~1.520 MW (WRI / schede storiche)",
        "description_it": "Centrale termoelettrica a gas di Tavazzano e Montanaso (LO), storica unità del sistema elettrico lombardo (oggi EP Produzione / TTEP). Nel perimetro o sui terreni adiacenti è previsto il campus Vantage MXP4 (dc_034), dichiarato di interesse strategico nazionale. Non risulta un PPA o offtake nominato Vantage↔TTEP: il legame in mappa è powers likely per co-locazione sullo stesso nodo.",
        "description_en": "Gas-fired power plant at Tavazzano and Montanaso (LO), a long-standing unit of the Lombardy system (now EP Produzione / TTEP). Vantage’s MXP4 campus (dc_034) is planned inside/beside the plant perimeter and carries national strategic status. No named Vantage↔TTEP PPA or offtake is on record: the map link is powers likely for same-node co-location.",
        "country": "IT",
        "city": "Tavazzano con Villavesco",
        "status": "operational",
        "site_category": "infrastructure",
        "opened_year": null,
        "updated_at": "2026-09-29",
        "confidence": "medium",
        "impact": {
          "capacity_mw": 1520,
          "power_draw_mw_est": null,
          "pue": null,
          "water_use_m3_year": null,
          "land_ha": null,
          "co2_t_year_est": null,
          "energy_mix_note_it": "Gas termoelettrico; densità di potenza elevata. Il data center MXP4 è co-locato, non un offtake documentato.",
          "energy_mix_note_en": "Thermal gas; high power density. The MXP4 data center is co-located, not a documented offtake."
        },
        "employment": {
          "direct": null,
          "indirect_est": null,
          "contractors_est": null,
          "note_it": "Centrale CCGT di grande taglia: organico operativo contenuto rispetto ai MW; manutenzione in appalto.",
          "note_en": "Large CCGT plant: modest operating staff relative to MW; contracted maintenance.",
          "conditions_tags": [
            "shift_work",
            "high_skill"
          ]
        },
        "labor_risks": [],
        "sources": [
          {
            "title": "WRI Global Power Plant Database — Tavazzano",
            "url": "https://datasets.wri.org/datasets/global-power-plant-database",
            "accessed_at": "2026-09-29",
            "note": "Record import ~1.520 MW; coordinate usate come pin"
          },
          {
            "title": "Il Cittadino — Vantage nella centrale di Tavazzano",
            "url": "https://www.ilcittadino.it/stories/premium/centro_lodigiano/il-data-center-della-multinazionale-vantage-sara-nella-centrale-di-tavazzano-o_205632_96/",
            "accessed_at": "2026-09-29"
          },
          {
            "title": "Il Cittadino — maxi data center accanto a TTEP",
            "url": "https://www.ilcittadino.it/stories/premium/centro_lodigiano/arriva-un-nuovo-maxi-data-center-o_203721_96/",
            "accessed_at": "2026-09-29"
          }
        ],
        "community_impact_it": "Nodo energetico lodigiano già carico; l’arrivo di MXP4 riapre il dibattito su emissioni, suolo e ruolo della centrale.",
        "community_impact_en": "Already loaded Lodi-area energy node; MXP4’s arrival reopens debate on emissions, land use and the plant’s role."
      }
    },
    {
      "type": "Feature",
      "geometry": {
        "type": "Point",
        "coordinates": [
          11.9488,
          42.4168
        ]
      },
      "properties": {
        "id": "ep_019",
        "name": "Edison — Parco fotovoltaico PPA Data4 (provincia di Viterbo)",
        "type": "energy_plant",
        "subtype": "solar",
        "operator": "Edison Energia",
        "capacity": "148 MWp",
        "description_it": "Parco fotovoltaico di nuova costruzione da 148 MWp in provincia di Viterbo, oggetto del PPA decennale Edison Energia–Data4 (marzo 2025). Fornirà oltre 500 GWh in dieci anni, circa il 10% dei consumi Data4 in Italia. Il comunicato non pubblica nome commerciale né comune esatto: pin approssimato sulla provincia di Viterbo. È un PPA virtuale/contrattuale, non un cavo verso Cornaredo.",
        "description_en": "Newly built 148 MWp solar park in Viterbo province under the Edison Energia–Data4 10-year PPA (March 2025). It will supply over 500 GWh across ten years, about 10% of Data4’s Italian consumption. Releases do not name the plant or exact municipality: approximate pin on Viterbo province. It is a contractual/virtual PPA, not a cable to Cornaredo.",
        "country": "IT",
        "city": "Viterbo (provincia)",
        "status": "under_construction",
        "site_category": "infrastructure",
        "opened_year": null,
        "updated_at": "2026-09-29",
        "confidence": "medium",
        "impact": {
          "capacity_mw": 148,
          "power_draw_mw_est": null,
          "pue": null,
          "water_use_m3_year": null,
          "land_ha": null,
          "co2_t_year_est": null,
          "energy_mix_note_it": "Fotovoltaico; PPA Data4 (baseload dichiarato >500 GWh/10 anni).",
          "energy_mix_note_en": "Solar; Data4 PPA (declared baseload >500 GWh/10 years)."
        },
        "employment": {
          "direct": null,
          "indirect_est": null,
          "contractors_est": null,
          "note_it": "Impianto FV utility-scale: organico operativo contenuto; dettaglio non in comunicato.",
          "note_en": "Utility-scale solar plant: modest operating staff; detail not in the release.",
          "conditions_tags": [
            "high_skill"
          ]
        },
        "labor_risks": [],
        "sources": [
          {
            "title": "Data4 × Edison Energia — PPA FV Viterbo (PDF)",
            "url": "https://www.data4group.com/wp-content/uploads/2025/04/PPA-Data4-x-Edison-Italy_Ita_eng.pdf",
            "accessed_at": "2026-09-29",
            "note": "148 MWp; >500 GWh/10 anni; ~10% consumi Data4 Italia"
          },
          {
            "title": "La Provincia di Viterbo — accordo Data4/Edison",
            "url": "https://laprovinciaviterbo.it/2025/03/04/accorso-data4-ed-edison-energia-per-nuovo-mega-impianto-di-rinnovabili-nel-viterbese/",
            "accessed_at": "2026-09-29"
          }
        ],
        "community_impact_it": "Nuovo FV utility-scale nel Viterbese a servizio contrattuale di un operatore data center; impatto suolo/paesaggio locale tipico del fotovoltaico a terra.",
        "community_impact_en": "New utility-scale solar in the Viterbo area under contract to a data-center operator; typical ground-mounted PV land/landscape impact."
      }
    },
    {
      "type": "Feature",
      "geometry": {
        "type": "Point",
        "coordinates": [
          8.865,
          45.102
        ]
      },
      "properties": {
        "id": "ep_020",
        "name": "Eni Blue Power — nuova CCGT con CCS (Ferrera Erbognone)",
        "type": "energy_plant",
        "subtype": "gas",
        "operator": "Eni",
        "capacity": "N/D (progetto; alimentazione dichiarata del campus AI 500 MW IT)",
        "description_it": "Nuova centrale a gas a ciclo combinato ad alta efficienza prevista da Eni a Ferrera Erbognone, progettata per catturare la CO₂ e conferirla all’hub CCS di Ravenna («Blue Power»). Nell’Head of Terms Eni–Khazna (luglio 2025) è la fonte dichiarata di alimentazione dell’AI Data Center Campus sullo stesso polo. Distinta dalla centrale Enipower già in esercizio nel comune. Pin approssimato sul polo industriale di Ferrera Erbognone.",
        "description_en": "New high-efficiency combined-cycle gas plant planned by Eni at Ferrera Erbognone, designed to capture CO₂ and send it to the Ravenna CCS hub («Blue Power»). In the Eni–Khazna Head of Terms (July 2025) it is the declared supply source for the AI Data Center Campus on the same hub. Distinct from the existing Enipower plant in the municipality. Approximate pin on the Ferrera Erbognone industrial hub.",
        "country": "IT",
        "city": "Ferrera Erbognone",
        "status": "planned",
        "site_category": "infrastructure",
        "opened_year": null,
        "updated_at": "2026-09-29",
        "confidence": "medium",
        "impact": {
          "capacity_mw": null,
          "power_draw_mw_est": null,
          "pue": null,
          "water_use_m3_year": null,
          "land_ha": null,
          "co2_t_year_est": null,
          "energy_mix_note_it": "Gas con cattura CO₂ dichiarata (Blue Power). Impianto non ancora in esercizio; legame col campus = HoT, non PPA eseguito.",
          "energy_mix_note_en": "Gas with declared CO₂ capture (Blue Power). Plant not yet in operation; campus link = HoT, not an executed PPA."
        },
        "sources": [
          {
            "title": "Eni — HoT Khazna / Blue Power",
            "url": "https://www.eni.com/it-IT/media/comunicati-stampa/2025/07/cs-khazna-data-centers-eni-comunita-insieme-sviluppo-ai-data-center-campus.html",
            "accessed_at": "2026-09-29"
          },
          {
            "title": "Khazna — Blue Power / CCGT with CCS",
            "url": "https://khaznadatacenters.com/press-release/khazna-data-centers-and-eni-partner-to-develop-500-mw-ai-data-center-campus-near-milan/",
            "accessed_at": "2026-09-29"
          }
        ]
      }
    },
    {
      "type": "Feature",
      "geometry": {
        "type": "Point",
        "coordinates": [
          15.31235,
          41.36313
        ]
      },
      "properties": {
        "id": "ep_021",
        "name": "Parco eolico Troia (FG) — Edison / Sud",
        "type": "energy_plant",
        "subtype": "wind",
        "operator": "Edison / E2i",
        "capacity": "MW sito N/D in scheda aperta; nodo del portfolio Edison (Troia, FG)",
        "description_it": "Parco eolico nell’area di Troia (Foggia), citato da Edison tra gli impianti collegati in rete nel pacchetto Sud (Abruzzo–Basilicata–Campania–Puglia–Sicilia). Pin a livello comunale: supera il sottocampionamento WRI sull’eolico italiano con un nodo nominato del secondo operatore nazionale. Distinto dal progetto Troia Wind 64,8 MW in VIA (altro proponente).",
        "description_en": "Wind farm in the Troia (Foggia) area, named by Edison among grid-connected Southern plants (Abruzzo–Basilicata–Campania–Apulia–Sicily). Municipal-level pin: fills WRI’s thin Italian wind sample with a named node of the country’s second operator. Distinct from the Troia Wind 64.8 MW EIA project (other proponent).",
        "country": "IT",
        "city": "Troia",
        "status": "operational",
        "site_category": "infrastructure",
        "opened_year": null,
        "updated_at": "2026-09-29",
        "confidence": "medium",
        "impact": {
          "capacity_mw": null,
          "power_draw_mw_est": null,
          "pue": null,
          "water_use_m3_year": null,
          "land_ha": null,
          "co2_t_year_est": null,
          "energy_mix_note_it": "Eolico onshore puglieses; MW del singolo sito non pubblicati nella scheda Edison consultata.",
          "energy_mix_note_en": "Apulian onshore wind; single-site MW not published in the consulted Edison factsheet."
        },
        "community_impact_it": "Pressione tipica di parco eolico su crinale/agro pugliese; dibattito locale su paesaggio e allacci.",
        "community_impact_en": "Typical wind-farm pressure on Apulian ridge/farmland; local debate on landscape and grid connections.",
        "sources": [
          {
            "title": "Edison — Wind power (portfolio Sud, Troia FG)",
            "url": "https://www.edison.it/en/wind-power",
            "accessed_at": "2026-09-29",
            "note": "Cita Troia (Foggia) tra gli impianti collegati"
          }
        ]
      }
    },
    {
      "type": "Feature",
      "geometry": {
        "type": "Point",
        "coordinates": [
          12.58869,
          37.65373
        ]
      },
      "properties": {
        "id": "ep_022",
        "name": "Parco eolico Mazara del Vallo — Edison",
        "type": "energy_plant",
        "subtype": "wind",
        "operator": "Edison / E2i",
        "capacity": "MW sito N/D; nodo portfolio Edison Sicilia",
        "description_it": "Parco eolico Edison a Mazara del Vallo (Trapani), citato tra gli impianti Sud collegati in rete. Pin comunale siciliano per dare geografia all’eolico oltre i pochi record WRI; collega il racconto rinnovabili al corridoio mediterraneo (cavi/landing).",
        "description_en": "Edison wind farm at Mazara del Vallo (Trapani), named among Southern grid-connected plants. Municipal Sicilian pin to give geography to wind beyond sparse WRI records; ties renewables to the Mediterranean cable/landing corridor.",
        "country": "IT",
        "city": "Mazara del Vallo",
        "status": "operational",
        "site_category": "infrastructure",
        "opened_year": null,
        "updated_at": "2026-09-29",
        "confidence": "medium",
        "impact": {
          "capacity_mw": null,
          "power_draw_mw_est": null,
          "pue": null,
          "water_use_m3_year": null,
          "land_ha": null,
          "co2_t_year_est": null,
          "energy_mix_note_it": "Eolico onshore siciliano; MW sito non in scheda aperta consultata.",
          "energy_mix_note_en": "Sicilian onshore wind; site MW not in the consulted open factsheet."
        },
        "community_impact_it": "Impatto paesaggistico tipico dell’eolico costiero/entroterra trapanese.",
        "community_impact_en": "Typical landscape impact of coastal/inland Trapani-area wind.",
        "sources": [
          {
            "title": "Edison — Wind power (Mazara del Vallo)",
            "url": "https://www.edison.it/en/wind-power",
            "accessed_at": "2026-09-29"
          }
        ]
      }
    },
    {
      "type": "Feature",
      "geometry": {
        "type": "Point",
        "coordinates": [
          13.09541,
          37.89719
        ]
      },
      "properties": {
        "id": "ep_023",
        "name": "Parco eolico Camporeale — ERG (repowering)",
        "type": "energy_plant",
        "subtype": "wind",
        "operator": "ERG",
        "capacity": "~50,4 MW post-repowering (fonti di settore)",
        "description_it": "Parco eolico ERG a Camporeale (Palermo), tra i nodi del primo operatore eolico italiano (~1.468 MW IT). Repowering tecnologico riportato a ~50,4 MW. Pin comunale: segnale geografico dell’eolico ERG in Sicilia oltre WRI.",
        "description_en": "ERG wind farm at Camporeale (Palermo), among nodes of Italy’s leading wind operator (~1,468 MW IT). Technology repowering reported at ~50.4 MW. Municipal pin: geographic signal for ERG wind in Sicily beyond WRI.",
        "country": "IT",
        "city": "Camporeale",
        "status": "operational",
        "site_category": "infrastructure",
        "opened_year": null,
        "updated_at": "2026-09-29",
        "confidence": "medium",
        "impact": {
          "capacity_mw": 50.4,
          "power_draw_mw_est": null,
          "pue": null,
          "water_use_m3_year": null,
          "land_ha": null,
          "co2_t_year_est": null,
          "energy_mix_note_it": "Eolico onshore; ERG leader nazionale. Capacità post-repowering da fonti di settore.",
          "energy_mix_note_en": "Onshore wind; ERG national leader. Post-repowering capacity from industry sources."
        },
        "community_impact_it": "Repowering: meno turbine, potenze unitarie maggiori; dibattiti tipici su crinali siciliani.",
        "community_impact_en": "Repowering: fewer turbines, higher unit capacities; typical debates on Sicilian ridges.",
        "sources": [
          {
            "title": "ERG — Integrated Annual Report 2025 (wind IT leadership)",
            "url": "https://www.erg.eu/documents/10181/2174852/Bilancio+integrato-2025_ENG_20260605.pdf/05f5aca2-d329-950d-cea4-0c477b2eeaca",
            "accessed_at": "2026-09-29",
            "note": "~1.468 MW wind installed in Italy"
          },
          {
            "title": "Camporeale (comune) — ubicazione parco ERG",
            "url": "https://www.openstreetmap.org/relation/39168",
            "accessed_at": "2026-09-29",
            "note": "Pin comunale; lotto turbine da raffinare"
          }
        ]
      }
    },
    {
      "type": "Feature",
      "geometry": {
        "type": "Point",
        "coordinates": [
          14.45306,
          41.86825
        ]
      },
      "properties": {
        "id": "ep_024",
        "name": "Parco eolico Castiglione Messer Marino — Edison",
        "type": "energy_plant",
        "subtype": "wind",
        "operator": "Edison / E2i",
        "capacity": "MW sito N/D; nodo portfolio Edison Abruzzo",
        "description_it": "Parco eolico Edison a Castiglione Messer Marino (Chieti), citato tra gli impianti Sud collegati in rete (pacchetto Abruzzo). Pin comunale per densificare l’eolico centro-sud oltre WRI.",
        "description_en": "Edison wind farm at Castiglione Messer Marino (Chieti), named among Southern grid-connected plants (Abruzzo package). Municipal pin to densify central-southern wind beyond WRI.",
        "country": "IT",
        "city": "Castiglione Messer Marino",
        "status": "operational",
        "site_category": "infrastructure",
        "opened_year": null,
        "updated_at": "2026-09-29",
        "confidence": "medium",
        "impact": {
          "capacity_mw": null,
          "power_draw_mw_est": null,
          "pue": null,
          "water_use_m3_year": null,
          "land_ha": null,
          "co2_t_year_est": null,
          "energy_mix_note_it": "Eolico onshore abruzzese; MW sito non in scheda aperta consultata.",
          "energy_mix_note_en": "Abruzzo onshore wind; site MW not in the consulted open factsheet."
        },
        "community_impact_it": "Impatto tipico di parco su area interna abruzzese.",
        "community_impact_en": "Typical farm impact on an inland Abruzzo area.",
        "sources": [
          {
            "title": "Edison — Wind power (Castiglione Messer Marino)",
            "url": "https://www.edison.it/en/wind-power",
            "accessed_at": "2026-09-29"
          }
        ]
      }
    },
    {
      "type": "Feature",
      "geometry": {
        "type": "Point",
        "coordinates": [
          14.49411,
          41.77289
        ]
      },
      "properties": {
        "id": "ep_025",
        "name": "Parco eolico Schiavi d’Abruzzo — Edison",
        "type": "energy_plant",
        "subtype": "wind",
        "operator": "Edison / E2i",
        "capacity": "MW sito N/D; nodo portfolio Edison Abruzzo",
        "description_it": "Parco eolico Edison a Schiavi d’Abruzzo (Chieti), citato insieme a Castiglione Messer Marino nel pacchetto impianti Sud collegati in rete. Pin comunale; distinto da Fortore/Montefalcone (ep_005) in Campania.",
        "description_en": "Edison wind farm at Schiavi d’Abruzzo (Chieti), named with Castiglione Messer Marino in the Southern grid-connected package. Municipal pin; distinct from Fortore/Montefalcone (ep_005) in Campania.",
        "country": "IT",
        "city": "Schiavi d’Abruzzo",
        "status": "operational",
        "site_category": "infrastructure",
        "opened_year": null,
        "updated_at": "2026-09-29",
        "confidence": "medium",
        "impact": {
          "capacity_mw": null,
          "power_draw_mw_est": null,
          "pue": null,
          "water_use_m3_year": null,
          "land_ha": null,
          "co2_t_year_est": null,
          "energy_mix_note_it": "Eolico onshore abruzzese; MW sito non in scheda aperta consultata.",
          "energy_mix_note_en": "Abruzzo onshore wind; site MW not in the consulted open factsheet."
        },
        "community_impact_it": "Impatto tipico di parco su area interna abruzzese.",
        "community_impact_en": "Typical farm impact on an inland Abruzzo area.",
        "sources": [
          {
            "title": "Edison — Wind power (Schiavi d’Abruzzo)",
            "url": "https://www.edison.it/en/wind-power",
            "accessed_at": "2026-09-29"
          }
        ]
      }
    },
    {
      "type": "Feature",
      "geometry": {
        "type": "Point",
        "coordinates": [
          -6.3888,
          52.6161
        ]
      },
      "properties": {
        "id": "ep_026",
        "name": "Tullabeg Solar Farm",
        "type": "energy_plant",
        "subtype": "solar",
        "operator": "Power Capital Renewable Energy",
        "capacity": "~82 MW peak; PPA Google 58 MW new-to-grid",
        "description_it": "Parco solare a Tullabeg / Balloughter presso Camolin (Co. Wexford). PPA quattordicennale Google–Power Capital: 58 MW di capacità new-to-grid destinata a matching rinnovabile di uffici e data center Google in Irlanda.",
        "description_en": "Solar farm at Tullabeg / Balloughter near Camolin (Co. Wexford). Fourteen-year Google–Power Capital PPA: 58 MW of new-to-grid capacity for renewable matching of Google’s Ireland offices and data centre.",
        "country": "IE",
        "city": "Camolin",
        "status": "operational",
        "site_category": "infrastructure",
        "opened_year": 2024,
        "updated_at": "2026-10-08",
        "confidence": "high",
        "impact": {
          "capacity_mw": 58,
          "power_draw_mw_est": null,
          "pue": null,
          "water_use_m3_year": null,
          "land_ha": null,
          "co2_t_year_est": null,
          "energy_mix_note_it": "capacity_mw = quota PPA Google (58 MW); picco impianto ~82 MW.",
          "energy_mix_note_en": "capacity_mw = Google PPA slice (58 MW); plant peak ~82 MW."
        },
        "sources": [
          {
            "title": "Google — clean energy progress in Ireland (Tullabeg PPA)",
            "url": "https://blog.google/intl/en-ie/company-news/googles-clean-energy-progress-in-ireland/",
            "accessed_at": "2026-10-08"
          },
          {
            "title": "DCD — Google signs 58MW solar PPA in Ireland",
            "url": "https://www.datacenterdynamics.com/en/news/google-signs-58mw-solar-ppa-in-ireland/",
            "accessed_at": "2026-10-08"
          },
          {
            "title": "GEM — Tullabeg solar farm",
            "url": "https://www.gem.wiki/Tullabeg_solar_farm",
            "accessed_at": "2026-10-08"
          }
        ],
        "community_impact_it": "FV new-to-grid in Wexford; matching orario Google verso 60% CFE 2025 (dichiarato).",
        "community_impact_en": "New-to-grid PV in Wexford; Google hourly matching toward 60% CFE 2025 (stated)."
      }
    },
    {
      "type": "Feature",
      "geometry": {
        "type": "Point",
        "coordinates": [
          -6.4542,
          53.6522
        ]
      },
      "properties": {
        "id": "ep_027",
        "name": "Gillinstown Solar Farm (Garballagh Lower)",
        "type": "energy_plant",
        "subtype": "solar",
        "operator": "Highfield Solar / Highfield Energy",
        "capacity": "~141 MWp (impianto); parte del PPA Meta 276 MWp Meath+Wexford",
        "description_it": "Parco solare Highfield a Gillinstown / Garballagh / Thomastown presso Duleek (Co. Meath), vicino al campus Meta Clonee. Uno dei due impianti del CPPA quindicennale Meta–Highfield (~276 MWp combinati con Rosspile).",
        "description_en": "Highfield solar farm at Gillinstown / Garballagh / Thomastown near Duleek (Co. Meath), close to Meta’s Clonee campus. One of two plants in the fifteen-year Meta–Highfield CPPA (~276 MWp combined with Rosspile).",
        "country": "IE",
        "city": "Duleek",
        "status": "operational",
        "site_category": "infrastructure",
        "opened_year": 2022,
        "updated_at": "2026-10-08",
        "confidence": "high",
        "impact": {
          "capacity_mw": 141,
          "power_draw_mw_est": null,
          "pue": null,
          "water_use_m3_year": null,
          "land_ha": 123,
          "co2_t_year_est": null,
          "energy_mix_note_it": "capacity_mw ≈ MWp impianto (finanziamento Highfield 141 MWp); offtake Meta sul duo Meath+Wexford.",
          "energy_mix_note_en": "capacity_mw ≈ plant MWp (Highfield financing 141 MWp); Meta offtake on the Meath+Wexford duo."
        },
        "sources": [
          {
            "title": "DCD — Meta signs two solar PPAs in Ireland",
            "url": "https://www.datacenterdynamics.com/en/news/meta-signs-two-solar-ppas-in-ireland/",
            "accessed_at": "2026-10-08"
          },
          {
            "title": "Highfield — Garballagh Lower / Gillinstown Solar Farm",
            "url": "https://www.highfieldenergy.com/SolarProjects/garballagh-lower-solar-farm",
            "accessed_at": "2026-10-08"
          },
          {
            "title": "Highfield Solar — financing Gillinstown + Rosspile 282 MWp",
            "url": "https://www.highfieldenergy.com/post/highfield-solar-a-highfield-energy-joint-venture-secures-160m-financing-for-irish-solar-pv-duo",
            "accessed_at": "2026-10-08"
          }
        ],
        "community_impact_it": "FV su terreni agricoli Meath; Meta sottolinea prossimità a Clonee.",
        "community_impact_en": "PV on Meath farmland; Meta highlights proximity to Clonee."
      }
    },
    {
      "type": "Feature",
      "geometry": {
        "type": "Point",
        "coordinates": [
          -6.78,
          52.35
        ]
      },
      "properties": {
        "id": "ep_028",
        "name": "Rosspile Solar Farm",
        "type": "energy_plant",
        "subtype": "solar",
        "operator": "Highfield Solar / Highfield Energy",
        "capacity": "~141 MWp; parte del PPA Meta 276 MWp",
        "description_it": "Parco solare Highfield a Rosspile / Foulkesmills (Co. Wexford). Secondo impianto del CPPA quindicennale Meta–Highfield insieme a Gillinstown (Meath).",
        "description_en": "Highfield solar farm at Rosspile / Foulkesmills (Co. Wexford). Second plant in the fifteen-year Meta–Highfield CPPA with Gillinstown (Meath).",
        "country": "IE",
        "city": "Foulkesmills",
        "status": "operational",
        "site_category": "infrastructure",
        "opened_year": 2022,
        "updated_at": "2026-10-08",
        "confidence": "high",
        "impact": {
          "capacity_mw": 141,
          "power_draw_mw_est": null,
          "pue": null,
          "water_use_m3_year": null,
          "land_ha": 140,
          "co2_t_year_est": null,
          "energy_mix_note_it": "capacity_mw ≈ MWp impianto; offtake Meta sul duo con Gillinstown.",
          "energy_mix_note_en": "capacity_mw ≈ plant MWp; Meta offtake on the duo with Gillinstown."
        },
        "sources": [
          {
            "title": "DCD — Meta signs two solar PPAs in Ireland",
            "url": "https://www.datacenterdynamics.com/en/news/meta-signs-two-solar-ppas-in-ireland/",
            "accessed_at": "2026-10-08"
          },
          {
            "title": "Highfield — Rosspile Solar Farm",
            "url": "https://www.highfieldenergy.com/SolarProjects/rosspile-solar-farm",
            "accessed_at": "2026-10-08"
          }
        ],
        "community_impact_it": "Grande FV Wexford; connessione verso linea Wexford–Great Island 110 kV (progetto).",
        "community_impact_en": "Large Wexford PV; connection toward Wexford–Great Island 110 kV line (project)."
      }
    },
    {
      "type": "Feature",
      "geometry": {
        "type": "Point",
        "coordinates": [
          -7.65,
          52.75
        ]
      },
      "properties": {
        "id": "ep_029",
        "name": "Lisheen III Wind Farm",
        "type": "energy_plant",
        "subtype": "wind",
        "operator": "Ørsted",
        "capacity": "28.8 MW (fase III); complesso Lisheen I–III ~89 MW",
        "description_it": "Fase III del parco eolico Lisheen (Co. Kilkenny / Laois), 28.8 MW. CPPA Ørsted–Meta: tutta la produzione di Lisheen III è immessa in rete con Meta che acquista l’equivalente rinnovabile per le operazioni irlandesi.",
        "description_en": "Phase III of the Lisheen wind farm (Co. Kilkenny / Laois), 28.8 MW. Ørsted–Meta CPPA: all Lisheen III output is grid-injected with Meta purchasing the equivalent renewables for Irish operations.",
        "country": "IE",
        "city": "Lisheen",
        "status": "operational",
        "site_category": "infrastructure",
        "opened_year": 2023,
        "updated_at": "2026-10-08",
        "confidence": "high",
        "impact": {
          "capacity_mw": 28.8,
          "power_draw_mw_est": null,
          "pue": null,
          "water_use_m3_year": null,
          "land_ha": null,
          "co2_t_year_est": null,
          "energy_mix_note_it": "Eolico onshore; CPPA Meta (matching di rete, non cavo dedicato a Clonee).",
          "energy_mix_note_en": "Onshore wind; Meta CPPA (grid matching, not a dedicated cable to Clonee)."
        },
        "sources": [
          {
            "title": "Ørsted — Lisheen III CPPA with Meta",
            "url": "https://orsted.ie/news/2023/05/orsted-irish-wind-farm-to-support-meta-with-green-energy",
            "accessed_at": "2026-10-08"
          }
        ],
        "community_impact_it": "Fondo community annuo legato al progetto Ørsted.",
        "community_impact_en": "Annual community fund tied to the Ørsted project."
      }
    },
    {
      "type": "Feature",
      "geometry": {
        "type": "Point",
        "coordinates": [
          -7.8328,
          53.2246
        ]
      },
      "properties": {
        "id": "ep_030",
        "name": "Derrinlough Wind Farm",
        "type": "energy_plant",
        "subtype": "wind",
        "operator": "Bord na Móna",
        "capacity": "126 MW installed / 105 MW export; PPA AWS 105 MW",
        "description_it": "Parco eolico Bord na Móna su torbiere Clongawny/Drinagh (Boora, West Offaly): 21 turbine V150-6.0, 126 MW installati, 105 MW export. PPA AWS–BnM da 105 MW; primo tassello della collaborazione Eco Energy Park Midlands (pipeline fino a 800 MW renewables).",
        "description_en": "Bord na Móna wind farm on Clongawny/Drinagh bogs (Boora, West Offaly): 21 V150-6.0 turbines, 126 MW installed, 105 MW export. AWS–BnM 105 MW PPA; first piece of the Midlands Eco Energy Park collaboration (pipeline up to 800 MW renewables).",
        "country": "IE",
        "city": "Cloghan",
        "status": "operational",
        "site_category": "infrastructure",
        "opened_year": 2026,
        "updated_at": "2026-10-08",
        "confidence": "high",
        "impact": {
          "capacity_mw": 105,
          "power_draw_mw_est": null,
          "pue": null,
          "water_use_m3_year": null,
          "land_ha": null,
          "co2_t_year_est": null,
          "energy_mix_note_it": "capacity_mw = export / PPA AWS (105 MW); installato 126 MW.",
          "energy_mix_note_en": "capacity_mw = export / AWS PPA (105 MW); installed 126 MW."
        },
        "sources": [
          {
            "title": "Bord na Móna — AWS Eco Energy Park / Derrinlough PPA",
            "url": "https://www.bnm.ie/bord-na-mona-announces-amazon-web-services-as-first-business-to-join-eco-energy-park/",
            "accessed_at": "2026-10-08"
          },
          {
            "title": "BnM — Minister opens Derrinlough Wind Farm (AWS CPPA)",
            "url": "https://www.bnm.ie/minister-darragh-obrien-opens-bnms-126mw-derrinlough-wind-farm-in-offaly/",
            "accessed_at": "2026-10-08"
          },
          {
            "title": "Derrinlough Wind Farm — overview",
            "url": "https://www.derrinloughwindfarm.ie/overview-timeline/",
            "accessed_at": "2026-10-08"
          },
          {
            "title": "GEM — Derrinlough wind farm",
            "url": "https://www.gem.wiki/Derrinlough_wind_farm",
            "accessed_at": "2026-10-08"
          }
        ],
        "community_impact_it": "Community Benefit Fund ~€12 mln lifetime; riconversione torbiera BnM.",
        "community_impact_en": "Community Benefit Fund ~€12m lifetime; BnM peatland reuse."
      }
    }
  ]
}
