{
  "type": "FeatureCollection",
  "features": [
    {
      "type": "Feature",
      "geometry": {
        "type": "Point",
        "coordinates": [
          9.379813,
          45.434851
        ]
      },
      "properties": {
        "id": "gn_001",
        "name": "Cabina primaria Caleppio — Settala",
        "type": "grid_node",
        "subtype": "substation",
        "operator": "E-Distribuzione",
        "capacity": "132 kV",
        "description_it": "Cabina primaria di distribuzione a Caleppio di Settala, in alta tensione 132 kV. È il punto da cui partono le linee in media tensione che alimentano le unità RDD e Ballard del campus Microsoft (MIL01/MIL02). Non è una centrale: non produce elettricità.",
        "description_en": "Primary distribution substation at Caleppio di Settala, 132 kV. The medium-voltage lines that feed Microsoft’s RDD and Ballard units (MIL01/MIL02) start here. It is not a power plant: it does not generate electricity.",
        "country": "IT",
        "city": "Settala",
        "status": "operational",
        "site_category": "infrastructure",
        "opened_year": null,
        "updated_at": "2026-09-28",
        "confidence": "high",
        "sources": [
          {
            "title": "OpenStreetMap — cabina Caleppio (way 165395785)",
            "url": "https://www.openstreetmap.org/way/165395785",
            "accessed_at": "2026-09-28",
            "note": "Nome Caleppio, operator Enel Distribuzione (oggi E-Distribuzione), voltage 132000, substation=distribution"
          },
          {
            "title": "Microsoft — ottemperanza screening Settala (ID VIP 6197)",
            "url": "https://va.mite.gov.it/File/Documento/770887",
            "accessed_at": "2026-09-28",
            "note": "Tre linee MT E-Distribuzione; RDD e Ballard dalla sottostazione di Caleppio di Settala"
          }
        ],
        "community_impact_it": "Nodo di rete locale. L’impatto territoriale del prelievo si legge sul campus collegato, non sulla cabina."
      }
    },
    {
      "type": "Feature",
      "geometry": {
        "type": "Point",
        "coordinates": [
          9.13181,
          45.3446
        ]
      },
      "properties": {
        "id": "gn_002",
        "name": "Stazione Terna Lacchiarella",
        "type": "grid_node",
        "subtype": "substation",
        "operator": "Terna",
        "capacity": "380 kV",
        "description_it": "Stazione di trasmissione esistente a Lacchiarella, 380 kV. Il campus Microsoft di Noviglio (Building MXP-I) vi arriva con un cavo interrato a 132 kV. Anche Apto Lacchiarella ha una STMG (202400955) per allaccio con cavo sotterraneo a questa stazione. Non è la futura SE Lacchiarella Ovest, progetto Terna distinto, e non è una centrale.",
        "description_en": "Existing transmission station at Lacchiarella, 380 kV. Microsoft’s Noviglio campus (Building MXP-I) reaches it by a buried 132 kV cable. Apto Lacchiarella also holds an STMG (202400955) for an underground cable to this station. This is not the future Lacchiarella Ovest station, a separate Terna project, and it is not a power plant.",
        "country": "IT",
        "city": "Lacchiarella",
        "status": "operational",
        "site_category": "infrastructure",
        "opened_year": null,
        "updated_at": "2026-09-29",
        "confidence": "high",
        "sources": [
          {
            "title": "OpenStreetMap — stazione Lacchiarella (way 236661269)",
            "url": "https://www.openstreetmap.org/way/236661269",
            "accessed_at": "2026-09-28",
            "note": "Nome Lacchiarella, operator Terna S.p.A., voltage 380000, substation=transmission"
          },
          {
            "title": "SIA ampliamento data center Noviglio — cavo 132 kV",
            "url": "https://va.mite.gov.it/File/Documento/1186222",
            "accessed_at": "2026-09-28",
            "note": "Cavo interrato 132 kV dalla sottostazione Terna nel comune di Lacchiarella alla sottostazione del campus"
          },
          {
            "title": "Apto — STMG 202400955 verso SE Lacchiarella",
            "url": "https://va.mite.gov.it/File/Documento/1406478",
            "accessed_at": "2026-09-29",
            "note": "Allaccio nominato alla SE esistente, non a Lacchiarella Ovest"
          }
        ],
        "community_impact_it": "Nodo di trasmissione già in esercizio. Il prelievo del campus si legge sul cavo e sul sito, non come produzione della stazione."
      }
    },
    {
      "type": "Feature",
      "geometry": {
        "type": "Point",
        "coordinates": [
          8.74652,
          45.51862
        ]
      },
      "properties": {
        "id": "gn_003",
        "name": "Stazione 380 kV Turbigo",
        "type": "grid_node",
        "subtype": "substation",
        "operator": "Edipower",
        "capacity": "380 kV",
        "description_it": "Stazione di trasmissione a 380 kV subito a est della centrale Iren di Turbigo. È il punto in cui la centrale immette in rete. L’operatore in OpenStreetMap è Edipower, il precedente proprietario dell’impianto. Gli archi inferred verso i campus milanesi segnalano lo stesso cluster di rete: non sono l’allaccio di quei campus né un offtake.",
        "description_en": "380 kV transmission station just east of the Iren plant at Turbigo. This is where the plant injects into the grid. OpenStreetMap names the operator as Edipower, the plant’s previous owner. Inferred edges toward Milan campuses mark the same grid cluster: they are not those campuses’ connection points and not an offtake.",
        "country": "IT",
        "city": "Turbigo",
        "status": "operational",
        "site_category": "infrastructure",
        "opened_year": null,
        "updated_at": "2026-09-28",
        "confidence": "high",
        "sources": [
          {
            "title": "OpenStreetMap — stazione Turbigo (way 162828577)",
            "url": "https://www.openstreetmap.org/way/162828577",
            "accessed_at": "2026-09-28",
            "note": "Nome Turbigo, operator Edipower, voltage 380000, substation=transmission"
          }
        ],
        "community_impact_it": "Nodo di immissione della centrale. L’impatto emissivo resta sull’impianto a gas, non sulla stazione."
      }
    },
    {
      "type": "Feature",
      "geometry": {
        "type": "Point",
        "coordinates": [
          9.0585,
          45.4688
        ]
      },
      "properties": {
        "id": "gn_004",
        "name": "Stazione Terna Baggio",
        "type": "grid_node",
        "subtype": "substation",
        "operator": "Terna",
        "capacity": "380/132 kV",
        "description_it": "Stazione di trasmissione Terna di Baggio, al margine ovest della frazione Seguro (Settimo Milanese) lungo via Edison. È il punto di allaccio nominato del campus Microsoft MIL03 (due cavi 132 kV interrati). Non è una centrale. Pin approssimato dalla descrizione VIA: il nome Baggio non compare come way dedicata in OpenStreetMap al momento della cura.",
        "description_en": "Terna’s Baggio transmission station, on the western edge of Seguro (Settimo Milanese) along Via Edison. It is the named connection point for Microsoft’s MIL03 campus (two buried 132 kV cables). It is not a power plant. Approximate pin from the EIA description: the Baggio name is not present as a dedicated OpenStreetMap way at the time of curation.",
        "country": "IT",
        "city": "Settimo Milanese",
        "status": "operational",
        "site_category": "infrastructure",
        "opened_year": null,
        "updated_at": "2026-09-29",
        "confidence": "medium",
        "sources": [
          {
            "title": "MASE — integrazione elettrodotto MIL03 / SE Baggio",
            "url": "https://va.mite.gov.it/File/Documento/833908",
            "accessed_at": "2026-09-29",
            "note": "SE Baggio, via Edison, frazione Seguro"
          },
          {
            "title": "OpenStreetMap — Via Tommaso Edison, Seguro",
            "url": "https://www.openstreetmap.org/way/24871154",
            "accessed_at": "2026-09-29",
            "note": "Ancoraggio stradale del pin; la stazione non è mappata con nome Baggio"
          }
        ],
        "community_impact_it": "Nodo di trasmissione già in esercizio. Il prelievo del campus si legge sul cavo MIL03, non come produzione della stazione."
      }
    },
    {
      "type": "Feature",
      "geometry": {
        "type": "Point",
        "coordinates": [
          9.3208,
          45.3532
        ]
      },
      "properties": {
        "id": "gn_005",
        "name": "Stazione Terna 220 kV Melegnano",
        "type": "grid_node",
        "subtype": "substation",
        "operator": "Terna",
        "capacity": "220 kV",
        "description_it": "Nuova stazione Terna 220 kV Melegnano autorizzata (decreto EL 488 del 26/08/2022) in entra-esce sulla linea Ricevitrice Sud Milano–Tavazzano, contigua al campus Vantage MXP1. Il collegamento AT al data center è un doppio elettrodotto interrato sul solo confine tra le due stazioni (STMG 202000961, 100 MW). Non è in OpenStreetMap: pin approssimato accanto al campus. Non è una centrale.",
        "description_en": "New Terna 220 kV Melegnano station authorised (decree EL 488 of 26 Aug 2022) as a tee-in on the Ricevitrice Sud Milano–Tavazzano line, contiguous with the Vantage MXP1 campus. The AT link to the data center is a dual buried line across the boundary between the two stations (STMG 202000961, 100 MW). Not in OpenStreetMap: approximate pin beside the campus. It is not a power plant.",
        "country": "IT",
        "city": "Melegnano",
        "status": "under_construction",
        "site_category": "infrastructure",
        "opened_year": null,
        "updated_at": "2026-09-29",
        "confidence": "medium",
        "sources": [
          {
            "title": "MASE — VIA completamento MXP1 / SE Melegnano",
            "url": "https://va.mite.gov.it/File/Documento/1254480",
            "accessed_at": "2026-09-29",
            "note": "Stazione Terna contigua; STMG 202000961"
          }
        ],
        "community_impact_it": "Nuovo nodo di trasmissione a ridosso del campus. L’impatto territoriale si legge sul sito Vantage e sulla linea entra-esce, non come produzione della stazione."
      }
    }
  ]
}
